<?xml version="1.0" encoding="UTF-8"?>
<!-- track-length = 23616 filtered ascend = 16 plain-ascend = 0 cost=23616 energy=0.3kwh time=31m 29s -->
<gpx 
 xmlns="http://www.topografix.com/GPX/1/1" 
 xmlns:xsi="http://www.w3.org/2001/XMLSchema-instance" 
 xsi:schemaLocation="http://www.topografix.com/GPX/1/1 http://www.topografix.com/GPX/1/1/gpx.xsd" 
 version="1.1" 
 creator="BRouter-Web 0.18.1">
 <trk>
  <name>ALT</name>
  <trkseg>
   <trkpt lat="-37.818772" lon="144.966627"><ele>14</ele></trkpt>
   <trkpt lat="-37.818887" lon="144.966027"><ele>12.5</ele></trkpt>
   <trkpt lat="-37.818954" lon="144.965656"><ele>11.5</ele></trkpt>
   <trkpt lat="-37.819071" lon="144.965014"><ele>9</ele></trkpt>
   <trkpt lat="-37.819092" lon="144.964892"><ele>9.25</ele></trkpt>
   <trkpt lat="-37.819144" lon="144.964429"><ele>10.25</ele></trkpt>
   <trkpt lat="-37.819192" lon="144.964023"><ele>10.75</ele></trkpt>
   <trkpt lat="-37.819218" lon="144.963863"><ele>10.75</ele></trkpt>
   <trkpt lat="-37.819407" lon="144.963117"><ele>11.5</ele></trkpt>
   <trkpt lat="-37.819455" lon="144.962923"><ele>12</ele></trkpt>
   <trkpt lat="-37.819482" lon="144.962793"><ele>12.5</ele></trkpt>
   <trkpt lat="-37.819546" lon="144.962355"><ele>13.25</ele></trkpt>
   <trkpt lat="-37.819649" lon="144.961654"><ele>13.25</ele></trkpt>
   <trkpt lat="-37.819725" lon="144.96125"><ele>13.25</ele></trkpt>
   <trkpt lat="-37.819785" lon="144.961005"><ele>13.25</ele></trkpt>
   <trkpt lat="-37.81986" lon="144.960756"><ele>13.25</ele></trkpt>
   <trkpt lat="-37.81996" lon="144.960479"><ele>13.25</ele></trkpt>
   <trkpt lat="-37.821176" lon="144.95738"><ele>13.75</ele></trkpt>
   <trkpt lat="-37.821295" lon="144.95706"><ele>13.75</ele></trkpt>
   <trkpt lat="-37.821379" lon="144.956752"><ele>13.75</ele></trkpt>
   <trkpt lat="-37.821414" lon="144.956585"><ele>13.75</ele></trkpt>
   <trkpt lat="-37.821439" lon="144.956411"><ele>13.75</ele></trkpt>
   <trkpt lat="-37.82147" lon="144.956086"><ele>14</ele></trkpt>
   <trkpt lat="-37.821472" lon="144.955787"><ele>14</ele></trkpt>
   <trkpt lat="-37.821435" lon="144.955455"><ele>14</ele></trkpt>
   <trkpt lat="-37.821384" lon="144.955153"><ele>14</ele></trkpt>
   <trkpt lat="-37.821307" lon="144.954876"><ele>14</ele></trkpt>
   <trkpt lat="-37.8212" lon="144.954581"><ele>14</ele></trkpt>
   <trkpt lat="-37.821042" lon="144.954252"><ele>14</ele></trkpt>
   <trkpt lat="-37.820953" lon="144.954116"><ele>14</ele></trkpt>
   <trkpt lat="-37.820684" lon="144.953731"><ele>14.25</ele></trkpt>
   <trkpt lat="-37.820512" lon="144.953515"><ele>12.5</ele></trkpt>
   <trkpt lat="-37.820411" lon="144.953374"><ele>11.25</ele></trkpt>
   <trkpt lat="-37.820288" lon="144.953139"><ele>10.75</ele></trkpt>
   <trkpt lat="-37.820177" lon="144.952981"><ele>10.5</ele></trkpt>
   <trkpt lat="-37.82005" lon="144.952828"><ele>10.25</ele></trkpt>
   <trkpt lat="-37.819979" lon="144.952758"><ele>10</ele></trkpt>
   <trkpt lat="-37.819883" lon="144.952658"><ele>9.25</ele></trkpt>
   <trkpt lat="-37.81971" lon="144.952429"><ele>7.75</ele></trkpt>
   <trkpt lat="-37.819604" lon="144.95231"><ele>7</ele></trkpt>
   <trkpt lat="-37.819451" lon="144.952166"><ele>6.25</ele></trkpt>
   <trkpt lat="-37.81925" lon="144.952018"><ele>5.5</ele></trkpt>
   <trkpt lat="-37.81903" lon="144.951861"><ele>6.25</ele></trkpt>
   <trkpt lat="-37.818521" lon="144.951465"><ele>9.75</ele></trkpt>
   <trkpt lat="-37.818009" lon="144.951058"><ele>11.25</ele></trkpt>
   <trkpt lat="-37.817695" lon="144.950817"><ele>12</ele></trkpt>
   <trkpt lat="-37.817529" lon="144.950692"><ele>11.75</ele></trkpt>
   <trkpt lat="-37.817195" lon="144.950473"><ele>10.25</ele></trkpt>
   <trkpt lat="-37.816682" lon="144.950136"><ele>10.75</ele></trkpt>
   <trkpt lat="-37.816328" lon="144.949857"><ele>11.75</ele></trkpt>
   <trkpt lat="-37.815855" lon="144.949429"><ele>12.5</ele></trkpt>
   <trkpt lat="-37.815537" lon="144.949183"><ele>12.5</ele></trkpt>
   <trkpt lat="-37.815093" lon="144.948838"><ele>11.75</ele></trkpt>
   <trkpt lat="-37.81476" lon="144.948503"><ele>10.5</ele></trkpt>
   <trkpt lat="-37.814315" lon="144.948143"><ele>10</ele></trkpt>
   <trkpt lat="-37.813916" lon="144.947766"><ele>9</ele></trkpt>
   <trkpt lat="-37.813268" lon="144.947172"><ele>10.25</ele></trkpt>
   <trkpt lat="-37.813056" lon="144.946949"><ele>11</ele></trkpt>
   <trkpt lat="-37.812713" lon="144.946568"><ele>12.5</ele></trkpt>
   <trkpt lat="-37.812475" lon="144.946274"><ele>13.25</ele></trkpt>
   <trkpt lat="-37.812236" lon="144.945975"><ele>11.5</ele></trkpt>
   <trkpt lat="-37.811957" lon="144.945645"><ele>9.5</ele></trkpt>
   <trkpt lat="-37.81173" lon="144.945381"><ele>8.5</ele></trkpt>
   <trkpt lat="-37.811331" lon="144.944935"><ele>9.25</ele></trkpt>
   <trkpt lat="-37.81118" lon="144.944779"><ele>9.25</ele></trkpt>
   <trkpt lat="-37.810529" lon="144.944162"><ele>7.75</ele></trkpt>
   <trkpt lat="-37.810473" lon="144.94411"><ele>7.75</ele></trkpt>
   <trkpt lat="-37.810413" lon="144.944053"><ele>7.75</ele></trkpt>
   <trkpt lat="-37.81014" lon="144.943802"><ele>7.5</ele></trkpt>
   <trkpt lat="-37.80997" lon="144.94367"><ele>7.5</ele></trkpt>
   <trkpt lat="-37.80936" lon="144.943224"><ele>11</ele></trkpt>
   <trkpt lat="-37.808951" lon="144.942849"><ele>10.25</ele></trkpt>
   <trkpt lat="-37.808782" lon="144.942715"><ele>9.5</ele></trkpt>
   <trkpt lat="-37.808582" lon="144.942578"><ele>9</ele></trkpt>
   <trkpt lat="-37.808394" lon="144.942418"><ele>8.75</ele></trkpt>
   <trkpt lat="-37.808142" lon="144.942186"><ele>8.75</ele></trkpt>
   <trkpt lat="-37.807929" lon="144.942012"><ele>8.25</ele></trkpt>
   <trkpt lat="-37.80778" lon="144.941872"><ele>7.5</ele></trkpt>
   <trkpt lat="-37.807593" lon="144.941676"><ele>6.25</ele></trkpt>
   <trkpt lat="-37.807566" lon="144.941648"><ele>6.25</ele></trkpt>
   <trkpt lat="-37.807317" lon="144.941386"><ele>7.25</ele></trkpt>
   <trkpt lat="-37.807054" lon="144.941116"><ele>8.75</ele></trkpt>
   <trkpt lat="-37.806737" lon="144.940831"><ele>9.5</ele></trkpt>
   <trkpt lat="-37.806574" lon="144.940698"><ele>9.75</ele></trkpt>
   <trkpt lat="-37.806469" lon="144.940602"><ele>9.5</ele></trkpt>
   <trkpt lat="-37.806319" lon="144.940449"><ele>9.5</ele></trkpt>
   <trkpt lat="-37.806189" lon="144.94033"><ele>9.25</ele></trkpt>
   <trkpt lat="-37.806075" lon="144.940238"><ele>9.25</ele></trkpt>
   <trkpt lat="-37.805883" lon="144.94007"><ele>9</ele></trkpt>
   <trkpt lat="-37.805743" lon="144.939913"><ele>9</ele></trkpt>
   <trkpt lat="-37.805648" lon="144.939799"><ele>9</ele></trkpt>
   <trkpt lat="-37.80547" lon="144.93954"><ele>9.25</ele></trkpt>
   <trkpt lat="-37.805388" lon="144.939402"><ele>9.5</ele></trkpt>
   <trkpt lat="-37.804744" lon="144.938242"><ele>10.5</ele></trkpt>
   <trkpt lat="-37.804399" lon="144.937611"><ele>10.5</ele></trkpt>
   <trkpt lat="-37.804244" lon="144.937333"><ele>10.5</ele></trkpt>
   <trkpt lat="-37.804189" lon="144.937238"><ele>10.5</ele></trkpt>
   <trkpt lat="-37.804089" lon="144.937093"><ele>10.5</ele></trkpt>
   <trkpt lat="-37.803736" lon="144.936672"><ele>10.25</ele></trkpt>
   <trkpt lat="-37.803561" lon="144.936463"><ele>9.75</ele></trkpt>
   <trkpt lat="-37.803358" lon="144.936218"><ele>9.5</ele></trkpt>
   <trkpt lat="-37.803196" lon="144.936017"><ele>9.5</ele></trkpt>
   <trkpt lat="-37.803063" lon="144.935831"><ele>9.75</ele></trkpt>
   <trkpt lat="-37.802887" lon="144.935568"><ele>10</ele></trkpt>
   <trkpt lat="-37.80272" lon="144.935369"><ele>10.5</ele></trkpt>
   <trkpt lat="-37.802634" lon="144.935269"><ele>10.5</ele></trkpt>
   <trkpt lat="-37.802335" lon="144.93489"><ele>10.25</ele></trkpt>
   <trkpt lat="-37.802235" lon="144.934739"><ele>10</ele></trkpt>
   <trkpt lat="-37.801882" lon="144.934216"><ele>11</ele></trkpt>
   <trkpt lat="-37.801499" lon="144.933631"><ele>9.75</ele></trkpt>
   <trkpt lat="-37.801306" lon="144.933289"><ele>9.25</ele></trkpt>
   <trkpt lat="-37.801202" lon="144.933082"><ele>9.25</ele></trkpt>
   <trkpt lat="-37.801081" lon="144.932816"><ele>9.5</ele></trkpt>
   <trkpt lat="-37.800964" lon="144.932518"><ele>9.5</ele></trkpt>
   <trkpt lat="-37.800879" lon="144.932277"><ele>9.75</ele></trkpt>
   <trkpt lat="-37.800799" lon="144.932021"><ele>10</ele></trkpt>
   <trkpt lat="-37.800612" lon="144.931331"><ele>11.25</ele></trkpt>
   <trkpt lat="-37.80055" lon="144.931067"><ele>12</ele></trkpt>
   <trkpt lat="-37.80043" lon="144.93047"><ele>12.25</ele></trkpt>
   <trkpt lat="-37.800294" lon="144.929588"><ele>10.75</ele></trkpt>
   <trkpt lat="-37.800186" lon="144.929088"><ele>10.25</ele></trkpt>
   <trkpt lat="-37.800114" lon="144.9288"><ele>10</ele></trkpt>
   <trkpt lat="-37.800055" lon="144.928556"><ele>10</ele></trkpt>
   <trkpt lat="-37.800005" lon="144.928297"><ele>9.75</ele></trkpt>
   <trkpt lat="-37.799988" lon="144.928184"><ele>9.75</ele></trkpt>
   <trkpt lat="-37.799618" lon="144.925678"><ele>9.25</ele></trkpt>
   <trkpt lat="-37.799605" lon="144.925585"><ele>9</ele></trkpt>
   <trkpt lat="-37.799356" lon="144.923909"><ele>8.75</ele></trkpt>
   <trkpt lat="-37.799347" lon="144.923847"><ele>8.75</ele></trkpt>
   <trkpt lat="-37.799257" lon="144.923257"><ele>8.5</ele></trkpt>
   <trkpt lat="-37.798757" lon="144.919852"><ele>8</ele></trkpt>
   <trkpt lat="-37.798707" lon="144.91952"><ele>8</ele></trkpt>
   <trkpt lat="-37.798701" lon="144.919477"><ele>8</ele></trkpt>
   <trkpt lat="-37.79832" lon="144.91691"><ele>5</ele></trkpt>
   <trkpt lat="-37.798207" lon="144.91615"><ele>6</ele></trkpt>
   <trkpt lat="-37.798144" lon="144.915755"><ele>7.5</ele></trkpt>
   <trkpt lat="-37.798001" lon="144.914774"><ele>8.75</ele></trkpt>
   <trkpt lat="-37.79796" lon="144.914411"><ele>6.25</ele></trkpt>
   <trkpt lat="-37.797931" lon="144.913982"><ele>4.25</ele></trkpt>
   <trkpt lat="-37.797927" lon="144.913605"><ele>4.5</ele></trkpt>
   <trkpt lat="-37.797945" lon="144.913218"><ele>4.75</ele></trkpt>
   <trkpt lat="-37.797975" lon="144.912891"><ele>6</ele></trkpt>
   <trkpt lat="-37.798038" lon="144.912428"><ele>7</ele></trkpt>
   <trkpt lat="-37.79826" lon="144.911016"><ele>8.5</ele></trkpt>
   <trkpt lat="-37.798644" lon="144.908747"><ele>13</ele></trkpt>
   <trkpt lat="-37.79874" lon="144.908258"><ele>15.75</ele></trkpt>
   <trkpt lat="-37.79878" lon="144.908082"><ele>16.5</ele></trkpt>
   <trkpt lat="-37.798915" lon="144.907571"><ele>19</ele></trkpt>
   <trkpt lat="-37.79905" lon="144.907117"><ele>21.5</ele></trkpt>
   <trkpt lat="-37.799129" lon="144.90689"><ele>22.75</ele></trkpt>
   <trkpt lat="-37.799253" lon="144.906576"><ele>23.5</ele></trkpt>
   <trkpt lat="-37.799765" lon="144.905396"><ele>24</ele></trkpt>
   <trkpt lat="-37.799913" lon="144.905099"><ele>24.75</ele></trkpt>
   <trkpt lat="-37.800043" lon="144.90486"><ele>25</ele></trkpt>
   <trkpt lat="-37.800606" lon="144.903961"><ele>23.75</ele></trkpt>
   <trkpt lat="-37.80111" lon="144.903221"><ele>21.5</ele></trkpt>
   <trkpt lat="-37.801307" lon="144.902958"><ele>21.75</ele></trkpt>
   <trkpt lat="-37.801423" lon="144.902811"><ele>21.75</ele></trkpt>
   <trkpt lat="-37.80192" lon="144.902262"><ele>21.5</ele></trkpt>
   <trkpt lat="-37.802177" lon="144.902003"><ele>22.5</ele></trkpt>
   <trkpt lat="-37.802386" lon="144.901808"><ele>23.25</ele></trkpt>
   <trkpt lat="-37.8026" lon="144.90162"><ele>23.25</ele></trkpt>
   <trkpt lat="-37.803885" lon="144.900424"><ele>20.25</ele></trkpt>
   <trkpt lat="-37.804074" lon="144.90025"><ele>20.5</ele></trkpt>
   <trkpt lat="-37.804457" lon="144.899913"><ele>21</ele></trkpt>
   <trkpt lat="-37.805961" lon="144.898502"><ele>17.25</ele></trkpt>
   <trkpt lat="-37.806161" lon="144.89832"><ele>16.25</ele></trkpt>
   <trkpt lat="-37.807202" lon="144.89734"><ele>15.5</ele></trkpt>
   <trkpt lat="-37.807811" lon="144.896753"><ele>17.5</ele></trkpt>
   <trkpt lat="-37.808474" lon="144.896146"><ele>20.5</ele></trkpt>
   <trkpt lat="-37.809027" lon="144.895628"><ele>21.5</ele></trkpt>
   <trkpt lat="-37.809631" lon="144.895066"><ele>24.25</ele></trkpt>
   <trkpt lat="-37.810353" lon="144.894378"><ele>24.25</ele></trkpt>
   <trkpt lat="-37.810903" lon="144.893871"><ele>24.75</ele></trkpt>
   <trkpt lat="-37.811168" lon="144.893617"><ele>24.25</ele></trkpt>
   <trkpt lat="-37.811498" lon="144.893318"><ele>23.25</ele></trkpt>
   <trkpt lat="-37.811638" lon="144.893181"><ele>23.25</ele></trkpt>
   <trkpt lat="-37.811955" lon="144.892897"><ele>23.5</ele></trkpt>
   <trkpt lat="-37.812169" lon="144.89269"><ele>23.25</ele></trkpt>
   <trkpt lat="-37.812567" lon="144.892316"><ele>22.25</ele></trkpt>
   <trkpt lat="-37.813312" lon="144.891633"><ele>23</ele></trkpt>
   <trkpt lat="-37.813525" lon="144.891442"><ele>22.75</ele></trkpt>
   <trkpt lat="-37.813753" lon="144.891264"><ele>22.5</ele></trkpt>
   <trkpt lat="-37.813847" lon="144.891172"><ele>22.25</ele></trkpt>
   <trkpt lat="-37.814257" lon="144.890859"><ele>20.75</ele></trkpt>
   <trkpt lat="-37.814709" lon="144.890544"><ele>20.5</ele></trkpt>
   <trkpt lat="-37.815078" lon="144.890312"><ele>20.5</ele></trkpt>
   <trkpt lat="-37.815532" lon="144.890056"><ele>19.75</ele></trkpt>
   <trkpt lat="-37.815901" lon="144.889873"><ele>19</ele></trkpt>
   <trkpt lat="-37.816451" lon="144.889625"><ele>18.75</ele></trkpt>
   <trkpt lat="-37.816459" lon="144.889622"><ele>18.75</ele></trkpt>
   <trkpt lat="-37.816531" lon="144.889591"><ele>18.5</ele></trkpt>
   <trkpt lat="-37.816588" lon="144.889571"><ele>18.5</ele></trkpt>
   <trkpt lat="-37.81688" lon="144.889465"><ele>18</ele></trkpt>
   <trkpt lat="-37.817113" lon="144.889389"><ele>17.75</ele></trkpt>
   <trkpt lat="-37.817533" lon="144.889268"><ele>17</ele></trkpt>
   <trkpt lat="-37.819873" lon="144.888668"><ele>14</ele></trkpt>
   <trkpt lat="-37.82087" lon="144.888414"><ele>10.25</ele></trkpt>
   <trkpt lat="-37.821039" lon="144.888368"><ele>10.25</ele></trkpt>
   <trkpt lat="-37.822749" lon="144.887927"><ele>11</ele></trkpt>
   <trkpt lat="-37.823023" lon="144.887855"><ele>10.75</ele></trkpt>
   <trkpt lat="-37.824794" lon="144.887411"><ele>12.5</ele></trkpt>
   <trkpt lat="-37.828655" lon="144.886407"><ele>17.25</ele></trkpt>
   <trkpt lat="-37.82977" lon="144.886128"><ele>18.25</ele></trkpt>
   <trkpt lat="-37.829867" lon="144.886102"><ele>18.5</ele></trkpt>
   <trkpt lat="-37.830034" lon="144.88606"><ele>18.5</ele></trkpt>
   <trkpt lat="-37.83064" lon="144.885902"><ele>17.5</ele></trkpt>
   <trkpt lat="-37.831429" lon="144.885699"><ele>17.75</ele></trkpt>
   <trkpt lat="-37.832761" lon="144.885356"><ele>17.75</ele></trkpt>
   <trkpt lat="-37.837593" lon="144.884117"><ele>15.5</ele></trkpt>
   <trkpt lat="-37.838136" lon="144.883982"><ele>18.5</ele></trkpt>
   <trkpt lat="-37.838575" lon="144.883885"><ele>19</ele></trkpt>
   <trkpt lat="-37.83913" lon="144.883778"><ele>18</ele></trkpt>
   <trkpt lat="-37.839897" lon="144.883667"><ele>18.25</ele></trkpt>
   <trkpt lat="-37.840752" lon="144.883577"><ele>17.25</ele></trkpt>
   <trkpt lat="-37.841396" lon="144.883547"><ele>18.5</ele></trkpt>
   <trkpt lat="-37.841754" lon="144.88354"><ele>19</ele></trkpt>
   <trkpt lat="-37.84209" lon="144.883535"><ele>18.75</ele></trkpt>
   <trkpt lat="-37.842724" lon="144.883555"><ele>18.5</ele></trkpt>
   <trkpt lat="-37.843176" lon="144.883582"><ele>18.5</ele></trkpt>
   <trkpt lat="-37.843367" lon="144.883591"><ele>18.5</ele></trkpt>
   <trkpt lat="-37.843478" lon="144.883589"><ele>18.5</ele></trkpt>
   <trkpt lat="-37.843714" lon="144.883568"><ele>18.75</ele></trkpt>
   <trkpt lat="-37.844048" lon="144.883543"><ele>18.75</ele></trkpt>
   <trkpt lat="-37.844337" lon="144.88351"><ele>18</ele></trkpt>
   <trkpt lat="-37.84459" lon="144.88347"><ele>16.75</ele></trkpt>
   <trkpt lat="-37.844837" lon="144.883389"><ele>15.5</ele></trkpt>
   <trkpt lat="-37.844962" lon="144.883333"><ele>15</ele></trkpt>
   <trkpt lat="-37.84511" lon="144.883255"><ele>15.25</ele></trkpt>
   <trkpt lat="-37.845383" lon="144.883093"><ele>15.5</ele></trkpt>
   <trkpt lat="-37.845667" lon="144.882873"><ele>16</ele></trkpt>
   <trkpt lat="-37.845898" lon="144.882656"><ele>16.25</ele></trkpt>
   <trkpt lat="-37.846203" lon="144.882307"><ele>16</ele></trkpt>
   <trkpt lat="-37.84641" lon="144.882027"><ele>15.5</ele></trkpt>
   <trkpt lat="-37.84662" lon="144.881685"><ele>15</ele></trkpt>
   <trkpt lat="-37.846776" lon="144.881363"><ele>14.75</ele></trkpt>
   <trkpt lat="-37.846928" lon="144.881001"><ele>14.75</ele></trkpt>
   <trkpt lat="-37.847155" lon="144.880343"><ele>14.25</ele></trkpt>
   <trkpt lat="-37.848398" lon="144.876659"><ele>13</ele></trkpt>
   <trkpt lat="-37.848466" lon="144.876446"><ele>13</ele></trkpt>
   <trkpt lat="-37.848683" lon="144.87592"><ele>12.5</ele></trkpt>
   <trkpt lat="-37.848745" lon="144.875732"><ele>12.25</ele></trkpt>
   <trkpt lat="-37.849022" lon="144.875003"><ele>12</ele></trkpt>
   <trkpt lat="-37.84911" lon="144.874738"><ele>11.5</ele></trkpt>
   <trkpt lat="-37.849138" lon="144.874648"><ele>11.5</ele></trkpt>
   <trkpt lat="-37.849162" lon="144.874574"><ele>11.25</ele></trkpt>
   <trkpt lat="-37.849302" lon="144.874055"><ele>10.75</ele></trkpt>
   <trkpt lat="-37.849382" lon="144.873696"><ele>10.25</ele></trkpt>
   <trkpt lat="-37.849427" lon="144.873454"><ele>9.75</ele></trkpt>
   <trkpt lat="-37.849463" lon="144.873212"><ele>9.5</ele></trkpt>
   <trkpt lat="-37.849507" lon="144.872827"><ele>9.75</ele></trkpt>
   <trkpt lat="-37.849529" lon="144.872375"><ele>9.75</ele></trkpt>
   <trkpt lat="-37.849533" lon="144.871835"><ele>9.25</ele></trkpt>
   <trkpt lat="-37.84951" lon="144.871227"><ele>9.5</ele></trkpt>
   <trkpt lat="-37.84945" lon="144.87062"><ele>10.25</ele></trkpt>
   <trkpt lat="-37.849186" lon="144.868295"><ele>7.75</ele></trkpt>
   <trkpt lat="-37.84888" lon="144.865656"><ele>5.75</ele></trkpt>
   <trkpt lat="-37.848627" lon="144.8636"><ele>6</ele></trkpt>
   <trkpt lat="-37.84847" lon="144.862474"><ele>5.75</ele></trkpt>
   <trkpt lat="-37.848325" lon="144.861368"><ele>4.75</ele></trkpt>
   <trkpt lat="-37.848305" lon="144.861193"><ele>5</ele></trkpt>
   <trkpt lat="-37.848287" lon="144.861035"><ele>5</ele></trkpt>
   <trkpt lat="-37.848242" lon="144.860653"><ele>5.25</ele></trkpt>
   <trkpt lat="-37.848053" lon="144.859049"><ele>5.75</ele></trkpt>
   <trkpt lat="-37.847996" lon="144.858102"><ele>6.25</ele></trkpt>
   <trkpt lat="-37.847923" lon="144.857307"><ele>6</ele></trkpt>
   <trkpt lat="-37.847908" lon="144.856934"><ele>6.5</ele></trkpt>
   <trkpt lat="-37.847925" lon="144.856527"><ele>7</ele></trkpt>
   <trkpt lat="-37.847967" lon="144.856182"><ele>7.25</ele></trkpt>
   <trkpt lat="-37.848038" lon="144.85581"><ele>7.5</ele></trkpt>
   <trkpt lat="-37.848112" lon="144.855543"><ele>6.5</ele></trkpt>
   <trkpt lat="-37.848248" lon="144.855212"><ele>5.5</ele></trkpt>
   <trkpt lat="-37.848458" lon="144.854835"><ele>6</ele></trkpt>
   <trkpt lat="-37.848759" lon="144.854411"><ele>8.75</ele></trkpt>
   <trkpt lat="-37.849059" lon="144.854147"><ele>10.5</ele></trkpt>
   <trkpt lat="-37.849298" lon="144.85397"><ele>11.25</ele></trkpt>
   <trkpt lat="-37.849639" lon="144.853762"><ele>11.5</ele></trkpt>
   <trkpt lat="-37.849799" lon="144.853683"><ele>11.75</ele></trkpt>
   <trkpt lat="-37.849976" lon="144.853619"><ele>11.75</ele></trkpt>
   <trkpt lat="-37.850117" lon="144.85358"><ele>11.75</ele></trkpt>
   <trkpt lat="-37.850618" lon="144.853476"><ele>10</ele></trkpt>
   <trkpt lat="-37.851068" lon="144.853401"><ele>8.75</ele></trkpt>
   <trkpt lat="-37.851178" lon="144.853376"><ele>8.5</ele></trkpt>
   <trkpt lat="-37.851489" lon="144.853274"><ele>8</ele></trkpt>
   <trkpt lat="-37.852256" lon="144.85305"><ele>7.25</ele></trkpt>
   <trkpt lat="-37.853561" lon="144.852631"><ele>6.25</ele></trkpt>
   <trkpt lat="-37.853941" lon="144.85249"><ele>6.25</ele></trkpt>
   <trkpt lat="-37.854073" lon="144.852431"><ele>6.25</ele></trkpt>
   <trkpt lat="-37.85426" lon="144.852364"><ele>6.5</ele></trkpt>
   <trkpt lat="-37.854529" lon="144.852254"><ele>7.75</ele></trkpt>
   <trkpt lat="-37.854928" lon="144.852124"><ele>9</ele></trkpt>
   <trkpt lat="-37.855259" lon="144.852013"><ele>9</ele></trkpt>
   <trkpt lat="-37.855708" lon="144.851789"><ele>8.25</ele></trkpt>
   <trkpt lat="-37.85589" lon="144.851676"><ele>7.75</ele></trkpt>
   <trkpt lat="-37.856069" lon="144.851548"><ele>7.25</ele></trkpt>
   <trkpt lat="-37.856245" lon="144.851394"><ele>6.75</ele></trkpt>
   <trkpt lat="-37.857266" lon="144.850496"><ele>4.25</ele></trkpt>
   <trkpt lat="-37.85751" lon="144.850298"><ele>4.5</ele></trkpt>
   <trkpt lat="-37.857816" lon="144.850098"><ele>4.75</ele></trkpt>
   <trkpt lat="-37.858027" lon="144.850005"><ele>4.75</ele></trkpt>
   <trkpt lat="-37.858208" lon="144.849938"><ele>4.75</ele></trkpt>
   <trkpt lat="-37.858471" lon="144.849874"><ele>4.5</ele></trkpt>
   <trkpt lat="-37.858796" lon="144.849827"><ele>4</ele></trkpt>
   <trkpt lat="-37.86074" lon="144.849611"><ele>6</ele></trkpt>
   <trkpt lat="-37.860853" lon="144.849597"><ele>6.5</ele></trkpt>
   <trkpt lat="-37.861187" lon="144.849536"><ele>6.75</ele></trkpt>
   <trkpt lat="-37.861508" lon="144.849445"><ele>6.75</ele></trkpt>
   <trkpt lat="-37.861836" lon="144.849325"><ele>6</ele></trkpt>
   <trkpt lat="-37.862121" lon="144.849185"><ele>5.25</ele></trkpt>
   <trkpt lat="-37.862416" lon="144.848998"><ele>5.25</ele></trkpt>
   <trkpt lat="-37.862678" lon="144.848793"><ele>5.25</ele></trkpt>
   <trkpt lat="-37.862871" lon="144.848608"><ele>5.5</ele></trkpt>
   <trkpt lat="-37.863223" lon="144.848211"><ele>5.75</ele></trkpt>
   <trkpt lat="-37.863724" lon="144.847535"><ele>5.5</ele></trkpt>
   <trkpt lat="-37.863989" lon="144.847182"><ele>5</ele></trkpt>
   <trkpt lat="-37.864187" lon="144.846895"><ele>4.75</ele></trkpt>
   <trkpt lat="-37.864248" lon="144.846813"><ele>4.75</ele></trkpt>
   <trkpt lat="-37.865625" lon="144.844928"><ele>5.5</ele></trkpt>
   <trkpt lat="-37.865936" lon="144.844529"><ele>5.5</ele></trkpt>
   <trkpt lat="-37.866039" lon="144.844396"><ele>5.5</ele></trkpt>
   <trkpt lat="-37.866135" lon="144.844268"><ele>5.5</ele></trkpt>
   <trkpt lat="-37.86632" lon="144.84402"><ele>5.75</ele></trkpt>
   <trkpt lat="-37.866706" lon="144.843454"><ele>4.25</ele></trkpt>
   <trkpt lat="-37.866913" lon="144.843145"><ele>4.5</ele></trkpt>
   <trkpt lat="-37.867007" lon="144.842992"><ele>4.75</ele></trkpt>
   <trkpt lat="-37.867244" lon="144.842558"><ele>5.5</ele></trkpt>
   <trkpt lat="-37.867392" lon="144.842249"><ele>6</ele></trkpt>
   <trkpt lat="-37.86753" lon="144.841909"><ele>6.5</ele></trkpt>
   <trkpt lat="-37.867596" lon="144.841726"><ele>6.75</ele></trkpt>
   <trkpt lat="-37.867719" lon="144.841339"><ele>6.5</ele></trkpt>
   <trkpt lat="-37.867797" lon="144.841051"><ele>6.25</ele></trkpt>
   <trkpt lat="-37.867837" lon="144.84089"><ele>6.25</ele></trkpt>
   <trkpt lat="-37.867896" lon="144.840609"><ele>6</ele></trkpt>
   <trkpt lat="-37.867935" lon="144.840391"><ele>5.75</ele></trkpt>
   <trkpt lat="-37.867984" lon="144.840042"><ele>5.5</ele></trkpt>
   <trkpt lat="-37.868008" lon="144.839809"><ele>5.5</ele></trkpt>
   <trkpt lat="-37.868033" lon="144.839455"><ele>5.5</ele></trkpt>
   <trkpt lat="-37.868046" lon="144.839108"><ele>5.5</ele></trkpt>
   <trkpt lat="-37.868046" lon="144.838749"><ele>5.75</ele></trkpt>
   <trkpt lat="-37.868041" lon="144.838611"><ele>5.75</ele></trkpt>
   <trkpt lat="-37.868035" lon="144.838483"><ele>5.75</ele></trkpt>
   <trkpt lat="-37.868006" lon="144.838119"><ele>5.75</ele></trkpt>
   <trkpt lat="-37.86797" lon="144.837759"><ele>5.5</ele></trkpt>
   <trkpt lat="-37.867635" lon="144.834491"><ele>6.75</ele></trkpt>
   <trkpt lat="-37.867307" lon="144.831221"><ele>7.5</ele></trkpt>
   <trkpt lat="-37.867253" lon="144.830715"><ele>8</ele></trkpt>
   <trkpt lat="-37.867243" lon="144.830614"><ele>8</ele></trkpt>
   <trkpt lat="-37.867231" lon="144.830501"><ele>8.25</ele></trkpt>
   <trkpt lat="-37.867134" lon="144.829589"><ele>7.75</ele></trkpt>
   <trkpt lat="-37.867122" lon="144.829479"><ele>7.75</ele></trkpt>
   <trkpt lat="-37.867025" lon="144.828562"><ele>7.25</ele></trkpt>
   <trkpt lat="-37.866743" lon="144.825713"><ele>7</ele></trkpt>
   <trkpt lat="-37.866519" lon="144.823528"><ele>5.75</ele></trkpt>
   <trkpt lat="-37.866456" lon="144.822894"><ele>6.25</ele></trkpt>
   <trkpt lat="-37.866216" lon="144.820734"><ele>6.25</ele></trkpt>
   <trkpt lat="-37.866134" lon="144.819934"><ele>6</ele></trkpt>
   <trkpt lat="-37.866077" lon="144.819381"><ele>7</ele></trkpt>
   <trkpt lat="-37.86601" lon="144.818859"><ele>7.25</ele></trkpt>
   <trkpt lat="-37.865976" lon="144.818681"><ele>7</ele></trkpt>
   <trkpt lat="-37.865863" lon="144.818257"><ele>7</ele></trkpt>
   <trkpt lat="-37.865828" lon="144.818153"><ele>7</ele></trkpt>
   <trkpt lat="-37.865789" lon="144.818037"><ele>7.25</ele></trkpt>
   <trkpt lat="-37.865629" lon="144.817575"><ele>7.75</ele></trkpt>
   <trkpt lat="-37.865539" lon="144.817238"><ele>7.75</ele></trkpt>
   <trkpt lat="-37.86547" lon="144.81686"><ele>7.5</ele></trkpt>
   <trkpt lat="-37.865443" lon="144.816667"><ele>7.25</ele></trkpt>
   <trkpt lat="-37.865415" lon="144.816402"><ele>7</ele></trkpt>
   <trkpt lat="-37.865339" lon="144.815646"><ele>6.75</ele></trkpt>
   <trkpt lat="-37.865249" lon="144.814044"><ele>7.25</ele></trkpt>
   <trkpt lat="-37.865189" lon="144.813452"><ele>7.5</ele></trkpt>
   <trkpt lat="-37.865125" lon="144.812833"><ele>6.5</ele></trkpt>
   <trkpt lat="-37.865121" lon="144.812788"><ele>6.25</ele></trkpt>
   <trkpt lat="-37.865111" lon="144.812676"><ele>6.25</ele></trkpt>
   <trkpt lat="-37.865101" lon="144.812578"><ele>6</ele></trkpt>
   <trkpt lat="-37.865068" lon="144.812259"><ele>5.75</ele></trkpt>
   <trkpt lat="-37.864958" lon="144.811201"><ele>5.75</ele></trkpt>
   <trkpt lat="-37.864914" lon="144.810695"><ele>5.5</ele></trkpt>
   <trkpt lat="-37.864875" lon="144.810348"><ele>4.75</ele></trkpt>
   <trkpt lat="-37.864615" lon="144.808418"><ele>4.75</ele></trkpt>
   <trkpt lat="-37.864465" lon="144.807302"><ele>4.5</ele></trkpt>
   <trkpt lat="-37.863086" lon="144.797052"><ele>4.5</ele></trkpt>
   <trkpt lat="-37.862784" lon="144.794768"><ele>4.75</ele></trkpt>
   <trkpt lat="-37.862227" lon="144.790648"><ele>4.75</ele></trkpt>
   <trkpt lat="-37.862199" lon="144.790429"><ele>4.75</ele></trkpt>
   <trkpt lat="-37.861745" lon="144.787045"><ele>5.25</ele></trkpt>
   <trkpt lat="-37.861655" lon="144.786329"><ele>5</ele></trkpt>
   <trkpt lat="-37.861617" lon="144.786035"><ele>5</ele></trkpt>
   <trkpt lat="-37.861408" lon="144.784407"><ele>7.25</ele></trkpt>
   <trkpt lat="-37.861375" lon="144.784031"><ele>7.5</ele></trkpt>
   <trkpt lat="-37.861365" lon="144.783825"><ele>7.25</ele></trkpt>
   <trkpt lat="-37.86136" lon="144.783326"><ele>7</ele></trkpt>
   <trkpt lat="-37.861376" lon="144.782884"><ele>7.25</ele></trkpt>
   <trkpt lat="-37.861392" lon="144.782649"><ele>7.5</ele></trkpt>
   <trkpt lat="-37.861418" lon="144.782374"><ele>7.5</ele></trkpt>
   <trkpt lat="-37.861449" lon="144.782127"><ele>7.5</ele></trkpt>
   <trkpt lat="-37.861528" lon="144.781666"><ele>7.25</ele></trkpt>
   <trkpt lat="-37.861666" lon="144.78105"><ele>7</ele></trkpt>
   <trkpt lat="-37.861868" lon="144.780204"><ele>7.5</ele></trkpt>
   <trkpt lat="-37.862004" lon="144.77959"><ele>7.75</ele></trkpt>
   <trkpt lat="-37.862065" lon="144.779329"><ele>7.75</ele></trkpt>
   <trkpt lat="-37.862463" lon="144.777629"><ele>10.75</ele></trkpt>
   <trkpt lat="-37.863259" lon="144.774474"><ele>12.25</ele></trkpt>
   <trkpt lat="-37.863644" lon="144.773164"><ele>12.25</ele></trkpt>
   <trkpt lat="-37.863752" lon="144.77279"><ele>12.25</ele></trkpt>
   <trkpt lat="-37.863881" lon="144.772306"><ele>12.5</ele></trkpt>
   <trkpt lat="-37.863977" lon="144.771899"><ele>13</ele></trkpt>
  </trkseg>
 </trk>
</gpx>