<?xml version="1.0" encoding="UTF-8"?>
<!-- track-length = 46447 filtered ascend = 340 plain-ascend = 234 cost=46447 energy=0.6kwh time=1h 1m 56s -->
<gpx 
 xmlns="http://www.topografix.com/GPX/1/1" 
 xmlns:xsi="http://www.w3.org/2001/XMLSchema-instance" 
 xsi:schemaLocation="http://www.topografix.com/GPX/1/1 http://www.topografix.com/GPX/1/1/gpx.xsd" 
 version="1.1" 
 creator="BRouter-Web 0.18.1">
 <trk>
  <name>BEL</name>
  <trkseg>
   <trkpt lat="-37.81778" lon="144.976952"><ele>8.75</ele></trkpt>
   <trkpt lat="-37.81747" lon="144.976508"><ele>7.25</ele></trkpt>
   <trkpt lat="-37.81729" lon="144.976232"><ele>7.25</ele></trkpt>
   <trkpt lat="-37.817138" lon="144.975971"><ele>7</ele></trkpt>
   <trkpt lat="-37.816993" lon="144.975676"><ele>7.75</ele></trkpt>
   <trkpt lat="-37.816875" lon="144.975393"><ele>9.5</ele></trkpt>
   <trkpt lat="-37.816777" lon="144.975118"><ele>12</ele></trkpt>
   <trkpt lat="-37.816707" lon="144.974877"><ele>12.5</ele></trkpt>
   <trkpt lat="-37.816626" lon="144.974564"><ele>11.25</ele></trkpt>
   <trkpt lat="-37.816567" lon="144.974244"><ele>11</ele></trkpt>
   <trkpt lat="-37.816528" lon="144.973954"><ele>11</ele></trkpt>
   <trkpt lat="-37.816506" lon="144.973699"><ele>10.5</ele></trkpt>
   <trkpt lat="-37.816494" lon="144.973419"><ele>10</ele></trkpt>
   <trkpt lat="-37.816498" lon="144.973092"><ele>11.5</ele></trkpt>
   <trkpt lat="-37.816506" lon="144.972956"><ele>12.25</ele></trkpt>
   <trkpt lat="-37.816536" lon="144.972616"><ele>14.25</ele></trkpt>
   <trkpt lat="-37.816599" lon="144.972195"><ele>14</ele></trkpt>
   <trkpt lat="-37.816701" lon="144.971756"><ele>12.75</ele></trkpt>
   <trkpt lat="-37.816848" lon="144.971239"><ele>13.5</ele></trkpt>
   <trkpt lat="-37.816949" lon="144.970929"><ele>13.5</ele></trkpt>
   <trkpt lat="-37.817068" lon="144.970509"><ele>15.75</ele></trkpt>
   <trkpt lat="-37.817129" lon="144.970301"><ele>15.75</ele></trkpt>
   <trkpt lat="-37.817599" lon="144.968708"><ele>16.25</ele></trkpt>
   <trkpt lat="-37.817766" lon="144.968141"><ele>16.25</ele></trkpt>
   <trkpt lat="-37.817954" lon="144.967486"><ele>16.5</ele></trkpt>
   <trkpt lat="-37.818121" lon="144.966903"><ele>16.75</ele></trkpt>
   <trkpt lat="-37.818206" lon="144.966585"><ele>16.75</ele></trkpt>
   <trkpt lat="-37.818346" lon="144.966092"><ele>16</ele></trkpt>
   <trkpt lat="-37.818426" lon="144.96581"><ele>16</ele></trkpt>
   <trkpt lat="-37.818713" lon="144.964848"><ele>13.75</ele></trkpt>
   <trkpt lat="-37.819013" lon="144.963832"><ele>12.75</ele></trkpt>
   <trkpt lat="-37.819133" lon="144.963417"><ele>11.25</ele></trkpt>
   <trkpt lat="-37.819263" lon="144.962977"><ele>13.25</ele></trkpt>
   <trkpt lat="-37.819322" lon="144.9627"><ele>14.5</ele></trkpt>
   <trkpt lat="-37.819371" lon="144.96247"><ele>15.25</ele></trkpt>
   <trkpt lat="-37.819433" lon="144.962102"><ele>15.5</ele></trkpt>
   <trkpt lat="-37.819448" lon="144.961961"><ele>15.75</ele></trkpt>
   <trkpt lat="-37.819456" lon="144.96165"><ele>15.75</ele></trkpt>
   <trkpt lat="-37.819463" lon="144.961496"><ele>15.75</ele></trkpt>
   <trkpt lat="-37.819485" lon="144.961229"><ele>15.75</ele></trkpt>
   <trkpt lat="-37.819506" lon="144.96106"><ele>15.75</ele></trkpt>
   <trkpt lat="-37.819548" lon="144.960783"><ele>15.75</ele></trkpt>
   <trkpt lat="-37.819576" lon="144.960646"><ele>16</ele></trkpt>
   <trkpt lat="-37.819629" lon="144.960425"><ele>16</ele></trkpt>
   <trkpt lat="-37.819724" lon="144.960083"><ele>16</ele></trkpt>
   <trkpt lat="-37.819983" lon="144.959217"><ele>16.25</ele></trkpt>
   <trkpt lat="-37.82006" lon="144.958983"><ele>16.25</ele></trkpt>
   <trkpt lat="-37.820271" lon="144.958475"><ele>16.5</ele></trkpt>
   <trkpt lat="-37.820432" lon="144.958185"><ele>16.5</ele></trkpt>
   <trkpt lat="-37.820598" lon="144.957914"><ele>16.5</ele></trkpt>
   <trkpt lat="-37.820869" lon="144.957492"><ele>16.75</ele></trkpt>
   <trkpt lat="-37.821012" lon="144.957233"><ele>16.75</ele></trkpt>
   <trkpt lat="-37.821117" lon="144.956967"><ele>16.75</ele></trkpt>
   <trkpt lat="-37.821202" lon="144.956686"><ele>16.75</ele></trkpt>
   <trkpt lat="-37.82126" lon="144.956405"><ele>17</ele></trkpt>
   <trkpt lat="-37.821293" lon="144.956102"><ele>17</ele></trkpt>
   <trkpt lat="-37.821303" lon="144.955792"><ele>17</ele></trkpt>
   <trkpt lat="-37.821279" lon="144.955487"><ele>17</ele></trkpt>
   <trkpt lat="-37.821231" lon="144.955207"><ele>17.25</ele></trkpt>
   <trkpt lat="-37.821166" lon="144.954953"><ele>17.25</ele></trkpt>
   <trkpt lat="-37.821064" lon="144.954667"><ele>17.25</ele></trkpt>
   <trkpt lat="-37.820916" lon="144.954354"><ele>17.25</ele></trkpt>
   <trkpt lat="-37.820844" lon="144.954238"><ele>17.5</ele></trkpt>
   <trkpt lat="-37.820708" lon="144.954024"><ele>17.5</ele></trkpt>
   <trkpt lat="-37.820549" lon="144.953816"><ele>15.75</ele></trkpt>
   <trkpt lat="-37.820455" lon="144.953705"><ele>14.75</ele></trkpt>
   <trkpt lat="-37.820294" lon="144.953536"><ele>13.5</ele></trkpt>
   <trkpt lat="-37.820121" lon="144.953319"><ele>12.25</ele></trkpt>
   <trkpt lat="-37.819911" lon="144.953106"><ele>11.75</ele></trkpt>
   <trkpt lat="-37.81986" lon="144.953078"><ele>11.75</ele></trkpt>
   <trkpt lat="-37.819667" lon="144.952943"><ele>10.75</ele></trkpt>
   <trkpt lat="-37.819155" lon="144.952586"><ele>7</ele></trkpt>
   <trkpt lat="-37.81833" lon="144.951933"><ele>12.5</ele></trkpt>
   <trkpt lat="-37.818018" lon="144.951686"><ele>12</ele></trkpt>
   <trkpt lat="-37.817704" lon="144.951478"><ele>12</ele></trkpt>
   <trkpt lat="-37.817533" lon="144.951339"><ele>12.25</ele></trkpt>
   <trkpt lat="-37.817263" lon="144.951106"><ele>11.5</ele></trkpt>
   <trkpt lat="-37.816963" lon="144.950871"><ele>10.75</ele></trkpt>
   <trkpt lat="-37.816514" lon="144.950502"><ele>10.25</ele></trkpt>
   <trkpt lat="-37.816272" lon="144.950314"/>
   <trkpt lat="-37.816045" lon="144.950169"/>
   <trkpt lat="-37.81571" lon="144.950016"/>
   <trkpt lat="-37.81552" lon="144.949964"/>
   <trkpt lat="-37.815354" lon="144.949936"/>
   <trkpt lat="-37.815136" lon="144.949922"/>
   <trkpt lat="-37.814931" lon="144.949929"/>
   <trkpt lat="-37.814731" lon="144.949965"/>
   <trkpt lat="-37.814501" lon="144.950031"/>
   <trkpt lat="-37.814307" lon="144.950116"/>
   <trkpt lat="-37.814118" lon="144.950221"/>
   <trkpt lat="-37.813956" lon="144.950333"/>
   <trkpt lat="-37.813777" lon="144.950482"/>
   <trkpt lat="-37.81363" lon="144.950633"/>
   <trkpt lat="-37.813473" lon="144.950827"/>
   <trkpt lat="-37.813332" lon="144.951045"/>
   <trkpt lat="-37.813202" lon="144.951281"/>
   <trkpt lat="-37.813108" lon="144.951498"/>
   <trkpt lat="-37.812982" lon="144.951815"/>
   <trkpt lat="-37.812835" lon="144.952238"/>
   <trkpt lat="-37.812781" lon="144.952393"/>
   <trkpt lat="-37.812725" lon="144.952574"/>
   <trkpt lat="-37.812265" lon="144.954206"/>
   <trkpt lat="-37.811759" lon="144.955972"/>
   <trkpt lat="-37.810171" lon="144.961539"/>
   <trkpt lat="-37.809914" lon="144.96246"/>
   <trkpt lat="-37.808237" lon="144.968184"/>
   <trkpt lat="-37.808133" lon="144.968603"/>
   <trkpt lat="-37.80809" lon="144.968883"/>
   <trkpt lat="-37.808067" lon="144.969105"/>
   <trkpt lat="-37.808056" lon="144.969388"/>
   <trkpt lat="-37.808063" lon="144.969631"/>
   <trkpt lat="-37.808091" lon="144.969913"/>
   <trkpt lat="-37.808099" lon="144.969958"/>
   <trkpt lat="-37.808129" lon="144.970158"/>
   <trkpt lat="-37.80819" lon="144.97044"/>
   <trkpt lat="-37.808262" lon="144.970685"/>
   <trkpt lat="-37.808362" lon="144.97094"/>
   <trkpt lat="-37.808486" lon="144.971216"/>
   <trkpt lat="-37.808653" lon="144.971508"/>
   <trkpt lat="-37.808797" lon="144.971702"/>
   <trkpt lat="-37.808982" lon="144.971927"/>
   <trkpt lat="-37.809199" lon="144.972141"/>
   <trkpt lat="-37.809429" lon="144.972324"/>
   <trkpt lat="-37.809724" lon="144.972496"/>
   <trkpt lat="-37.810227" lon="144.972767"/>
   <trkpt lat="-37.810968" lon="144.973113"/>
   <trkpt lat="-37.811564" lon="144.973391"/>
   <trkpt lat="-37.811976" lon="144.973568"/>
   <trkpt lat="-37.812746" lon="144.973934"/>
   <trkpt lat="-37.816052" lon="144.97552"/>
   <trkpt lat="-37.81615" lon="144.975574"><ele>9</ele></trkpt>
   <trkpt lat="-37.816288" lon="144.975651"><ele>9</ele></trkpt>
   <trkpt lat="-37.816535" lon="144.975811"><ele>9</ele></trkpt>
   <trkpt lat="-37.816744" lon="144.975964"><ele>9</ele></trkpt>
   <trkpt lat="-37.816991" lon="144.976166"><ele>9</ele></trkpt>
   <trkpt lat="-37.817261" lon="144.976426"><ele>9</ele></trkpt>
   <trkpt lat="-37.817486" lon="144.976681"><ele>9</ele></trkpt>
   <trkpt lat="-37.817691" lon="144.976944"><ele>9</ele></trkpt>
   <trkpt lat="-37.817956" lon="144.977324"><ele>10.75</ele></trkpt>
   <trkpt lat="-37.818083" lon="144.977526"><ele>11.25</ele></trkpt>
   <trkpt lat="-37.819071" lon="144.979202"><ele>10.5</ele></trkpt>
   <trkpt lat="-37.819385" lon="144.979817"><ele>8.5</ele></trkpt>
   <trkpt lat="-37.819908" lon="144.980708"><ele>8.25</ele></trkpt>
   <trkpt lat="-37.82022" lon="144.981227"><ele>9.5</ele></trkpt>
   <trkpt lat="-37.820527" lon="144.981694"><ele>11.75</ele></trkpt>
   <trkpt lat="-37.821102" lon="144.982626"><ele>16.25</ele></trkpt>
   <trkpt lat="-37.821338" lon="144.983047"><ele>16.25</ele></trkpt>
   <trkpt lat="-37.821631" lon="144.983597"><ele>15.5</ele></trkpt>
   <trkpt lat="-37.821815" lon="144.983974"><ele>13.75</ele></trkpt>
   <trkpt lat="-37.822039" lon="144.984461"><ele>11.75</ele></trkpt>
   <trkpt lat="-37.822542" lon="144.98563"><ele>10.75</ele></trkpt>
   <trkpt lat="-37.82285" lon="144.986401"><ele>11.75</ele></trkpt>
   <trkpt lat="-37.82296" lon="144.986735"><ele>11.75</ele></trkpt>
   <trkpt lat="-37.823266" lon="144.988052"><ele>11</ele></trkpt>
   <trkpt lat="-37.823305" lon="144.988169"><ele>11</ele></trkpt>
   <trkpt lat="-37.823388" lon="144.988479"><ele>11.25</ele></trkpt>
   <trkpt lat="-37.823472" lon="144.988786"><ele>11.25</ele></trkpt>
   <trkpt lat="-37.823576" lon="144.98917"><ele>11.5</ele></trkpt>
   <trkpt lat="-37.823846" lon="144.990161"><ele>11.75</ele></trkpt>
   <trkpt lat="-37.823855" lon="144.990196"><ele>11.75</ele></trkpt>
   <trkpt lat="-37.823861" lon="144.990218"><ele>12</ele></trkpt>
   <trkpt lat="-37.82391" lon="144.990395"><ele>12</ele></trkpt>
   <trkpt lat="-37.823993" lon="144.990658"><ele>12.75</ele></trkpt>
   <trkpt lat="-37.824086" lon="144.990901"><ele>13</ele></trkpt>
   <trkpt lat="-37.824227" lon="144.99122"><ele>12.75</ele></trkpt>
   <trkpt lat="-37.824359" lon="144.991463"><ele>12.25</ele></trkpt>
   <trkpt lat="-37.824492" lon="144.991685"><ele>11.75</ele></trkpt>
   <trkpt lat="-37.824656" lon="144.99192"><ele>11.5</ele></trkpt>
   <trkpt lat="-37.824947" lon="144.992286"><ele>11.5</ele></trkpt>
   <trkpt lat="-37.825195" lon="144.992603"><ele>12.5</ele></trkpt>
   <trkpt lat="-37.825425" lon="144.992902"><ele>13.5</ele></trkpt>
   <trkpt lat="-37.825647" lon="144.993212"><ele>14.5</ele></trkpt>
   <trkpt lat="-37.825785" lon="144.993458"><ele>15</ele></trkpt>
   <trkpt lat="-37.825918" lon="144.993745"><ele>14.75</ele></trkpt>
   <trkpt lat="-37.826011" lon="144.994019"><ele>14.75</ele></trkpt>
   <trkpt lat="-37.826066" lon="144.994219"><ele>14.5</ele></trkpt>
   <trkpt lat="-37.826125" lon="144.994475"><ele>14.75</ele></trkpt>
   <trkpt lat="-37.826165" lon="144.994722"><ele>14.5</ele></trkpt>
   <trkpt lat="-37.826199" lon="144.995071"><ele>14.5</ele></trkpt>
   <trkpt lat="-37.826569" lon="144.998395"><ele>18</ele></trkpt>
   <trkpt lat="-37.826647" lon="144.999096"><ele>18</ele></trkpt>
   <trkpt lat="-37.82697" lon="145.002023"><ele>17.75</ele></trkpt>
   <trkpt lat="-37.827235" lon="145.004384"><ele>14.75</ele></trkpt>
   <trkpt lat="-37.827285" lon="145.004864"><ele>15</ele></trkpt>
   <trkpt lat="-37.827343" lon="145.005553"><ele>16.25</ele></trkpt>
   <trkpt lat="-37.82737" lon="145.005853"><ele>16.75</ele></trkpt>
   <trkpt lat="-37.827386" lon="145.006223"><ele>16.75</ele></trkpt>
   <trkpt lat="-37.827381" lon="145.006781"><ele>17.25</ele></trkpt>
   <trkpt lat="-37.827494" lon="145.00814"><ele>18.75</ele></trkpt>
   <trkpt lat="-37.827606" lon="145.009264"><ele>17</ele></trkpt>
   <trkpt lat="-37.82766" lon="145.009814"><ele>17.25</ele></trkpt>
   <trkpt lat="-37.827685" lon="145.010207"><ele>17.5</ele></trkpt>
   <trkpt lat="-37.827702" lon="145.010629"><ele>18.25</ele></trkpt>
   <trkpt lat="-37.827703" lon="145.011115"><ele>18.5</ele></trkpt>
   <trkpt lat="-37.827692" lon="145.011475"><ele>18.5</ele></trkpt>
   <trkpt lat="-37.827665" lon="145.011876"><ele>19</ele></trkpt>
   <trkpt lat="-37.827605" lon="145.012569"><ele>19.5</ele></trkpt>
   <trkpt lat="-37.827565" lon="145.012989"><ele>19.25</ele></trkpt>
   <trkpt lat="-37.827498" lon="145.0134"><ele>19</ele></trkpt>
   <trkpt lat="-37.827435" lon="145.013675"><ele>19</ele></trkpt>
   <trkpt lat="-37.827329" lon="145.014077"><ele>19.75</ele></trkpt>
   <trkpt lat="-37.827219" lon="145.014405"><ele>20</ele></trkpt>
   <trkpt lat="-37.827049" lon="145.014817"><ele>19.75</ele></trkpt>
   <trkpt lat="-37.82688" lon="145.015161"><ele>19.75</ele></trkpt>
   <trkpt lat="-37.825951" lon="145.016783"><ele>18.5</ele></trkpt>
   <trkpt lat="-37.825504" lon="145.017573"><ele>14.75</ele></trkpt>
   <trkpt lat="-37.824717" lon="145.01898"><ele>22</ele></trkpt>
   <trkpt lat="-37.8245" lon="145.019349"><ele>23.5</ele></trkpt>
   <trkpt lat="-37.824181" lon="145.019847"><ele>24.5</ele></trkpt>
   <trkpt lat="-37.823261" lon="145.02119"><ele>22</ele></trkpt>
   <trkpt lat="-37.822907" lon="145.021684"><ele>20.25</ele></trkpt>
   <trkpt lat="-37.822647" lon="145.021996"><ele>19</ele></trkpt>
   <trkpt lat="-37.822467" lon="145.0222"><ele>18.75</ele></trkpt>
   <trkpt lat="-37.822004" lon="145.022709"><ele>21.25</ele></trkpt>
   <trkpt lat="-37.821865" lon="145.022879"><ele>21.75</ele></trkpt>
   <trkpt lat="-37.82176" lon="145.023022"><ele>22.25</ele></trkpt>
   <trkpt lat="-37.821646" lon="145.023193"><ele>22.25</ele></trkpt>
   <trkpt lat="-37.82142" lon="145.023587"><ele>22.75</ele></trkpt>
   <trkpt lat="-37.821293" lon="145.023855"><ele>23.75</ele></trkpt>
   <trkpt lat="-37.821189" lon="145.024053"><ele>24.25</ele></trkpt>
   <trkpt lat="-37.821095" lon="145.024264"><ele>24.75</ele></trkpt>
   <trkpt lat="-37.820921" lon="145.024709"><ele>24.75</ele></trkpt>
   <trkpt lat="-37.820841" lon="145.024953"><ele>24.75</ele></trkpt>
   <trkpt lat="-37.820733" lon="145.025348"><ele>25</ele></trkpt>
   <trkpt lat="-37.820686" lon="145.025568"><ele>25</ele></trkpt>
   <trkpt lat="-37.820651" lon="145.025765"><ele>25</ele></trkpt>
   <trkpt lat="-37.820599" lon="145.026127"><ele>24.75</ele></trkpt>
   <trkpt lat="-37.820571" lon="145.02646"><ele>24.5</ele></trkpt>
   <trkpt lat="-37.820563" lon="145.026742"><ele>24.25</ele></trkpt>
   <trkpt lat="-37.820573" lon="145.027159"><ele>24</ele></trkpt>
   <trkpt lat="-37.820593" lon="145.027408"><ele>23.75</ele></trkpt>
   <trkpt lat="-37.820629" lon="145.027759"><ele>24</ele></trkpt>
   <trkpt lat="-37.820696" lon="145.028318"><ele>24</ele></trkpt>
   <trkpt lat="-37.820767" lon="145.028826"><ele>22.75</ele></trkpt>
   <trkpt lat="-37.820917" lon="145.029803"><ele>24.5</ele></trkpt>
   <trkpt lat="-37.820963" lon="145.030165"><ele>25.25</ele></trkpt>
   <trkpt lat="-37.821131" lon="145.031512"><ele>26.75</ele></trkpt>
   <trkpt lat="-37.821205" lon="145.032138"><ele>27</ele></trkpt>
   <trkpt lat="-37.821253" lon="145.03299"><ele>27.25</ele></trkpt>
   <trkpt lat="-37.821295" lon="145.034645"><ele>30.75</ele></trkpt>
   <trkpt lat="-37.821308" lon="145.035016"><ele>31.5</ele></trkpt>
   <trkpt lat="-37.821338" lon="145.03548"><ele>33.5</ele></trkpt>
   <trkpt lat="-37.821357" lon="145.035727"><ele>34.75</ele></trkpt>
   <trkpt lat="-37.821383" lon="145.036017"><ele>36</ele></trkpt>
   <trkpt lat="-37.821445" lon="145.036532"><ele>38.75</ele></trkpt>
   <trkpt lat="-37.821739" lon="145.038993"><ele>40.5</ele></trkpt>
   <trkpt lat="-37.821756" lon="145.039115"><ele>40.75</ele></trkpt>
   <trkpt lat="-37.821852" lon="145.039821"><ele>38.75</ele></trkpt>
   <trkpt lat="-37.821885" lon="145.040065"><ele>38.25</ele></trkpt>
   <trkpt lat="-37.822057" lon="145.041468"><ele>39.5</ele></trkpt>
   <trkpt lat="-37.822153" lon="145.042348"><ele>39.5</ele></trkpt>
   <trkpt lat="-37.822175" lon="145.042586"><ele>39.5</ele></trkpt>
   <trkpt lat="-37.822203" lon="145.042941"><ele>40</ele></trkpt>
   <trkpt lat="-37.822244" lon="145.0436"><ele>41.25</ele></trkpt>
   <trkpt lat="-37.822314" lon="145.044947"><ele>43.5</ele></trkpt>
   <trkpt lat="-37.82233" lon="145.0452"><ele>43.25</ele></trkpt>
   <trkpt lat="-37.822357" lon="145.045631"><ele>43</ele></trkpt>
   <trkpt lat="-37.822391" lon="145.046001"><ele>43</ele></trkpt>
   <trkpt lat="-37.822439" lon="145.046397"><ele>43.5</ele></trkpt>
   <trkpt lat="-37.822524" lon="145.04689"><ele>44.25</ele></trkpt>
   <trkpt lat="-37.822664" lon="145.047562"><ele>45.25</ele></trkpt>
   <trkpt lat="-37.822895" lon="145.048604"><ele>48</ele></trkpt>
   <trkpt lat="-37.82294" lon="145.04882"><ele>49</ele></trkpt>
   <trkpt lat="-37.823048" lon="145.049404"><ele>50.5</ele></trkpt>
   <trkpt lat="-37.823304" lon="145.050927"><ele>51.25</ele></trkpt>
   <trkpt lat="-37.823356" lon="145.051203"><ele>51.75</ele></trkpt>
   <trkpt lat="-37.823458" lon="145.05165"><ele>52.5</ele></trkpt>
   <trkpt lat="-37.823519" lon="145.051863"><ele>52.75</ele></trkpt>
   <trkpt lat="-37.823582" lon="145.05205"><ele>52.75</ele></trkpt>
   <trkpt lat="-37.823707" lon="145.052367"><ele>53.25</ele></trkpt>
   <trkpt lat="-37.823786" lon="145.052539"><ele>53.5</ele></trkpt>
   <trkpt lat="-37.823896" lon="145.052756"><ele>54.5</ele></trkpt>
   <trkpt lat="-37.82407" lon="145.053053"><ele>55.75</ele></trkpt>
   <trkpt lat="-37.824201" lon="145.053245"><ele>56.25</ele></trkpt>
   <trkpt lat="-37.824429" lon="145.053535"><ele>57.5</ele></trkpt>
   <trkpt lat="-37.824652" lon="145.053775"><ele>58.25</ele></trkpt>
   <trkpt lat="-37.824754" lon="145.053873"><ele>58.5</ele></trkpt>
   <trkpt lat="-37.824965" lon="145.054077"><ele>58.5</ele></trkpt>
   <trkpt lat="-37.825296" lon="145.054405"><ele>59.75</ele></trkpt>
   <trkpt lat="-37.825477" lon="145.054606"><ele>60</ele></trkpt>
   <trkpt lat="-37.825568" lon="145.054721"><ele>60.25</ele></trkpt>
   <trkpt lat="-37.825653" lon="145.054835"><ele>60.25</ele></trkpt>
   <trkpt lat="-37.825811" lon="145.055072"><ele>60.25</ele></trkpt>
   <trkpt lat="-37.825968" lon="145.055347"><ele>61.25</ele></trkpt>
   <trkpt lat="-37.826109" lon="145.055635"><ele>62</ele></trkpt>
   <trkpt lat="-37.826165" lon="145.055765"><ele>62.5</ele></trkpt>
   <trkpt lat="-37.826259" lon="145.056011"><ele>63.25</ele></trkpt>
   <trkpt lat="-37.826337" lon="145.056253"><ele>64.5</ele></trkpt>
   <trkpt lat="-37.826431" lon="145.056615"><ele>66.25</ele></trkpt>
   <trkpt lat="-37.826488" lon="145.056907"><ele>67.25</ele></trkpt>
   <trkpt lat="-37.826522" lon="145.057163"><ele>68</ele></trkpt>
   <trkpt lat="-37.82654" lon="145.057509"><ele>69.25</ele></trkpt>
   <trkpt lat="-37.826546" lon="145.057741"><ele>69</ele></trkpt>
   <trkpt lat="-37.826541" lon="145.0587"><ele>69.25</ele></trkpt>
   <trkpt lat="-37.826536" lon="145.059583"><ele>70.25</ele></trkpt>
   <trkpt lat="-37.826535" lon="145.05966"><ele>70.5</ele></trkpt>
   <trkpt lat="-37.826532" lon="145.060096"><ele>71</ele></trkpt>
   <trkpt lat="-37.826531" lon="145.060164"><ele>71.25</ele></trkpt>
   <trkpt lat="-37.826539" lon="145.060379"><ele>71.5</ele></trkpt>
   <trkpt lat="-37.826561" lon="145.060753"><ele>72</ele></trkpt>
   <trkpt lat="-37.826534" lon="145.061582"><ele>73.75</ele></trkpt>
   <trkpt lat="-37.826554" lon="145.062079"><ele>75.25</ele></trkpt>
   <trkpt lat="-37.826546" lon="145.062345"><ele>76.25</ele></trkpt>
   <trkpt lat="-37.826536" lon="145.062665"><ele>76.75</ele></trkpt>
   <trkpt lat="-37.826482" lon="145.06321"><ele>77</ele></trkpt>
   <trkpt lat="-37.826472" lon="145.063456"><ele>77</ele></trkpt>
   <trkpt lat="-37.826443" lon="145.064424"><ele>76.75</ele></trkpt>
   <trkpt lat="-37.826424" lon="145.064851"><ele>77.5</ele></trkpt>
   <trkpt lat="-37.826407" lon="145.065014"><ele>77.75</ele></trkpt>
   <trkpt lat="-37.826368" lon="145.065326"><ele>78.5</ele></trkpt>
   <trkpt lat="-37.826294" lon="145.065707"><ele>79.5</ele></trkpt>
   <trkpt lat="-37.826229" lon="145.065987"><ele>79.5</ele></trkpt>
   <trkpt lat="-37.826118" lon="145.066457"><ele>78.75</ele></trkpt>
   <trkpt lat="-37.825923" lon="145.067437"><ele>74.25</ele></trkpt>
   <trkpt lat="-37.825729" lon="145.068317"><ele>72.25</ele></trkpt>
   <trkpt lat="-37.825681" lon="145.068569"><ele>71.25</ele></trkpt>
   <trkpt lat="-37.825619" lon="145.068958"><ele>69.5</ele></trkpt>
   <trkpt lat="-37.825569" lon="145.069378"><ele>68.25</ele></trkpt>
   <trkpt lat="-37.825515" lon="145.069978"><ele>67</ele></trkpt>
   <trkpt lat="-37.825487" lon="145.070567"><ele>66</ele></trkpt>
   <trkpt lat="-37.825492" lon="145.071062"><ele>65.75</ele></trkpt>
   <trkpt lat="-37.825498" lon="145.071224"><ele>65.75</ele></trkpt>
   <trkpt lat="-37.825527" lon="145.071821"><ele>66</ele></trkpt>
   <trkpt lat="-37.825729" lon="145.075204"><ele>64.5</ele></trkpt>
   <trkpt lat="-37.825755" lon="145.075592"><ele>63.75</ele></trkpt>
   <trkpt lat="-37.825831" lon="145.076374"><ele>62.25</ele></trkpt>
   <trkpt lat="-37.825843" lon="145.076542"><ele>62</ele></trkpt>
   <trkpt lat="-37.825858" lon="145.07695"><ele>62.25</ele></trkpt>
   <trkpt lat="-37.825846" lon="145.077331"><ele>62.75</ele></trkpt>
   <trkpt lat="-37.825815" lon="145.077695"><ele>63.25</ele></trkpt>
   <trkpt lat="-37.825766" lon="145.078041"><ele>63.5</ele></trkpt>
   <trkpt lat="-37.825673" lon="145.078463"><ele>64</ele></trkpt>
   <trkpt lat="-37.825582" lon="145.078796"><ele>64.75</ele></trkpt>
   <trkpt lat="-37.825484" lon="145.079083"><ele>65.75</ele></trkpt>
   <trkpt lat="-37.825336" lon="145.079451"><ele>66.25</ele></trkpt>
   <trkpt lat="-37.825091" lon="145.079986"><ele>66.75</ele></trkpt>
   <trkpt lat="-37.824389" lon="145.081484"><ele>67.75</ele></trkpt>
   <trkpt lat="-37.824366" lon="145.081534"><ele>67.75</ele></trkpt>
   <trkpt lat="-37.824285" lon="145.081718"><ele>68</ele></trkpt>
   <trkpt lat="-37.824206" lon="145.081926"><ele>68.5</ele></trkpt>
   <trkpt lat="-37.824046" lon="145.082379"><ele>69.25</ele></trkpt>
   <trkpt lat="-37.823899" lon="145.082823"><ele>69.25</ele></trkpt>
   <trkpt lat="-37.823797" lon="145.0832"><ele>70.5</ele></trkpt>
   <trkpt lat="-37.823719" lon="145.083574"><ele>71</ele></trkpt>
   <trkpt lat="-37.82364" lon="145.084097"><ele>71</ele></trkpt>
   <trkpt lat="-37.823617" lon="145.084558"><ele>71.5</ele></trkpt>
   <trkpt lat="-37.823617" lon="145.085012"><ele>72</ele></trkpt>
   <trkpt lat="-37.823642" lon="145.085382"><ele>73.5</ele></trkpt>
   <trkpt lat="-37.823712" lon="145.085875"><ele>75.75</ele></trkpt>
   <trkpt lat="-37.824051" lon="145.087873"><ele>78.75</ele></trkpt>
   <trkpt lat="-37.824184" lon="145.088808"><ele>78</ele></trkpt>
   <trkpt lat="-37.824275" lon="145.089285"><ele>78</ele></trkpt>
   <trkpt lat="-37.824493" lon="145.090307"><ele>80.25</ele></trkpt>
   <trkpt lat="-37.824606" lon="145.090927"><ele>81.25</ele></trkpt>
   <trkpt lat="-37.824844" lon="145.092357"><ele>83</ele></trkpt>
   <trkpt lat="-37.82491" lon="145.092833"><ele>82.5</ele></trkpt>
   <trkpt lat="-37.824948" lon="145.093278"><ele>82</ele></trkpt>
   <trkpt lat="-37.824966" lon="145.093492"><ele>82.5</ele></trkpt>
   <trkpt lat="-37.824982" lon="145.09373"><ele>83.75</ele></trkpt>
   <trkpt lat="-37.82499" lon="145.094282"><ele>86</ele></trkpt>
   <trkpt lat="-37.82498" lon="145.094691"><ele>87</ele></trkpt>
   <trkpt lat="-37.82497" lon="145.094882"><ele>87.5</ele></trkpt>
   <trkpt lat="-37.824925" lon="145.095475"><ele>89.75</ele></trkpt>
   <trkpt lat="-37.824871" lon="145.095924"><ele>91.25</ele></trkpt>
   <trkpt lat="-37.824769" lon="145.09651"><ele>91.25</ele></trkpt>
   <trkpt lat="-37.824641" lon="145.097054"><ele>92</ele></trkpt>
   <trkpt lat="-37.824349" lon="145.098038"><ele>93</ele></trkpt>
   <trkpt lat="-37.824152" lon="145.098515"><ele>93</ele></trkpt>
   <trkpt lat="-37.823857" lon="145.099137"><ele>92.75</ele></trkpt>
   <trkpt lat="-37.823637" lon="145.099555"><ele>93.75</ele></trkpt>
   <trkpt lat="-37.823063" lon="145.100386"><ele>96.5</ele></trkpt>
   <trkpt lat="-37.822893" lon="145.100631"><ele>97.75</ele></trkpt>
   <trkpt lat="-37.822293" lon="145.101495"><ele>99.25</ele></trkpt>
   <trkpt lat="-37.821948" lon="145.102013"><ele>100.25</ele></trkpt>
   <trkpt lat="-37.821742" lon="145.102323"><ele>100.75</ele></trkpt>
   <trkpt lat="-37.821387" lon="145.102855"><ele>102.5</ele></trkpt>
   <trkpt lat="-37.821052" lon="145.103383"><ele>104.25</ele></trkpt>
   <trkpt lat="-37.820332" lon="145.104438"><ele>108.5</ele></trkpt>
   <trkpt lat="-37.81993" lon="145.105011"><ele>109</ele></trkpt>
   <trkpt lat="-37.819235" lon="145.106053"><ele>109.25</ele></trkpt>
   <trkpt lat="-37.819084" lon="145.106306"><ele>109.25</ele></trkpt>
   <trkpt lat="-37.818898" lon="145.106651"><ele>108.5</ele></trkpt>
   <trkpt lat="-37.818787" lon="145.106909"><ele>107.75</ele></trkpt>
   <trkpt lat="-37.818711" lon="145.107106"><ele>107</ele></trkpt>
   <trkpt lat="-37.818605" lon="145.107411"><ele>106</ele></trkpt>
   <trkpt lat="-37.81852" lon="145.10773"><ele>105</ele></trkpt>
   <trkpt lat="-37.818436" lon="145.108086"><ele>104</ele></trkpt>
   <trkpt lat="-37.818396" lon="145.108343"><ele>103.25</ele></trkpt>
   <trkpt lat="-37.81835" lon="145.108754"><ele>101.5</ele></trkpt>
   <trkpt lat="-37.818326" lon="145.109142"><ele>100</ele></trkpt>
   <trkpt lat="-37.81823" lon="145.112226"><ele>93.75</ele></trkpt>
   <trkpt lat="-37.818225" lon="145.112345"><ele>93.75</ele></trkpt>
   <trkpt lat="-37.818209" lon="145.113033"><ele>94</ele></trkpt>
   <trkpt lat="-37.818217" lon="145.113551"><ele>94</ele></trkpt>
   <trkpt lat="-37.818237" lon="145.114065"><ele>94</ele></trkpt>
   <trkpt lat="-37.818268" lon="145.114617"><ele>95.25</ele></trkpt>
   <trkpt lat="-37.818271" lon="145.114671"><ele>96</ele></trkpt>
   <trkpt lat="-37.818279" lon="145.114898"><ele>96</ele></trkpt>
   <trkpt lat="-37.818298" lon="145.115252"><ele>96.25</ele></trkpt>
   <trkpt lat="-37.818386" lon="145.116063"><ele>95.5</ele></trkpt>
   <trkpt lat="-37.818507" lon="145.116815"><ele>95</ele></trkpt>
   <trkpt lat="-37.818694" lon="145.11791"><ele>98.5</ele></trkpt>
   <trkpt lat="-37.818812" lon="145.118637"><ele>99.75</ele></trkpt>
   <trkpt lat="-37.818973" lon="145.119787"><ele>102.75</ele></trkpt>
   <trkpt lat="-37.819098" lon="145.120748"><ele>102</ele></trkpt>
   <trkpt lat="-37.819304" lon="145.122124"><ele>101.25</ele></trkpt>
   <trkpt lat="-37.819541" lon="145.123711"><ele>100.5</ele></trkpt>
   <trkpt lat="-37.819731" lon="145.12484"><ele>100.5</ele></trkpt>
   <trkpt lat="-37.819913" lon="145.12607"><ele>99</ele></trkpt>
   <trkpt lat="-37.82006" lon="145.127183"><ele>97.75</ele></trkpt>
   <trkpt lat="-37.820219" lon="145.12836"><ele>98.25</ele></trkpt>
   <trkpt lat="-37.820386" lon="145.129557"><ele>99.25</ele></trkpt>
   <trkpt lat="-37.820575" lon="145.130771"><ele>102.5</ele></trkpt>
   <trkpt lat="-37.820672" lon="145.13146"><ele>104.5</ele></trkpt>
   <trkpt lat="-37.820747" lon="145.132058"><ele>106</ele></trkpt>
   <trkpt lat="-37.821471" lon="145.137021"><ele>100.25</ele></trkpt>
   <trkpt lat="-37.821527" lon="145.137474"><ele>100.25</ele></trkpt>
   <trkpt lat="-37.821547" lon="145.137819"><ele>99.25</ele></trkpt>
   <trkpt lat="-37.821541" lon="145.13818"><ele>98.5</ele></trkpt>
   <trkpt lat="-37.821508" lon="145.138549"><ele>97.25</ele></trkpt>
   <trkpt lat="-37.821467" lon="145.138819"><ele>96.25</ele></trkpt>
   <trkpt lat="-37.821386" lon="145.139161"><ele>95</ele></trkpt>
   <trkpt lat="-37.821291" lon="145.139466"><ele>93.75</ele></trkpt>
   <trkpt lat="-37.821172" lon="145.139772"><ele>92.25</ele></trkpt>
   <trkpt lat="-37.820929" lon="145.14028"><ele>89.75</ele></trkpt>
   <trkpt lat="-37.820432" lon="145.141277"><ele>88</ele></trkpt>
   <trkpt lat="-37.820281" lon="145.141572"><ele>88.5</ele></trkpt>
   <trkpt lat="-37.820148" lon="145.141843"><ele>88.75</ele></trkpt>
   <trkpt lat="-37.820017" lon="145.142148"><ele>88.75</ele></trkpt>
   <trkpt lat="-37.819889" lon="145.142527"><ele>89</ele></trkpt>
   <trkpt lat="-37.819785" lon="145.143011"><ele>90.25</ele></trkpt>
   <trkpt lat="-37.819754" lon="145.14321"><ele>90.5</ele></trkpt>
   <trkpt lat="-37.819721" lon="145.143517"><ele>90.5</ele></trkpt>
   <trkpt lat="-37.819711" lon="145.143656"><ele>90.5</ele></trkpt>
   <trkpt lat="-37.819709" lon="145.143823"><ele>90.5</ele></trkpt>
   <trkpt lat="-37.819709" lon="145.144018"><ele>90.5</ele></trkpt>
   <trkpt lat="-37.819721" lon="145.144206"><ele>90.5</ele></trkpt>
   <trkpt lat="-37.819741" lon="145.144447"><ele>90.25</ele></trkpt>
   <trkpt lat="-37.819966" lon="145.146515"><ele>92.5</ele></trkpt>
   <trkpt lat="-37.820033" lon="145.147139"><ele>94</ele></trkpt>
   <trkpt lat="-37.820086" lon="145.147798"><ele>95</ele></trkpt>
   <trkpt lat="-37.820111" lon="145.14825"><ele>95.5</ele></trkpt>
   <trkpt lat="-37.820115" lon="145.148563"><ele>95.5</ele></trkpt>
   <trkpt lat="-37.820091" lon="145.149579"><ele>96.25</ele></trkpt>
   <trkpt lat="-37.820088" lon="145.150029"><ele>96.75</ele></trkpt>
   <trkpt lat="-37.820103" lon="145.150951"><ele>98.25</ele></trkpt>
   <trkpt lat="-37.820192" lon="145.152268"><ele>100.5</ele></trkpt>
   <trkpt lat="-37.820261" lon="145.152835"><ele>101.5</ele></trkpt>
   <trkpt lat="-37.820302" lon="145.153136"><ele>102</ele></trkpt>
   <trkpt lat="-37.820695" lon="145.156285"><ele>111.5</ele></trkpt>
   <trkpt lat="-37.821265" lon="145.160876"><ele>119</ele></trkpt>
   <trkpt lat="-37.821466" lon="145.162546"><ele>122.25</ele></trkpt>
   <trkpt lat="-37.821722" lon="145.164581"><ele>122.75</ele></trkpt>
   <trkpt lat="-37.821766" lon="145.164988"><ele>122.5</ele></trkpt>
   <trkpt lat="-37.821803" lon="145.165498"><ele>123.25</ele></trkpt>
   <trkpt lat="-37.821813" lon="145.165814"><ele>123.75</ele></trkpt>
   <trkpt lat="-37.821815" lon="145.166155"><ele>124.5</ele></trkpt>
   <trkpt lat="-37.821802" lon="145.166637"><ele>125.25</ele></trkpt>
   <trkpt lat="-37.821783" lon="145.166968"><ele>124.75</ele></trkpt>
   <trkpt lat="-37.821756" lon="145.167266"><ele>124.25</ele></trkpt>
   <trkpt lat="-37.82171" lon="145.16765"><ele>123.75</ele></trkpt>
   <trkpt lat="-37.82152" lon="145.16889"><ele>122.5</ele></trkpt>
   <trkpt lat="-37.82125" lon="145.1707"><ele>121.25</ele></trkpt>
   <trkpt lat="-37.821148" lon="145.171343"><ele>121.25</ele></trkpt>
   <trkpt lat="-37.820443" lon="145.174841"><ele>127.5</ele></trkpt>
   <trkpt lat="-37.820403" lon="145.175039"><ele>128</ele></trkpt>
   <trkpt lat="-37.820328" lon="145.17544"><ele>129.5</ele></trkpt>
   <trkpt lat="-37.820244" lon="145.176121"><ele>132.25</ele></trkpt>
   <trkpt lat="-37.8201" lon="145.177794"><ele>132.25</ele></trkpt>
   <trkpt lat="-37.820015" lon="145.178624"><ele>132.5</ele></trkpt>
   <trkpt lat="-37.819916" lon="145.179346"><ele>132.25</ele></trkpt>
   <trkpt lat="-37.819549" lon="145.181707"><ele>136.75</ele></trkpt>
   <trkpt lat="-37.819462" lon="145.182309"><ele>137.25</ele></trkpt>
   <trkpt lat="-37.819245" lon="145.183951"><ele>141.5</ele></trkpt>
   <trkpt lat="-37.819175" lon="145.184399"><ele>142.5</ele></trkpt>
   <trkpt lat="-37.819027" lon="145.185357"><ele>145.25</ele></trkpt>
   <trkpt lat="-37.818981" lon="145.185632"><ele>146.5</ele></trkpt>
   <trkpt lat="-37.818643" lon="145.187884"><ele>149.75</ele></trkpt>
   <trkpt lat="-37.818566" lon="145.188408"><ele>149.75</ele></trkpt>
   <trkpt lat="-37.818526" lon="145.189018"><ele>150.25</ele></trkpt>
   <trkpt lat="-37.818492" lon="145.189702"><ele>151</ele></trkpt>
   <trkpt lat="-37.818444" lon="145.190361"><ele>151</ele></trkpt>
   <trkpt lat="-37.81835" lon="145.191054"><ele>150.5</ele></trkpt>
   <trkpt lat="-37.818277" lon="145.191482"><ele>151.25</ele></trkpt>
   <trkpt lat="-37.817952" lon="145.193563"><ele>152</ele></trkpt>
   <trkpt lat="-37.817853" lon="145.194182"><ele>149.75</ele></trkpt>
   <trkpt lat="-37.817729" lon="145.195057"><ele>146.25</ele></trkpt>
   <trkpt lat="-37.817709" lon="145.195203"><ele>145.5</ele></trkpt>
   <trkpt lat="-37.817683" lon="145.195633"><ele>143</ele></trkpt>
   <trkpt lat="-37.817681" lon="145.196107"><ele>141.5</ele></trkpt>
   <trkpt lat="-37.817717" lon="145.196693"><ele>140.25</ele></trkpt>
   <trkpt lat="-37.81786" lon="145.19843"><ele>140.25</ele></trkpt>
   <trkpt lat="-37.818126" lon="145.202021"><ele>127.75</ele></trkpt>
   <trkpt lat="-37.818137" lon="145.202159"><ele>127.5</ele></trkpt>
   <trkpt lat="-37.818444" lon="145.205798"><ele>133.5</ele></trkpt>
   <trkpt lat="-37.818612" lon="145.207845"><ele>141.25</ele></trkpt>
   <trkpt lat="-37.818698" lon="145.208971"><ele>142</ele></trkpt>
   <trkpt lat="-37.818806" lon="145.210233"><ele>140.5</ele></trkpt>
   <trkpt lat="-37.818852" lon="145.210828"><ele>141.5</ele></trkpt>
   <trkpt lat="-37.818866" lon="145.211092"><ele>141.5</ele></trkpt>
   <trkpt lat="-37.818886" lon="145.211644"><ele>142</ele></trkpt>
   <trkpt lat="-37.818889" lon="145.211983"><ele>140</ele></trkpt>
   <trkpt lat="-37.818876" lon="145.212576"><ele>136.75</ele></trkpt>
   <trkpt lat="-37.818866" lon="145.212844"><ele>134.5</ele></trkpt>
   <trkpt lat="-37.818705" lon="145.215474"><ele>120.75</ele></trkpt>
   <trkpt lat="-37.818649" lon="145.21635"><ele>117.25</ele></trkpt>
   <trkpt lat="-37.81857" lon="145.217607"><ele>114.25</ele></trkpt>
   <trkpt lat="-37.818491" lon="145.218669"><ele>113.75</ele></trkpt>
   <trkpt lat="-37.818395" lon="145.220346"><ele>112</ele></trkpt>
   <trkpt lat="-37.818384" lon="145.220491"><ele>112.25</ele></trkpt>
   <trkpt lat="-37.818321" lon="145.221397"><ele>113.5</ele></trkpt>
   <trkpt lat="-37.818238" lon="145.222346"><ele>114.25</ele></trkpt>
   <trkpt lat="-37.818164" lon="145.22291"><ele>116.5</ele></trkpt>
   <trkpt lat="-37.818087" lon="145.223312"><ele>118.75</ele></trkpt>
   <trkpt lat="-37.817992" lon="145.223738"><ele>119.75</ele></trkpt>
   <trkpt lat="-37.81788" lon="145.224138"><ele>120.5</ele></trkpt>
   <trkpt lat="-37.817706" lon="145.224645"><ele>121.25</ele></trkpt>
   <trkpt lat="-37.817494" lon="145.225206"><ele>122</ele></trkpt>
   <trkpt lat="-37.817339" lon="145.22557"><ele>122.25</ele></trkpt>
   <trkpt lat="-37.817017" lon="145.226292"><ele>122.5</ele></trkpt>
   <trkpt lat="-37.816685" lon="145.227072"><ele>122.5</ele></trkpt>
   <trkpt lat="-37.816587" lon="145.227294"><ele>122.75</ele></trkpt>
   <trkpt lat="-37.816529" lon="145.22743"><ele>123</ele></trkpt>
   <trkpt lat="-37.816453" lon="145.227632"><ele>123.5</ele></trkpt>
   <trkpt lat="-37.816399" lon="145.227826"><ele>124.25</ele></trkpt>
   <trkpt lat="-37.816303" lon="145.228094"><ele>125.5</ele></trkpt>
   <trkpt lat="-37.816219" lon="145.228301"><ele>126.25</ele></trkpt>
   <trkpt lat="-37.815875" lon="145.229086"><ele>128.75</ele></trkpt>
   <trkpt lat="-37.815484" lon="145.229974"><ele>129.25</ele></trkpt>
   <trkpt lat="-37.815201" lon="145.230635"><ele>126.25</ele></trkpt>
   <trkpt lat="-37.814992" lon="145.231109"><ele>124.5</ele></trkpt>
   <trkpt lat="-37.814877" lon="145.231369"><ele>124.75</ele></trkpt>
   <trkpt lat="-37.81478" lon="145.2316"><ele>125</ele></trkpt>
   <trkpt lat="-37.814618" lon="145.232029"><ele>125.75</ele></trkpt>
   <trkpt lat="-37.814501" lon="145.232436"><ele>126.75</ele></trkpt>
   <trkpt lat="-37.814411" lon="145.232908"><ele>127.5</ele></trkpt>
   <trkpt lat="-37.814366" lon="145.233385"><ele>128.25</ele></trkpt>
   <trkpt lat="-37.81436" lon="145.233657"><ele>128.5</ele></trkpt>
   <trkpt lat="-37.814371" lon="145.234129"><ele>129.25</ele></trkpt>
   <trkpt lat="-37.814393" lon="145.234369"><ele>130</ele></trkpt>
   <trkpt lat="-37.814446" lon="145.234754"><ele>131</ele></trkpt>
   <trkpt lat="-37.814554" lon="145.235235"><ele>131.75</ele></trkpt>
   <trkpt lat="-37.814621" lon="145.235462"><ele>131.75</ele></trkpt>
   <trkpt lat="-37.814691" lon="145.235683"><ele>131.75</ele></trkpt>
   <trkpt lat="-37.81477" lon="145.235897"><ele>131.75</ele></trkpt>
   <trkpt lat="-37.814839" lon="145.23606"><ele>132</ele></trkpt>
   <trkpt lat="-37.814974" lon="145.236341"><ele>132.25</ele></trkpt>
   <trkpt lat="-37.815096" lon="145.236564"><ele>132.75</ele></trkpt>
   <trkpt lat="-37.815224" lon="145.236757"><ele>133.25</ele></trkpt>
   <trkpt lat="-37.815361" lon="145.236948"><ele>133.75</ele></trkpt>
   <trkpt lat="-37.815476" lon="145.23709"><ele>134.25</ele></trkpt>
   <trkpt lat="-37.815649" lon="145.237281"><ele>134.75</ele></trkpt>
   <trkpt lat="-37.815826" lon="145.23746"><ele>135</ele></trkpt>
   <trkpt lat="-37.816067" lon="145.237658"><ele>134.75</ele></trkpt>
   <trkpt lat="-37.816173" lon="145.237729"><ele>134.75</ele></trkpt>
   <trkpt lat="-37.816415" lon="145.23789"><ele>135</ele></trkpt>
   <trkpt lat="-37.817278" lon="145.238451"><ele>133.75</ele></trkpt>
   <trkpt lat="-37.817813" lon="145.238783"><ele>133</ele></trkpt>
   <trkpt lat="-37.818145" lon="145.238974"><ele>132</ele></trkpt>
   <trkpt lat="-37.818389" lon="145.239115"><ele>131.5</ele></trkpt>
   <trkpt lat="-37.820722" lon="145.240387"><ele>129.25</ele></trkpt>
   <trkpt lat="-37.82181" lon="145.240989"><ele>124</ele></trkpt>
   <trkpt lat="-37.82467" lon="145.242544"><ele>130.25</ele></trkpt>
   <trkpt lat="-37.825775" lon="145.243135"><ele>134.25</ele></trkpt>
   <trkpt lat="-37.827612" lon="145.244138"><ele>137</ele></trkpt>
   <trkpt lat="-37.827872" lon="145.24428"><ele>136.25</ele></trkpt>
   <trkpt lat="-37.830166" lon="145.245543"><ele>137.75</ele></trkpt>
   <trkpt lat="-37.83043" lon="145.245704"><ele>136.75</ele></trkpt>
   <trkpt lat="-37.83072" lon="145.245907"><ele>135.5</ele></trkpt>
   <trkpt lat="-37.831044" lon="145.246174"><ele>132.75</ele></trkpt>
   <trkpt lat="-37.83133" lon="145.246461"><ele>129.25</ele></trkpt>
   <trkpt lat="-37.831624" lon="145.246811"><ele>125.5</ele></trkpt>
   <trkpt lat="-37.831852" lon="145.247123"><ele>123.5</ele></trkpt>
   <trkpt lat="-37.832133" lon="145.247589"><ele>120.75</ele></trkpt>
   <trkpt lat="-37.832295" lon="145.247911"><ele>120.5</ele></trkpt>
   <trkpt lat="-37.832498" lon="145.248395"><ele>121</ele></trkpt>
   <trkpt lat="-37.832639" lon="145.248812"><ele>120.5</ele></trkpt>
   <trkpt lat="-37.832716" lon="145.249112"><ele>120.25</ele></trkpt>
   <trkpt lat="-37.832797" lon="145.249487"><ele>119.5</ele></trkpt>
   <trkpt lat="-37.832885" lon="145.249937"><ele>118.75</ele></trkpt>
   <trkpt lat="-37.833204" lon="145.25165"><ele>113.5</ele></trkpt>
   <trkpt lat="-37.833492" lon="145.253093"><ele>108.25</ele></trkpt>
   <trkpt lat="-37.833846" lon="145.25495"><ele>107.25</ele></trkpt>
   <trkpt lat="-37.834249" lon="145.257051"><ele>102.75</ele></trkpt>
   <trkpt lat="-37.8344" lon="145.25791"><ele>101</ele></trkpt>
   <trkpt lat="-37.834468" lon="145.258253"><ele>101</ele></trkpt>
   <trkpt lat="-37.834732" lon="145.25943"><ele>100.5</ele></trkpt>
   <trkpt lat="-37.834857" lon="145.25983"><ele>100.5</ele></trkpt>
   <trkpt lat="-37.835012" lon="145.260299"><ele>100.5</ele></trkpt>
   <trkpt lat="-37.83518" lon="145.260733"><ele>100</ele></trkpt>
   <trkpt lat="-37.835371" lon="145.261157"><ele>100</ele></trkpt>
   <trkpt lat="-37.835619" lon="145.261663"><ele>99</ele></trkpt>
   <trkpt lat="-37.835888" lon="145.26212"><ele>98.75</ele></trkpt>
   <trkpt lat="-37.836308" lon="145.262715"><ele>99</ele></trkpt>
   <trkpt lat="-37.836445" lon="145.2629"><ele>99</ele></trkpt>
   <trkpt lat="-37.836781" lon="145.263323"><ele>99</ele></trkpt>
   <trkpt lat="-37.837077" lon="145.263643"><ele>100</ele></trkpt>
   <trkpt lat="-37.837394" lon="145.263964"><ele>100.5</ele></trkpt>
   <trkpt lat="-37.839046" lon="145.265541"><ele>107.75</ele></trkpt>
   <trkpt lat="-37.839441" lon="145.265921"><ele>107.75</ele></trkpt>
   <trkpt lat="-37.839776" lon="145.266243"><ele>106</ele></trkpt>
   <trkpt lat="-37.840304" lon="145.266726"><ele>103.75</ele></trkpt>
   <trkpt lat="-37.840909" lon="145.267221"><ele>104</ele></trkpt>
   <trkpt lat="-37.841069" lon="145.267366"><ele>104</ele></trkpt>
   <trkpt lat="-37.841315" lon="145.267604"><ele>104</ele></trkpt>
   <trkpt lat="-37.842245" lon="145.268497"><ele>103.25</ele></trkpt>
   <trkpt lat="-37.842837" lon="145.269083"><ele>104.25</ele></trkpt>
   <trkpt lat="-37.843213" lon="145.269492"><ele>104</ele></trkpt>
   <trkpt lat="-37.843608" lon="145.26994"><ele>103.75</ele></trkpt>
   <trkpt lat="-37.843771" lon="145.270117"><ele>103.75</ele></trkpt>
   <trkpt lat="-37.843999" lon="145.270365"><ele>103.25</ele></trkpt>
   <trkpt lat="-37.845026" lon="145.271376"><ele>101</ele></trkpt>
   <trkpt lat="-37.846149" lon="145.272456"><ele>102</ele></trkpt>
   <trkpt lat="-37.846694" lon="145.272995"><ele>102</ele></trkpt>
   <trkpt lat="-37.84911" lon="145.275317"><ele>106.25</ele></trkpt>
   <trkpt lat="-37.852285" lon="145.278387"><ele>109</ele></trkpt>
   <trkpt lat="-37.854075" lon="145.280102"><ele>113.25</ele></trkpt>
   <trkpt lat="-37.855119" lon="145.281117"><ele>114.5</ele></trkpt>
   <trkpt lat="-37.856245" lon="145.2822"><ele>117.75</ele></trkpt>
   <trkpt lat="-37.856632" lon="145.282526"><ele>118.75</ele></trkpt>
   <trkpt lat="-37.857089" lon="145.282848"><ele>120</ele></trkpt>
   <trkpt lat="-37.857389" lon="145.283028"><ele>120.75</ele></trkpt>
   <trkpt lat="-37.857542" lon="145.28312"><ele>121</ele></trkpt>
   <trkpt lat="-37.85854" lon="145.283628"><ele>120.75</ele></trkpt>
   <trkpt lat="-37.859322" lon="145.284079"><ele>116.5</ele></trkpt>
   <trkpt lat="-37.8597" lon="145.284276"><ele>115.25</ele></trkpt>
   <trkpt lat="-37.859806" lon="145.284328"><ele>115</ele></trkpt>
   <trkpt lat="-37.859919" lon="145.284382"><ele>114.75</ele></trkpt>
   <trkpt lat="-37.860627" lon="145.284743"><ele>114.75</ele></trkpt>
   <trkpt lat="-37.860711" lon="145.284784"><ele>114.75</ele></trkpt>
   <trkpt lat="-37.860991" lon="145.284924"><ele>114.5</ele></trkpt>
   <trkpt lat="-37.861423" lon="145.285168"><ele>114.25</ele></trkpt>
   <trkpt lat="-37.862552" lon="145.285705"><ele>113.5</ele></trkpt>
   <trkpt lat="-37.862861" lon="145.285828"><ele>113.5</ele></trkpt>
   <trkpt lat="-37.862911" lon="145.285844"><ele>113.5</ele></trkpt>
   <trkpt lat="-37.863387" lon="145.286006"><ele>113.5</ele></trkpt>
   <trkpt lat="-37.863821" lon="145.286123"><ele>112.75</ele></trkpt>
   <trkpt lat="-37.864347" lon="145.286272"><ele>112.5</ele></trkpt>
   <trkpt lat="-37.864961" lon="145.286463"><ele>113.5</ele></trkpt>
   <trkpt lat="-37.865915" lon="145.286699"><ele>114.25</ele></trkpt>
   <trkpt lat="-37.866318" lon="145.286813"><ele>115</ele></trkpt>
   <trkpt lat="-37.866856" lon="145.286978"><ele>117</ele></trkpt>
   <trkpt lat="-37.868093" lon="145.28737"><ele>121.25</ele></trkpt>
   <trkpt lat="-37.868846" lon="145.287633"><ele>122</ele></trkpt>
   <trkpt lat="-37.869437" lon="145.287897"><ele>122.25</ele></trkpt>
   <trkpt lat="-37.869988" lon="145.288187"><ele>122.25</ele></trkpt>
   <trkpt lat="-37.870529" lon="145.288535"><ele>122</ele></trkpt>
   <trkpt lat="-37.871049" lon="145.288928"><ele>121.5</ele></trkpt>
   <trkpt lat="-37.872267" lon="145.289956"><ele>118.5</ele></trkpt>
   <trkpt lat="-37.872369" lon="145.290045"><ele>118.5</ele></trkpt>
   <trkpt lat="-37.873087" lon="145.290657"><ele>121</ele></trkpt>
   <trkpt lat="-37.873375" lon="145.290874"><ele>122</ele></trkpt>
   <trkpt lat="-37.873585" lon="145.291013"><ele>122</ele></trkpt>
   <trkpt lat="-37.873783" lon="145.291136"><ele>122</ele></trkpt>
   <trkpt lat="-37.874043" lon="145.291278"><ele>122</ele></trkpt>
   <trkpt lat="-37.874914" lon="145.291718"><ele>122</ele></trkpt>
   <trkpt lat="-37.87551" lon="145.292026"><ele>123.5</ele></trkpt>
   <trkpt lat="-37.877438" lon="145.293005"><ele>126</ele></trkpt>
   <trkpt lat="-37.87764" lon="145.29311"><ele>126.5</ele></trkpt>
   <trkpt lat="-37.877732" lon="145.293157"><ele>126.75</ele></trkpt>
   <trkpt lat="-37.878676" lon="145.293639"><ele>126</ele></trkpt>
   <trkpt lat="-37.880704" lon="145.294676"><ele>127.25</ele></trkpt>
   <trkpt lat="-37.882133" lon="145.295407"><ele>127.75</ele></trkpt>
   <trkpt lat="-37.882498" lon="145.295594"><ele>127.25</ele></trkpt>
   <trkpt lat="-37.882837" lon="145.295766"><ele>127.5</ele></trkpt>
   <trkpt lat="-37.882903" lon="145.295799"><ele>127.5</ele></trkpt>
   <trkpt lat="-37.882968" lon="145.295834"><ele>127.5</ele></trkpt>
   <trkpt lat="-37.884478" lon="145.296606"><ele>125.75</ele></trkpt>
   <trkpt lat="-37.885453" lon="145.297102"><ele>121.5</ele></trkpt>
   <trkpt lat="-37.885694" lon="145.297222"><ele>120</ele></trkpt>
   <trkpt lat="-37.885952" lon="145.29736"><ele>118.75</ele></trkpt>
   <trkpt lat="-37.886292" lon="145.297528"><ele>117.5</ele></trkpt>
   <trkpt lat="-37.887549" lon="145.298173"><ele>122</ele></trkpt>
   <trkpt lat="-37.887979" lon="145.298419"><ele>122</ele></trkpt>
   <trkpt lat="-37.888125" lon="145.298518"><ele>122</ele></trkpt>
   <trkpt lat="-37.888478" lon="145.298782"><ele>121.5</ele></trkpt>
   <trkpt lat="-37.88878" lon="145.299045"><ele>120.25</ele></trkpt>
   <trkpt lat="-37.888915" lon="145.299176"><ele>119.5</ele></trkpt>
   <trkpt lat="-37.889051" lon="145.299321"><ele>118.75</ele></trkpt>
   <trkpt lat="-37.889323" lon="145.299628"><ele>118</ele></trkpt>
   <trkpt lat="-37.889551" lon="145.299929"><ele>117.25</ele></trkpt>
   <trkpt lat="-37.889716" lon="145.300173"><ele>116.5</ele></trkpt>
   <trkpt lat="-37.889844" lon="145.300378"><ele>116.5</ele></trkpt>
   <trkpt lat="-37.889976" lon="145.300604"><ele>118</ele></trkpt>
   <trkpt lat="-37.890379" lon="145.30134"><ele>117.5</ele></trkpt>
   <trkpt lat="-37.890805" lon="145.302135"><ele>122.25</ele></trkpt>
   <trkpt lat="-37.890988" lon="145.302495"><ele>123.5</ele></trkpt>
   <trkpt lat="-37.891193" lon="145.302938"><ele>125.5</ele></trkpt>
   <trkpt lat="-37.891515" lon="145.303702"><ele>128</ele></trkpt>
   <trkpt lat="-37.891684" lon="145.304119"><ele>127.25</ele></trkpt>
   <trkpt lat="-37.891956" lon="145.304832"><ele>129.5</ele></trkpt>
   <trkpt lat="-37.892099" lon="145.30521"><ele>130.5</ele></trkpt>
   <trkpt lat="-37.892183" lon="145.305454"><ele>130.75</ele></trkpt>
   <trkpt lat="-37.892219" lon="145.305575"><ele>131</ele></trkpt>
   <trkpt lat="-37.892273" lon="145.305816"><ele>131.25</ele></trkpt>
   <trkpt lat="-37.89229" lon="145.305909"><ele>131.5</ele></trkpt>
   <trkpt lat="-37.892336" lon="145.306262"><ele>131.75</ele></trkpt>
   <trkpt lat="-37.892376" lon="145.30664"><ele>132.5</ele></trkpt>
   <trkpt lat="-37.892431" lon="145.307099"><ele>131.75</ele></trkpt>
   <trkpt lat="-37.892475" lon="145.30739"><ele>131.25</ele></trkpt>
   <trkpt lat="-37.89254" lon="145.307768"><ele>131.5</ele></trkpt>
   <trkpt lat="-37.892574" lon="145.307932"><ele>131.75</ele></trkpt>
   <trkpt lat="-37.892591" lon="145.308013"><ele>132</ele></trkpt>
   <trkpt lat="-37.892617" lon="145.308138"><ele>132.25</ele></trkpt>
   <trkpt lat="-37.892795" lon="145.308978"><ele>134</ele></trkpt>
   <trkpt lat="-37.892846" lon="145.309246"><ele>134.5</ele></trkpt>
   <trkpt lat="-37.892928" lon="145.309741"><ele>136.5</ele></trkpt>
   <trkpt lat="-37.892954" lon="145.310008"><ele>137.75</ele></trkpt>
   <trkpt lat="-37.892973" lon="145.310359"><ele>138.75</ele></trkpt>
   <trkpt lat="-37.892979" lon="145.310827"><ele>140.75</ele></trkpt>
   <trkpt lat="-37.892972" lon="145.311139"><ele>141.75</ele></trkpt>
   <trkpt lat="-37.892948" lon="145.311717"><ele>144.25</ele></trkpt>
   <trkpt lat="-37.892946" lon="145.311777"><ele>144.5</ele></trkpt>
   <trkpt lat="-37.892915" lon="145.312503"><ele>147</ele></trkpt>
   <trkpt lat="-37.892915" lon="145.312823"><ele>148.75</ele></trkpt>
   <trkpt lat="-37.892936" lon="145.313137"><ele>150</ele></trkpt>
   <trkpt lat="-37.892971" lon="145.313356"><ele>150.5</ele></trkpt>
   <trkpt lat="-37.893011" lon="145.313546"><ele>150.25</ele></trkpt>
   <trkpt lat="-37.893084" lon="145.313804"><ele>149.5</ele></trkpt>
   <trkpt lat="-37.893178" lon="145.314048"><ele>149</ele></trkpt>
   <trkpt lat="-37.893269" lon="145.314238"><ele>148.5</ele></trkpt>
   <trkpt lat="-37.8934" lon="145.314459"><ele>148.5</ele></trkpt>
   <trkpt lat="-37.893508" lon="145.314611"><ele>149</ele></trkpt>
   <trkpt lat="-37.893631" lon="145.314764"><ele>149.75</ele></trkpt>
   <trkpt lat="-37.893764" lon="145.31491"><ele>150.75</ele></trkpt>
   <trkpt lat="-37.894047" lon="145.315149"><ele>152.75</ele></trkpt>
   <trkpt lat="-37.894436" lon="145.315426"><ele>154.5</ele></trkpt>
   <trkpt lat="-37.894681" lon="145.315613"><ele>155.5</ele></trkpt>
   <trkpt lat="-37.894934" lon="145.315833"><ele>157.25</ele></trkpt>
   <trkpt lat="-37.895084" lon="145.315992"><ele>158.25</ele></trkpt>
   <trkpt lat="-37.895243" lon="145.316187"><ele>158.75</ele></trkpt>
   <trkpt lat="-37.895341" lon="145.316326"><ele>159.25</ele></trkpt>
   <trkpt lat="-37.89544" lon="145.31649"><ele>159.75</ele></trkpt>
   <trkpt lat="-37.895764" lon="145.317105"><ele>161.5</ele></trkpt>
   <trkpt lat="-37.896257" lon="145.318095"><ele>165.25</ele></trkpt>
   <trkpt lat="-37.896539" lon="145.318622"><ele>167.5</ele></trkpt>
   <trkpt lat="-37.896761" lon="145.318981"><ele>169.5</ele></trkpt>
   <trkpt lat="-37.89731" lon="145.319766"><ele>173</ele></trkpt>
   <trkpt lat="-37.897499" lon="145.320056"><ele>174</ele></trkpt>
   <trkpt lat="-37.897647" lon="145.320311"><ele>176</ele></trkpt>
   <trkpt lat="-37.897818" lon="145.320628"><ele>178</ele></trkpt>
   <trkpt lat="-37.898583" lon="145.321965"><ele>183.75</ele></trkpt>
   <trkpt lat="-37.899507" lon="145.32363"><ele>190.25</ele></trkpt>
   <trkpt lat="-37.899664" lon="145.323947"><ele>190.75</ele></trkpt>
   <trkpt lat="-37.899791" lon="145.324231"><ele>191</ele></trkpt>
   <trkpt lat="-37.900003" lon="145.324768"><ele>193.25</ele></trkpt>
   <trkpt lat="-37.900121" lon="145.325053"><ele>196</ele></trkpt>
   <trkpt lat="-37.900216" lon="145.32526"><ele>197.25</ele></trkpt>
   <trkpt lat="-37.900341" lon="145.32551"><ele>198.25</ele></trkpt>
   <trkpt lat="-37.900492" lon="145.325786"><ele>198.5</ele></trkpt>
   <trkpt lat="-37.900714" lon="145.326166"><ele>199.75</ele></trkpt>
   <trkpt lat="-37.900935" lon="145.326561"><ele>201.5</ele></trkpt>
   <trkpt lat="-37.901392" lon="145.327419"><ele>206.25</ele></trkpt>
   <trkpt lat="-37.901522" lon="145.3277"><ele>207.5</ele></trkpt>
   <trkpt lat="-37.901621" lon="145.327934"><ele>208.5</ele></trkpt>
   <trkpt lat="-37.901831" lon="145.328508"><ele>213.75</ele></trkpt>
   <trkpt lat="-37.90193" lon="145.328754"><ele>215</ele></trkpt>
   <trkpt lat="-37.902041" lon="145.328998"><ele>216</ele></trkpt>
   <trkpt lat="-37.902245" lon="145.3294"><ele>216.25</ele></trkpt>
   <trkpt lat="-37.902517" lon="145.329913"><ele>214.75</ele></trkpt>
   <trkpt lat="-37.902646" lon="145.33014"><ele>214.75</ele></trkpt>
   <trkpt lat="-37.902774" lon="145.330344"><ele>214.5</ele></trkpt>
   <trkpt lat="-37.903056" lon="145.33075"><ele>213</ele></trkpt>
   <trkpt lat="-37.90324" lon="145.331007"><ele>211.5</ele></trkpt>
   <trkpt lat="-37.903653" lon="145.331524"><ele>210</ele></trkpt>
   <trkpt lat="-37.904055" lon="145.331967"><ele>208.75</ele></trkpt>
   <trkpt lat="-37.904246" lon="145.332183"><ele>208.5</ele></trkpt>
   <trkpt lat="-37.904378" lon="145.332351"><ele>208.5</ele></trkpt>
   <trkpt lat="-37.904472" lon="145.332493"><ele>208.5</ele></trkpt>
   <trkpt lat="-37.904671" lon="145.332828"><ele>209.5</ele></trkpt>
   <trkpt lat="-37.90488" lon="145.333226"><ele>209.75</ele></trkpt>
   <trkpt lat="-37.904963" lon="145.333405"><ele>209.25</ele></trkpt>
   <trkpt lat="-37.905162" lon="145.333922"><ele>208.25</ele></trkpt>
   <trkpt lat="-37.905228" lon="145.334136"><ele>207.75</ele></trkpt>
   <trkpt lat="-37.905268" lon="145.334299"><ele>207.25</ele></trkpt>
   <trkpt lat="-37.905297" lon="145.334441"><ele>206.75</ele></trkpt>
   <trkpt lat="-37.905326" lon="145.334629"><ele>206.25</ele></trkpt>
   <trkpt lat="-37.905344" lon="145.334784"><ele>206</ele></trkpt>
   <trkpt lat="-37.905371" lon="145.335158"><ele>204.75</ele></trkpt>
   <trkpt lat="-37.905375" lon="145.335241"><ele>204.25</ele></trkpt>
   <trkpt lat="-37.905399" lon="145.33561"><ele>202.25</ele></trkpt>
   <trkpt lat="-37.905429" lon="145.335877"><ele>200.75</ele></trkpt>
   <trkpt lat="-37.905489" lon="145.336175"><ele>200.75</ele></trkpt>
   <trkpt lat="-37.905566" lon="145.336472"><ele>200.75</ele></trkpt>
   <trkpt lat="-37.905612" lon="145.336619"><ele>200.75</ele></trkpt>
   <trkpt lat="-37.905715" lon="145.336883"><ele>201</ele></trkpt>
   <trkpt lat="-37.905879" lon="145.337229"><ele>200.75</ele></trkpt>
   <trkpt lat="-37.906366" lon="145.338117"><ele>202.25</ele></trkpt>
   <trkpt lat="-37.906624" lon="145.338592"><ele>203.5</ele></trkpt>
   <trkpt lat="-37.906692" lon="145.338733"><ele>204</ele></trkpt>
   <trkpt lat="-37.906789" lon="145.338966"><ele>205.25</ele></trkpt>
   <trkpt lat="-37.9069" lon="145.339282"><ele>206.5</ele></trkpt>
   <trkpt lat="-37.906957" lon="145.339497"><ele>206.75</ele></trkpt>
   <trkpt lat="-37.90702" lon="145.339829"><ele>207.5</ele></trkpt>
   <trkpt lat="-37.907119" lon="145.340638"><ele>207</ele></trkpt>
   <trkpt lat="-37.90717" lon="145.340947"><ele>207</ele></trkpt>
   <trkpt lat="-37.90728" lon="145.341374"><ele>208.5</ele></trkpt>
   <trkpt lat="-37.907312" lon="145.341468"><ele>208.75</ele></trkpt>
   <trkpt lat="-37.907406" lon="145.341712"><ele>209.25</ele></trkpt>
   <trkpt lat="-37.90747" lon="145.341851"><ele>209.25</ele></trkpt>
   <trkpt lat="-37.90756" lon="145.342024"><ele>209.25</ele></trkpt>
   <trkpt lat="-37.907654" lon="145.342197"><ele>209</ele></trkpt>
   <trkpt lat="-37.908092" lon="145.342918"><ele>210.75</ele></trkpt>
   <trkpt lat="-37.908434" lon="145.343495"><ele>213.5</ele></trkpt>
   <trkpt lat="-37.908565" lon="145.343763"><ele>215</ele></trkpt>
   <trkpt lat="-37.908658" lon="145.343999"><ele>216.5</ele></trkpt>
   <trkpt lat="-37.908747" lon="145.344279"><ele>218</ele></trkpt>
   <trkpt lat="-37.908825" lon="145.344629"><ele>218.75</ele></trkpt>
   <trkpt lat="-37.908865" lon="145.344903"><ele>219.5</ele></trkpt>
   <trkpt lat="-37.908887" lon="145.34514"><ele>219.5</ele></trkpt>
   <trkpt lat="-37.908915" lon="145.345832"><ele>220.5</ele></trkpt>
   <trkpt lat="-37.908945" lon="145.346297"><ele>221.5</ele></trkpt>
   <trkpt lat="-37.908992" lon="145.346697"><ele>222.25</ele></trkpt>
   <trkpt lat="-37.909033" lon="145.346958"><ele>222.75</ele></trkpt>
   <trkpt lat="-37.90917" lon="145.347744"><ele>222.75</ele></trkpt>
   <trkpt lat="-37.909343" lon="145.348686"><ele>223</ele></trkpt>
   <trkpt lat="-37.909443" lon="145.349133"><ele>222.75</ele></trkpt>
   <trkpt lat="-37.909485" lon="145.349287"><ele>223.5</ele></trkpt>
   <trkpt lat="-37.909549" lon="145.349495"><ele>224.5</ele></trkpt>
   <trkpt lat="-37.909706" lon="145.349901"><ele>226.5</ele></trkpt>
   <trkpt lat="-37.909889" lon="145.350272"><ele>228.75</ele></trkpt>
   <trkpt lat="-37.910205" lon="145.350877"><ele>228.75</ele></trkpt>
   <trkpt lat="-37.910271" lon="145.351021"><ele>229</ele></trkpt>
   <trkpt lat="-37.910356" lon="145.351236"><ele>229.5</ele></trkpt>
   <trkpt lat="-37.91045" lon="145.351561"><ele>231.25</ele></trkpt>
   <trkpt lat="-37.910494" lon="145.351782"><ele>231.75</ele></trkpt>
   <trkpt lat="-37.910532" lon="145.352089"><ele>232.25</ele></trkpt>
   <trkpt lat="-37.910541" lon="145.352274"><ele>232.75</ele></trkpt>
   <trkpt lat="-37.910541" lon="145.352503"><ele>233.5</ele></trkpt>
   <trkpt lat="-37.910521" lon="145.352767"><ele>233.5</ele></trkpt>
   <trkpt lat="-37.910492" lon="145.352969"><ele>233.75</ele></trkpt>
   <trkpt lat="-37.910418" lon="145.353286"><ele>235</ele></trkpt>
   <trkpt lat="-37.910335" lon="145.353536"><ele>235.25</ele></trkpt>
   <trkpt lat="-37.910227" lon="145.353794"><ele>235.25</ele></trkpt>
   <trkpt lat="-37.910125" lon="145.353997"><ele>235.5</ele></trkpt>
   <trkpt lat="-37.909979" lon="145.354222"><ele>235.75</ele></trkpt>
   <trkpt lat="-37.909814" lon="145.354427"><ele>235.5</ele></trkpt>
   <trkpt lat="-37.909733" lon="145.354514"><ele>235.5</ele></trkpt>
   <trkpt lat="-37.909537" lon="145.354696"><ele>235.75</ele></trkpt>
   <trkpt lat="-37.909089" lon="145.355082"><ele>236.75</ele></trkpt>
   <trkpt lat="-37.908744" lon="145.355399"><ele>239</ele></trkpt>
   <trkpt lat="-37.908628" lon="145.355522"><ele>239.25</ele></trkpt>
   <trkpt lat="-37.908518" lon="145.355637"><ele>239.25</ele></trkpt>
   <trkpt lat="-37.908514" lon="145.35564"><ele>239.25</ele></trkpt>
  </trkseg>
 </trk>
</gpx>