<?xml version="1.0" encoding="UTF-8"?>
<!-- track-length = 42627 filtered ascend = 51 plain-ascend = 2 cost=42627 energy=0.5kwh time=56m 50s -->
<gpx 
 xmlns="http://www.topografix.com/GPX/1/1" 
 xmlns:xsi="http://www.w3.org/2001/XMLSchema-instance" 
 xsi:schemaLocation="http://www.topografix.com/GPX/1/1 http://www.topografix.com/GPX/1/1/gpx.xsd" 
 version="1.1" 
 creator="BRouter-Web 0.18.1">
 <trk>
  <name>FKN</name>
  <trkseg>
   <trkpt lat="-38.143331" lon="145.125684"><ele>13</ele></trkpt>
   <trkpt lat="-38.143007" lon="145.125823"><ele>13.25</ele></trkpt>
   <trkpt lat="-38.142599" lon="145.126011"><ele>13.5</ele></trkpt>
   <trkpt lat="-38.142343" lon="145.126145"><ele>13</ele></trkpt>
   <trkpt lat="-38.142071" lon="145.126308"><ele>12.25</ele></trkpt>
   <trkpt lat="-38.14178" lon="145.126497"><ele>12</ele></trkpt>
   <trkpt lat="-38.141565" lon="145.126646"><ele>11.75</ele></trkpt>
   <trkpt lat="-38.14147" lon="145.126695"><ele>11.75</ele></trkpt>
   <trkpt lat="-38.141152" lon="145.126849"><ele>11.5</ele></trkpt>
   <trkpt lat="-38.140882" lon="145.127009"><ele>11.75</ele></trkpt>
   <trkpt lat="-38.140603" lon="145.12713"><ele>12</ele></trkpt>
   <trkpt lat="-38.139995" lon="145.127395"><ele>11.75</ele></trkpt>
   <trkpt lat="-38.136124" lon="145.129069"><ele>9.75</ele></trkpt>
   <trkpt lat="-38.133473" lon="145.130221"><ele>9.25</ele></trkpt>
   <trkpt lat="-38.133129" lon="145.130363"><ele>9.25</ele></trkpt>
   <trkpt lat="-38.132331" lon="145.130667"><ele>9.25</ele></trkpt>
   <trkpt lat="-38.131988" lon="145.130807"><ele>8.5</ele></trkpt>
   <trkpt lat="-38.131732" lon="145.130921"><ele>8.25</ele></trkpt>
   <trkpt lat="-38.128157" lon="145.132478"><ele>7.75</ele></trkpt>
   <trkpt lat="-38.126991" lon="145.133036"><ele>8.25</ele></trkpt>
   <trkpt lat="-38.12535" lon="145.133757"><ele>8.5</ele></trkpt>
   <trkpt lat="-38.12352" lon="145.134553"><ele>7.5</ele></trkpt>
   <trkpt lat="-38.122878" lon="145.134822"><ele>7.75</ele></trkpt>
   <trkpt lat="-38.12209" lon="145.135121"><ele>7</ele></trkpt>
   <trkpt lat="-38.121709" lon="145.135284"><ele>6.5</ele></trkpt>
   <trkpt lat="-38.121294" lon="145.13548"><ele>7.25</ele></trkpt>
   <trkpt lat="-38.120822" lon="145.135716"><ele>7.75</ele></trkpt>
   <trkpt lat="-38.120438" lon="145.13588"><ele>8.25</ele></trkpt>
   <trkpt lat="-38.120218" lon="145.135954"><ele>8.75</ele></trkpt>
   <trkpt lat="-38.119997" lon="145.136017"><ele>9</ele></trkpt>
   <trkpt lat="-38.119773" lon="145.136068"><ele>9.5</ele></trkpt>
   <trkpt lat="-38.119537" lon="145.13611"><ele>10.25</ele></trkpt>
   <trkpt lat="-38.119338" lon="145.136134"><ele>10.5</ele></trkpt>
   <trkpt lat="-38.118963" lon="145.136155"><ele>10.5</ele></trkpt>
   <trkpt lat="-38.118571" lon="145.136143"><ele>9.5</ele></trkpt>
   <trkpt lat="-38.118134" lon="145.136086"><ele>8.25</ele></trkpt>
   <trkpt lat="-38.117837" lon="145.136019"><ele>7.25</ele></trkpt>
   <trkpt lat="-38.117665" lon="145.13597"><ele>6.75</ele></trkpt>
   <trkpt lat="-38.117294" lon="145.135844"><ele>6</ele></trkpt>
   <trkpt lat="-38.116806" lon="145.135605"><ele>5.75</ele></trkpt>
   <trkpt lat="-38.116371" lon="145.135347"><ele>5.25</ele></trkpt>
   <trkpt lat="-38.115744" lon="145.134861"><ele>5.75</ele></trkpt>
   <trkpt lat="-38.113811" lon="145.133207"><ele>6</ele></trkpt>
   <trkpt lat="-38.112856" lon="145.132377"><ele>6.25</ele></trkpt>
   <trkpt lat="-38.112135" lon="145.131749"><ele>6</ele></trkpt>
   <trkpt lat="-38.111599" lon="145.131299"><ele>6</ele></trkpt>
   <trkpt lat="-38.111259" lon="145.131004"><ele>6.5</ele></trkpt>
   <trkpt lat="-38.110876" lon="145.130675"><ele>7</ele></trkpt>
   <trkpt lat="-38.110004" lon="145.129943"><ele>7</ele></trkpt>
   <trkpt lat="-38.109716" lon="145.129695"><ele>7.25</ele></trkpt>
   <trkpt lat="-38.109485" lon="145.129516"><ele>7.5</ele></trkpt>
   <trkpt lat="-38.109266" lon="145.129347"><ele>7.75</ele></trkpt>
   <trkpt lat="-38.108627" lon="145.128955"><ele>8</ele></trkpt>
   <trkpt lat="-38.10824" lon="145.128762"><ele>8.5</ele></trkpt>
   <trkpt lat="-38.107867" lon="145.128603"><ele>9.25</ele></trkpt>
   <trkpt lat="-38.107594" lon="145.128507"><ele>9.75</ele></trkpt>
   <trkpt lat="-38.10713" lon="145.128372"><ele>10</ele></trkpt>
   <trkpt lat="-38.106897" lon="145.12832"><ele>9.75</ele></trkpt>
   <trkpt lat="-38.106464" lon="145.12825"><ele>9.75</ele></trkpt>
   <trkpt lat="-38.106265" lon="145.12823"><ele>9.75</ele></trkpt>
   <trkpt lat="-38.105941" lon="145.128212"><ele>9.5</ele></trkpt>
   <trkpt lat="-38.105567" lon="145.128204"><ele>9.75</ele></trkpt>
   <trkpt lat="-38.103585" lon="145.1282"><ele>8.75</ele></trkpt>
   <trkpt lat="-38.103507" lon="145.1282"><ele>8.75</ele></trkpt>
   <trkpt lat="-38.103441" lon="145.128201"><ele>8.75</ele></trkpt>
   <trkpt lat="-38.103367" lon="145.128201"><ele>8.75</ele></trkpt>
   <trkpt lat="-38.093387" lon="145.128183"><ele>9.5</ele></trkpt>
   <trkpt lat="-38.093267" lon="145.128183"><ele>9.5</ele></trkpt>
   <trkpt lat="-38.093154" lon="145.128183"><ele>9.5</ele></trkpt>
   <trkpt lat="-38.091916" lon="145.12818"><ele>9.25</ele></trkpt>
   <trkpt lat="-38.091616" lon="145.128167"><ele>9.25</ele></trkpt>
   <trkpt lat="-38.091102" lon="145.128126"><ele>8.75</ele></trkpt>
   <trkpt lat="-38.090369" lon="145.128017"><ele>8.75</ele></trkpt>
   <trkpt lat="-38.089643" lon="145.127835"><ele>8.5</ele></trkpt>
   <trkpt lat="-38.089465" lon="145.127782"><ele>8.5</ele></trkpt>
   <trkpt lat="-38.089014" lon="145.127626"><ele>8</ele></trkpt>
   <trkpt lat="-38.088595" lon="145.127457"><ele>7.75</ele></trkpt>
   <trkpt lat="-38.088308" lon="145.127328"><ele>7.75</ele></trkpt>
   <trkpt lat="-38.088059" lon="145.127207"><ele>7.5</ele></trkpt>
   <trkpt lat="-38.087522" lon="145.126943"><ele>7</ele></trkpt>
   <trkpt lat="-38.086993" lon="145.12667"><ele>6</ele></trkpt>
   <trkpt lat="-38.08674" lon="145.126547"><ele>6.25</ele></trkpt>
   <trkpt lat="-38.084022" lon="145.125221"><ele>8.25</ele></trkpt>
   <trkpt lat="-38.08249" lon="145.124456"><ele>10</ele></trkpt>
   <trkpt lat="-38.082372" lon="145.124398"><ele>10</ele></trkpt>
   <trkpt lat="-38.081896" lon="145.124173"><ele>11.25</ele></trkpt>
   <trkpt lat="-38.081364" lon="145.123953"><ele>11.5</ele></trkpt>
   <trkpt lat="-38.080971" lon="145.123816"><ele>11</ele></trkpt>
   <trkpt lat="-38.080516" lon="145.12368"><ele>10.75</ele></trkpt>
   <trkpt lat="-38.078696" lon="145.123251"><ele>10</ele></trkpt>
   <trkpt lat="-38.074941" lon="145.122383"><ele>8.5</ele></trkpt>
   <trkpt lat="-38.074173" lon="145.122197"><ele>8</ele></trkpt>
   <trkpt lat="-38.073652" lon="145.12206"><ele>8</ele></trkpt>
   <trkpt lat="-38.07305" lon="145.1219"><ele>8</ele></trkpt>
   <trkpt lat="-38.072299" lon="145.121696"><ele>7.5</ele></trkpt>
   <trkpt lat="-38.071715" lon="145.121534"><ele>9.75</ele></trkpt>
   <trkpt lat="-38.070385" lon="145.121146"><ele>9.5</ele></trkpt>
   <trkpt lat="-38.069576" lon="145.120909"><ele>9.5</ele></trkpt>
   <trkpt lat="-38.06835" lon="145.120576"><ele>10.25</ele></trkpt>
   <trkpt lat="-38.067984" lon="145.120488"><ele>10</ele></trkpt>
   <trkpt lat="-38.06759" lon="145.120405"><ele>9.75</ele></trkpt>
   <trkpt lat="-38.067059" lon="145.120319"><ele>10</ele></trkpt>
   <trkpt lat="-38.066603" lon="145.120252"><ele>10</ele></trkpt>
   <trkpt lat="-38.065171" lon="145.120045"><ele>9.75</ele></trkpt>
   <trkpt lat="-38.063785" lon="145.119848"><ele>10</ele></trkpt>
   <trkpt lat="-38.061898" lon="145.119575"><ele>9.75</ele></trkpt>
   <trkpt lat="-38.061405" lon="145.119498"><ele>9.5</ele></trkpt>
   <trkpt lat="-38.061068" lon="145.119436"><ele>9.75</ele></trkpt>
   <trkpt lat="-38.060781" lon="145.119375"><ele>10</ele></trkpt>
   <trkpt lat="-38.060479" lon="145.1193"><ele>10.25</ele></trkpt>
   <trkpt lat="-38.06002" lon="145.119174"><ele>10.75</ele></trkpt>
   <trkpt lat="-38.059732" lon="145.119087"><ele>10.5</ele></trkpt>
   <trkpt lat="-38.058265" lon="145.118586"><ele>9.75</ele></trkpt>
   <trkpt lat="-38.056058" lon="145.117828"><ele>9.75</ele></trkpt>
   <trkpt lat="-38.055834" lon="145.117751"><ele>9.75</ele></trkpt>
   <trkpt lat="-38.055775" lon="145.117729"><ele>10</ele></trkpt>
   <trkpt lat="-38.055449" lon="145.117606"><ele>10</ele></trkpt>
   <trkpt lat="-38.055005" lon="145.11742"><ele>9</ele></trkpt>
   <trkpt lat="-38.054069" lon="145.116985"><ele>10.25</ele></trkpt>
   <trkpt lat="-38.052795" lon="145.116388"><ele>10.5</ele></trkpt>
   <trkpt lat="-38.050774" lon="145.115442"><ele>10.75</ele></trkpt>
   <trkpt lat="-38.050488" lon="145.115308"><ele>10.75</ele></trkpt>
   <trkpt lat="-38.048491" lon="145.114367"><ele>11</ele></trkpt>
   <trkpt lat="-38.047453" lon="145.113881"><ele>10.25</ele></trkpt>
   <trkpt lat="-38.046746" lon="145.113541"><ele>10</ele></trkpt>
   <trkpt lat="-38.046273" lon="145.113289"><ele>9.5</ele></trkpt>
   <trkpt lat="-38.044604" lon="145.112314"><ele>10</ele></trkpt>
   <trkpt lat="-38.044323" lon="145.11215"><ele>10</ele></trkpt>
   <trkpt lat="-38.044268" lon="145.112117"><ele>10</ele></trkpt>
   <trkpt lat="-38.041347" lon="145.110397"><ele>10</ele></trkpt>
   <trkpt lat="-38.040599" lon="145.109958"><ele>10.25</ele></trkpt>
   <trkpt lat="-38.038767" lon="145.108882"><ele>9</ele></trkpt>
   <trkpt lat="-38.03855" lon="145.108755"><ele>9</ele></trkpt>
   <trkpt lat="-38.038492" lon="145.108721"><ele>9</ele></trkpt>
   <trkpt lat="-38.037155" lon="145.107934"><ele>10</ele></trkpt>
   <trkpt lat="-38.03651" lon="145.107552"><ele>10.75</ele></trkpt>
   <trkpt lat="-38.035624" lon="145.10703"><ele>10.25</ele></trkpt>
   <trkpt lat="-38.03422" lon="145.106204"><ele>9.75</ele></trkpt>
   <trkpt lat="-38.031238" lon="145.104455"><ele>9.75</ele></trkpt>
   <trkpt lat="-38.029745" lon="145.103575"><ele>8.25</ele></trkpt>
   <trkpt lat="-38.027705" lon="145.10237"><ele>9.5</ele></trkpt>
   <trkpt lat="-38.027554" lon="145.102282"><ele>9.5</ele></trkpt>
   <trkpt lat="-38.026845" lon="145.101866"><ele>9</ele></trkpt>
   <trkpt lat="-38.025445" lon="145.101048"><ele>8.75</ele></trkpt>
   <trkpt lat="-38.024556" lon="145.10052"><ele>8.75</ele></trkpt>
   <trkpt lat="-38.023943" lon="145.10014"><ele>8.25</ele></trkpt>
   <trkpt lat="-38.023162" lon="145.099594"><ele>8.75</ele></trkpt>
   <trkpt lat="-38.021964" lon="145.098704"><ele>7.75</ele></trkpt>
   <trkpt lat="-38.020606" lon="145.097695"><ele>8.25</ele></trkpt>
   <trkpt lat="-38.020053" lon="145.097276"><ele>8</ele></trkpt>
   <trkpt lat="-38.018226" lon="145.09592"><ele>9.5</ele></trkpt>
   <trkpt lat="-38.017901" lon="145.095667"><ele>8.75</ele></trkpt>
   <trkpt lat="-38.017404" lon="145.095261"><ele>7.75</ele></trkpt>
   <trkpt lat="-38.016826" lon="145.094726"><ele>7.75</ele></trkpt>
   <trkpt lat="-38.016349" lon="145.094274"><ele>7.5</ele></trkpt>
   <trkpt lat="-38.01586" lon="145.093859"><ele>7.75</ele></trkpt>
   <trkpt lat="-38.01563" lon="145.093664"><ele>8</ele></trkpt>
   <trkpt lat="-38.014938" lon="145.093174"><ele>8.75</ele></trkpt>
   <trkpt lat="-38.014612" lon="145.092954"><ele>8.25</ele></trkpt>
   <trkpt lat="-38.011976" lon="145.091173"><ele>7.25</ele></trkpt>
   <trkpt lat="-38.011895" lon="145.091116"><ele>7.25</ele></trkpt>
   <trkpt lat="-38.011817" lon="145.091067"><ele>7.25</ele></trkpt>
   <trkpt lat="-38.011731" lon="145.091009"><ele>7.5</ele></trkpt>
   <trkpt lat="-38.011414" lon="145.090794"><ele>7.25</ele></trkpt>
   <trkpt lat="-38.010738" lon="145.09033"><ele>6.5</ele></trkpt>
   <trkpt lat="-38.009886" lon="145.089745"><ele>4.5</ele></trkpt>
   <trkpt lat="-38.008873" lon="145.089111"><ele>5.5</ele></trkpt>
   <trkpt lat="-38.008557" lon="145.088908"><ele>6.5</ele></trkpt>
   <trkpt lat="-38.008294" lon="145.088739"><ele>7</ele></trkpt>
   <trkpt lat="-38.007379" lon="145.08812"><ele>8</ele></trkpt>
   <trkpt lat="-38.00714" lon="145.087957"><ele>8</ele></trkpt>
   <trkpt lat="-38.007138" lon="145.087955"><ele>8</ele></trkpt>
   <trkpt lat="-38.006949" lon="145.087826"><ele>7.75</ele></trkpt>
   <trkpt lat="-38.006912" lon="145.087802"><ele>7.75</ele></trkpt>
   <trkpt lat="-38.005676" lon="145.086962"><ele>9.25</ele></trkpt>
   <trkpt lat="-38.005522" lon="145.086858"><ele>9</ele></trkpt>
   <trkpt lat="-38.005443" lon="145.086804"><ele>9</ele></trkpt>
   <trkpt lat="-38.005371" lon="145.086755"><ele>8.75</ele></trkpt>
   <trkpt lat="-38.005" lon="145.086507"><ele>8.25</ele></trkpt>
   <trkpt lat="-38.004658" lon="145.086325"><ele>9.25</ele></trkpt>
   <trkpt lat="-38.003928" lon="145.085834"><ele>11.25</ele></trkpt>
   <trkpt lat="-38.003893" lon="145.08581"><ele>11.25</ele></trkpt>
   <trkpt lat="-38.001355" lon="145.084091"><ele>12</ele></trkpt>
   <trkpt lat="-38.000894" lon="145.083781"><ele>11</ele></trkpt>
   <trkpt lat="-38.000273" lon="145.083363"><ele>12.25</ele></trkpt>
   <trkpt lat="-37.998652" lon="145.082251"><ele>17.25</ele></trkpt>
   <trkpt lat="-37.998134" lon="145.081846"><ele>18.75</ele></trkpt>
   <trkpt lat="-37.997946" lon="145.081688"><ele>18.75</ele></trkpt>
   <trkpt lat="-37.99762" lon="145.081408"><ele>18.75</ele></trkpt>
   <trkpt lat="-37.997181" lon="145.080999"><ele>18.75</ele></trkpt>
   <trkpt lat="-37.996777" lon="145.080595"><ele>19.25</ele></trkpt>
   <trkpt lat="-37.996412" lon="145.08021"><ele>19.5</ele></trkpt>
   <trkpt lat="-37.9957" lon="145.079373"><ele>19.75</ele></trkpt>
   <trkpt lat="-37.993064" lon="145.076313"><ele>20.5</ele></trkpt>
   <trkpt lat="-37.987337" lon="145.069665"><ele>22.75</ele></trkpt>
   <trkpt lat="-37.986767" lon="145.069042"><ele>22.75</ele></trkpt>
   <trkpt lat="-37.986478" lon="145.068731"><ele>23</ele></trkpt>
   <trkpt lat="-37.986131" lon="145.0684"><ele>22.75</ele></trkpt>
   <trkpt lat="-37.985554" lon="145.067901"><ele>23.25</ele></trkpt>
   <trkpt lat="-37.984833" lon="145.067311"><ele>24.75</ele></trkpt>
   <trkpt lat="-37.984471" lon="145.067032"><ele>24.75</ele></trkpt>
   <trkpt lat="-37.983144" lon="145.066078"><ele>24</ele></trkpt>
   <trkpt lat="-37.98277" lon="145.065819"><ele>24</ele></trkpt>
   <trkpt lat="-37.982071" lon="145.065331"><ele>23.75</ele></trkpt>
   <trkpt lat="-37.981316" lon="145.064802"><ele>23.25</ele></trkpt>
   <trkpt lat="-37.981118" lon="145.064663"><ele>22.75</ele></trkpt>
   <trkpt lat="-37.978957" lon="145.063158"><ele>26.25</ele></trkpt>
   <trkpt lat="-37.978128" lon="145.062598"><ele>27.25</ele></trkpt>
   <trkpt lat="-37.977573" lon="145.062212"><ele>26</ele></trkpt>
   <trkpt lat="-37.976768" lon="145.061633"><ele>26.75</ele></trkpt>
   <trkpt lat="-37.975189" lon="145.060528"><ele>28.5</ele></trkpt>
   <trkpt lat="-37.974256" lon="145.059894"><ele>28.5</ele></trkpt>
   <trkpt lat="-37.974163" lon="145.059829"><ele>28.5</ele></trkpt>
   <trkpt lat="-37.974071" lon="145.059766"><ele>28.75</ele></trkpt>
   <trkpt lat="-37.972078" lon="145.058379"><ele>35.25</ele></trkpt>
   <trkpt lat="-37.970854" lon="145.057515"><ele>36.75</ele></trkpt>
   <trkpt lat="-37.970178" lon="145.057058"><ele>36.75</ele></trkpt>
   <trkpt lat="-37.969999" lon="145.056923"><ele>36.5</ele></trkpt>
   <trkpt lat="-37.969657" lon="145.056695"><ele>36.5</ele></trkpt>
   <trkpt lat="-37.969395" lon="145.056502"><ele>36.5</ele></trkpt>
   <trkpt lat="-37.968767" lon="145.056072"><ele>37.75</ele></trkpt>
   <trkpt lat="-37.967812" lon="145.055391"><ele>39.75</ele></trkpt>
   <trkpt lat="-37.966686" lon="145.054606"><ele>40.25</ele></trkpt>
   <trkpt lat="-37.964524" lon="145.053115"><ele>40</ele></trkpt>
   <trkpt lat="-37.961741" lon="145.051178"><ele>42.5</ele></trkpt>
   <trkpt lat="-37.961374" lon="145.050907"><ele>43.25</ele></trkpt>
   <trkpt lat="-37.959751" lon="145.049779"><ele>43.25</ele></trkpt>
   <trkpt lat="-37.958871" lon="145.049181"><ele>43.5</ele></trkpt>
   <trkpt lat="-37.957084" lon="145.047939"><ele>42.25</ele></trkpt>
   <trkpt lat="-37.956806" lon="145.047741"><ele>42.25</ele></trkpt>
   <trkpt lat="-37.948879" lon="145.04222"><ele>40.5</ele></trkpt>
   <trkpt lat="-37.948769" lon="145.042144"><ele>40.5</ele></trkpt>
   <trkpt lat="-37.948653" lon="145.042065"><ele>40.5</ele></trkpt>
   <trkpt lat="-37.948341" lon="145.041849"><ele>40.25</ele></trkpt>
   <trkpt lat="-37.94496" lon="145.039496"><ele>39.75</ele></trkpt>
   <trkpt lat="-37.94489" lon="145.039447"><ele>39.75</ele></trkpt>
   <trkpt lat="-37.944625" lon="145.039262"><ele>40</ele></trkpt>
   <trkpt lat="-37.944541" lon="145.039205"><ele>40</ele></trkpt>
   <trkpt lat="-37.943958" lon="145.038795"><ele>40.5</ele></trkpt>
   <trkpt lat="-37.943332" lon="145.038366"><ele>40.75</ele></trkpt>
   <trkpt lat="-37.943103" lon="145.038214"><ele>40.5</ele></trkpt>
   <trkpt lat="-37.942645" lon="145.037929"><ele>40</ele></trkpt>
   <trkpt lat="-37.942085" lon="145.037619"><ele>40</ele></trkpt>
   <trkpt lat="-37.94167" lon="145.037425"><ele>39.75</ele></trkpt>
   <trkpt lat="-37.941298" lon="145.037275"><ele>39.75</ele></trkpt>
   <trkpt lat="-37.94064" lon="145.03703"><ele>39</ele></trkpt>
   <trkpt lat="-37.939793" lon="145.036758"><ele>37.5</ele></trkpt>
   <trkpt lat="-37.939479" lon="145.036674"><ele>36.75</ele></trkpt>
   <trkpt lat="-37.939254" lon="145.036627"><ele>36.25</ele></trkpt>
   <trkpt lat="-37.938984" lon="145.036577"><ele>35.75</ele></trkpt>
   <trkpt lat="-37.938511" lon="145.036507"><ele>35.25</ele></trkpt>
   <trkpt lat="-37.938142" lon="145.036469"><ele>35</ele></trkpt>
   <trkpt lat="-37.937929" lon="145.036458"><ele>35</ele></trkpt>
   <trkpt lat="-37.937737" lon="145.036458"><ele>35</ele></trkpt>
   <trkpt lat="-37.937264" lon="145.036478"><ele>35.5</ele></trkpt>
   <trkpt lat="-37.936534" lon="145.036469"><ele>37</ele></trkpt>
   <trkpt lat="-37.935947" lon="145.036501"><ele>40.5</ele></trkpt>
   <trkpt lat="-37.935613" lon="145.036539"><ele>41</ele></trkpt>
   <trkpt lat="-37.935263" lon="145.036608"><ele>40</ele></trkpt>
   <trkpt lat="-37.934302" lon="145.03678"><ele>40</ele></trkpt>
   <trkpt lat="-37.933498" lon="145.036928"><ele>38</ele></trkpt>
   <trkpt lat="-37.933461" lon="145.036934"><ele>38</ele></trkpt>
   <trkpt lat="-37.933228" lon="145.036976"><ele>37.25</ele></trkpt>
   <trkpt lat="-37.933135" lon="145.036992"><ele>37.25</ele></trkpt>
   <trkpt lat="-37.932396" lon="145.03712"><ele>37.25</ele></trkpt>
   <trkpt lat="-37.932073" lon="145.037148"><ele>37</ele></trkpt>
   <trkpt lat="-37.931929" lon="145.037149"><ele>36.75</ele></trkpt>
   <trkpt lat="-37.931618" lon="145.037132"><ele>36.75</ele></trkpt>
   <trkpt lat="-37.931406" lon="145.037101"><ele>36.75</ele></trkpt>
   <trkpt lat="-37.931196" lon="145.037058"><ele>37</ele></trkpt>
   <trkpt lat="-37.930987" lon="145.037003"><ele>37</ele></trkpt>
   <trkpt lat="-37.930734" lon="145.036923"><ele>36.75</ele></trkpt>
   <trkpt lat="-37.930266" lon="145.036747"><ele>36.75</ele></trkpt>
   <trkpt lat="-37.929685" lon="145.036492"><ele>36.5</ele></trkpt>
   <trkpt lat="-37.929464" lon="145.036384"><ele>36.25</ele></trkpt>
   <trkpt lat="-37.927977" lon="145.035709"><ele>36</ele></trkpt>
   <trkpt lat="-37.927719" lon="145.035603"><ele>35.5</ele></trkpt>
   <trkpt lat="-37.927513" lon="145.03553"><ele>35</ele></trkpt>
   <trkpt lat="-37.92734" lon="145.035479"><ele>34.5</ele></trkpt>
   <trkpt lat="-37.927132" lon="145.035433"><ele>33.75</ele></trkpt>
   <trkpt lat="-37.926998" lon="145.035411"><ele>33.25</ele></trkpt>
   <trkpt lat="-37.926817" lon="145.035388"><ele>32.75</ele></trkpt>
   <trkpt lat="-37.92663" lon="145.035374"><ele>32.5</ele></trkpt>
   <trkpt lat="-37.926447" lon="145.035372"><ele>32.25</ele></trkpt>
   <trkpt lat="-37.926085" lon="145.035395"><ele>31.75</ele></trkpt>
   <trkpt lat="-37.92573" lon="145.035449"><ele>31.25</ele></trkpt>
   <trkpt lat="-37.925575" lon="145.035479"><ele>31.25</ele></trkpt>
   <trkpt lat="-37.924945" lon="145.035596"><ele>30.75</ele></trkpt>
   <trkpt lat="-37.923726" lon="145.035787"><ele>29.25</ele></trkpt>
   <trkpt lat="-37.923363" lon="145.035853"><ele>29</ele></trkpt>
   <trkpt lat="-37.923309" lon="145.035863"><ele>29</ele></trkpt>
   <trkpt lat="-37.922053" lon="145.036093"><ele>31.5</ele></trkpt>
   <trkpt lat="-37.921943" lon="145.036114"><ele>31.75</ele></trkpt>
   <trkpt lat="-37.919537" lon="145.036556"><ele>30.75</ele></trkpt>
   <trkpt lat="-37.918311" lon="145.036859"><ele>31.25</ele></trkpt>
   <trkpt lat="-37.917984" lon="145.036924"><ele>32</ele></trkpt>
   <trkpt lat="-37.917966" lon="145.036927"><ele>32</ele></trkpt>
   <trkpt lat="-37.917357" lon="145.037034"><ele>32.5</ele></trkpt>
   <trkpt lat="-37.9164" lon="145.03721"><ele>31.25</ele></trkpt>
   <trkpt lat="-37.915904" lon="145.037294"><ele>31</ele></trkpt>
   <trkpt lat="-37.915511" lon="145.037349"><ele>29.75</ele></trkpt>
   <trkpt lat="-37.915496" lon="145.037351"><ele>29.75</ele></trkpt>
   <trkpt lat="-37.9151" lon="145.037412"><ele>28.25</ele></trkpt>
   <trkpt lat="-37.913879" lon="145.037635"><ele>28.75</ele></trkpt>
   <trkpt lat="-37.912883" lon="145.037819"><ele>29.25</ele></trkpt>
   <trkpt lat="-37.91219" lon="145.037959"><ele>30.25</ele></trkpt>
   <trkpt lat="-37.912162" lon="145.037964"><ele>30.25</ele></trkpt>
   <trkpt lat="-37.911218" lon="145.038157"><ele>31.5</ele></trkpt>
   <trkpt lat="-37.911126" lon="145.038175"><ele>31.5</ele></trkpt>
   <trkpt lat="-37.910951" lon="145.03821"><ele>31.75</ele></trkpt>
   <trkpt lat="-37.910613" lon="145.038275"><ele>32.5</ele></trkpt>
   <trkpt lat="-37.910211" lon="145.03834"><ele>33.5</ele></trkpt>
   <trkpt lat="-37.909626" lon="145.038423"><ele>33.5</ele></trkpt>
   <trkpt lat="-37.909087" lon="145.038511"><ele>33</ele></trkpt>
   <trkpt lat="-37.906269" lon="145.039032"><ele>33.75</ele></trkpt>
   <trkpt lat="-37.90489" lon="145.039328"><ele>38</ele></trkpt>
   <trkpt lat="-37.904033" lon="145.039504"><ele>39.5</ele></trkpt>
   <trkpt lat="-37.903482" lon="145.039611"><ele>39.5</ele></trkpt>
   <trkpt lat="-37.90328" lon="145.039647"><ele>40</ele></trkpt>
   <trkpt lat="-37.90296" lon="145.039695"><ele>41</ele></trkpt>
   <trkpt lat="-37.902354" lon="145.039753"><ele>43</ele></trkpt>
   <trkpt lat="-37.901958" lon="145.039816"><ele>44.25</ele></trkpt>
   <trkpt lat="-37.901771" lon="145.039856"><ele>45</ele></trkpt>
   <trkpt lat="-37.898137" lon="145.04057"><ele>45</ele></trkpt>
   <trkpt lat="-37.897509" lon="145.040703"><ele>44.5</ele></trkpt>
   <trkpt lat="-37.89736" lon="145.040732"><ele>44.5</ele></trkpt>
   <trkpt lat="-37.89408" lon="145.041375"><ele>48</ele></trkpt>
   <trkpt lat="-37.893144" lon="145.041551"><ele>49.5</ele></trkpt>
   <trkpt lat="-37.892496" lon="145.041675"><ele>49</ele></trkpt>
   <trkpt lat="-37.891909" lon="145.041769"><ele>51</ele></trkpt>
   <trkpt lat="-37.891018" lon="145.041945"><ele>50.75</ele></trkpt>
   <trkpt lat="-37.890929" lon="145.041959"><ele>50.5</ele></trkpt>
   <trkpt lat="-37.890526" lon="145.042026"><ele>50.5</ele></trkpt>
   <trkpt lat="-37.890038" lon="145.042124"><ele>51</ele></trkpt>
   <trkpt lat="-37.889504" lon="145.042227"><ele>50.5</ele></trkpt>
   <trkpt lat="-37.889325" lon="145.042262"><ele>50.25</ele></trkpt>
   <trkpt lat="-37.88863" lon="145.042381"><ele>49.75</ele></trkpt>
   <trkpt lat="-37.888445" lon="145.042413"><ele>49.75</ele></trkpt>
   <trkpt lat="-37.888102" lon="145.0425"><ele>49.75</ele></trkpt>
   <trkpt lat="-37.887784" lon="145.042569"><ele>49.75</ele></trkpt>
   <trkpt lat="-37.887468" lon="145.042677"><ele>49.25</ele></trkpt>
   <trkpt lat="-37.88714" lon="145.042821"><ele>48.5</ele></trkpt>
   <trkpt lat="-37.887018" lon="145.04289"><ele>48.25</ele></trkpt>
   <trkpt lat="-37.886754" lon="145.043035"><ele>48.25</ele></trkpt>
   <trkpt lat="-37.886514" lon="145.043208"><ele>49</ele></trkpt>
   <trkpt lat="-37.886272" lon="145.043407"><ele>50</ele></trkpt>
   <trkpt lat="-37.885919" lon="145.043759"><ele>51.75</ele></trkpt>
   <trkpt lat="-37.885778" lon="145.04391"><ele>52.25</ele></trkpt>
   <trkpt lat="-37.884811" lon="145.044891"><ele>51</ele></trkpt>
   <trkpt lat="-37.884482" lon="145.045225"><ele>51</ele></trkpt>
   <trkpt lat="-37.884086" lon="145.045576"><ele>50.75</ele></trkpt>
   <trkpt lat="-37.883741" lon="145.045826"><ele>50.75</ele></trkpt>
   <trkpt lat="-37.883379" lon="145.046035"><ele>50.75</ele></trkpt>
   <trkpt lat="-37.883137" lon="145.046145"><ele>51.25</ele></trkpt>
   <trkpt lat="-37.882821" lon="145.046251"><ele>52</ele></trkpt>
   <trkpt lat="-37.882488" lon="145.046328"><ele>52.75</ele></trkpt>
   <trkpt lat="-37.88227" lon="145.046365"><ele>52.5</ele></trkpt>
   <trkpt lat="-37.88197" lon="145.046387"><ele>52.25</ele></trkpt>
   <trkpt lat="-37.881649" lon="145.046371"><ele>51.75</ele></trkpt>
   <trkpt lat="-37.88142" lon="145.046331"><ele>51.75</ele></trkpt>
   <trkpt lat="-37.881056" lon="145.046243"><ele>51.5</ele></trkpt>
   <trkpt lat="-37.880708" lon="145.046131"><ele>51.5</ele></trkpt>
   <trkpt lat="-37.880376" lon="145.046011"><ele>51.75</ele></trkpt>
   <trkpt lat="-37.880241" lon="145.045955"><ele>51.75</ele></trkpt>
   <trkpt lat="-37.880078" lon="145.045872"><ele>51.75</ele></trkpt>
   <trkpt lat="-37.879881" lon="145.045742"><ele>51.75</ele></trkpt>
   <trkpt lat="-37.879778" lon="145.045659"><ele>51.75</ele></trkpt>
   <trkpt lat="-37.879603" lon="145.045491"><ele>52</ele></trkpt>
   <trkpt lat="-37.879366" lon="145.045213"><ele>52.5</ele></trkpt>
   <trkpt lat="-37.879169" lon="145.044917"><ele>52.75</ele></trkpt>
   <trkpt lat="-37.878957" lon="145.044596"><ele>53.25</ele></trkpt>
   <trkpt lat="-37.878825" lon="145.044402"><ele>53.25</ele></trkpt>
   <trkpt lat="-37.878666" lon="145.044163"><ele>53</ele></trkpt>
   <trkpt lat="-37.878402" lon="145.043827"><ele>54</ele></trkpt>
   <trkpt lat="-37.877518" lon="145.042494"><ele>54.75</ele></trkpt>
   <trkpt lat="-37.877448" lon="145.042388"><ele>55</ele></trkpt>
   <trkpt lat="-37.876854" lon="145.04149"><ele>54</ele></trkpt>
   <trkpt lat="-37.876364" lon="145.040748"><ele>53.25</ele></trkpt>
   <trkpt lat="-37.876359" lon="145.04074"><ele>53.25</ele></trkpt>
   <trkpt lat="-37.87591" lon="145.040203"><ele>52</ele></trkpt>
   <trkpt lat="-37.875788" lon="145.040055"><ele>52</ele></trkpt>
   <trkpt lat="-37.875586" lon="145.039813"><ele>51.75</ele></trkpt>
   <trkpt lat="-37.875416" lon="145.039612"><ele>51.5</ele></trkpt>
   <trkpt lat="-37.87527" lon="145.039442"><ele>51.25</ele></trkpt>
   <trkpt lat="-37.871559" lon="145.035308"><ele>47.5</ele></trkpt>
   <trkpt lat="-37.871478" lon="145.035219"><ele>47.25</ele></trkpt>
   <trkpt lat="-37.868463" lon="145.031863"><ele>51.5</ele></trkpt>
   <trkpt lat="-37.868269" lon="145.031648"><ele>51.75</ele></trkpt>
   <trkpt lat="-37.867414" lon="145.03068"><ele>51.5</ele></trkpt>
   <trkpt lat="-37.867176" lon="145.030388"><ele>52.5</ele></trkpt>
   <trkpt lat="-37.86688" lon="145.029991"><ele>53.25</ele></trkpt>
   <trkpt lat="-37.866542" lon="145.029507"><ele>54.5</ele></trkpt>
   <trkpt lat="-37.866277" lon="145.029181"><ele>55.25</ele></trkpt>
   <trkpt lat="-37.866019" lon="145.028923"><ele>56.5</ele></trkpt>
   <trkpt lat="-37.865869" lon="145.028755"><ele>57.25</ele></trkpt>
   <trkpt lat="-37.865762" lon="145.028652"><ele>58</ele></trkpt>
   <trkpt lat="-37.86524" lon="145.02819"><ele>58.5</ele></trkpt>
   <trkpt lat="-37.86507" lon="145.028031"><ele>58.25</ele></trkpt>
   <trkpt lat="-37.864847" lon="145.0278"><ele>57.5</ele></trkpt>
   <trkpt lat="-37.86294" lon="145.025717"><ele>53.5</ele></trkpt>
   <trkpt lat="-37.862005" lon="145.024698"><ele>52.5</ele></trkpt>
   <trkpt lat="-37.861762" lon="145.024454"><ele>52.5</ele></trkpt>
   <trkpt lat="-37.857613" lon="145.020469"><ele>50</ele></trkpt>
   <trkpt lat="-37.857241" lon="145.0201"><ele>49</ele></trkpt>
   <trkpt lat="-37.85677" lon="145.019605"><ele>47.75</ele></trkpt>
   <trkpt lat="-37.856282" lon="145.019118"><ele>47.5</ele></trkpt>
   <trkpt lat="-37.855828" lon="145.018702"><ele>47.5</ele></trkpt>
   <trkpt lat="-37.855415" lon="145.018342"><ele>48</ele></trkpt>
   <trkpt lat="-37.855036" lon="145.017986"><ele>48.25</ele></trkpt>
   <trkpt lat="-37.852524" lon="145.01556"><ele>43</ele></trkpt>
   <trkpt lat="-37.852119" lon="145.015124"><ele>42.5</ele></trkpt>
   <trkpt lat="-37.851274" lon="145.01416"><ele>42.5</ele></trkpt>
   <trkpt lat="-37.850892" lon="145.013763"><ele>42.5</ele></trkpt>
   <trkpt lat="-37.850758" lon="145.013637"><ele>42.5</ele></trkpt>
   <trkpt lat="-37.850466" lon="145.013387"><ele>42</ele></trkpt>
   <trkpt lat="-37.84994" lon="145.012956"><ele>41.25</ele></trkpt>
   <trkpt lat="-37.849582" lon="145.012632"><ele>40.25</ele></trkpt>
   <trkpt lat="-37.849459" lon="145.012512"><ele>40</ele></trkpt>
   <trkpt lat="-37.849108" lon="145.012139"><ele>38.75</ele></trkpt>
   <trkpt lat="-37.848798" lon="145.011767"><ele>37.75</ele></trkpt>
   <trkpt lat="-37.848506" lon="145.011377"><ele>37</ele></trkpt>
   <trkpt lat="-37.848217" lon="145.010933"><ele>36.5</ele></trkpt>
   <trkpt lat="-37.848034" lon="145.010619"><ele>35.5</ele></trkpt>
   <trkpt lat="-37.847859" lon="145.010296"><ele>34.25</ele></trkpt>
   <trkpt lat="-37.847696" lon="145.009961"><ele>32.75</ele></trkpt>
   <trkpt lat="-37.847541" lon="145.009618"><ele>32</ele></trkpt>
   <trkpt lat="-37.847455" lon="145.009409"><ele>31.75</ele></trkpt>
   <trkpt lat="-37.846654" lon="145.007285"><ele>33</ele></trkpt>
   <trkpt lat="-37.846575" lon="145.007067"><ele>32</ele></trkpt>
   <trkpt lat="-37.845435" lon="145.003876"><ele>26.5</ele></trkpt>
   <trkpt lat="-37.845342" lon="145.003614"><ele>26</ele></trkpt>
   <trkpt lat="-37.845151" lon="145.003082"><ele>24.75</ele></trkpt>
   <trkpt lat="-37.844971" lon="145.002605"><ele>24</ele></trkpt>
   <trkpt lat="-37.844841" lon="145.002271"><ele>23.75</ele></trkpt>
   <trkpt lat="-37.844668" lon="145.00186"><ele>23.25</ele></trkpt>
   <trkpt lat="-37.843871" lon="145.000012"><ele>20</ele></trkpt>
   <trkpt lat="-37.843527" lon="144.999239"><ele>17.25</ele></trkpt>
   <trkpt lat="-37.843346" lon="144.998838"><ele>16.5</ele></trkpt>
   <trkpt lat="-37.843263" lon="144.998654"><ele>16</ele></trkpt>
   <trkpt lat="-37.842505" lon="144.996962"><ele>21.5</ele></trkpt>
   <trkpt lat="-37.842351" lon="144.996599"><ele>22.25</ele></trkpt>
   <trkpt lat="-37.842239" lon="144.99631"><ele>21.75</ele></trkpt>
   <trkpt lat="-37.842003" lon="144.995656"><ele>20.75</ele></trkpt>
   <trkpt lat="-37.841701" lon="144.994787"><ele>18</ele></trkpt>
   <trkpt lat="-37.841605" lon="144.994501"><ele>18</ele></trkpt>
   <trkpt lat="-37.841543" lon="144.994284"><ele>18.25</ele></trkpt>
   <trkpt lat="-37.841434" lon="144.993862"><ele>18.25</ele></trkpt>
   <trkpt lat="-37.841341" lon="144.993591"><ele>18</ele></trkpt>
   <trkpt lat="-37.841222" lon="144.993331"><ele>17.25</ele></trkpt>
   <trkpt lat="-37.841136" lon="144.993183"><ele>17</ele></trkpt>
   <trkpt lat="-37.841034" lon="144.993034"><ele>16.5</ele></trkpt>
   <trkpt lat="-37.840894" lon="144.992865"><ele>16</ele></trkpt>
   <trkpt lat="-37.840699" lon="144.992676"><ele>15.75</ele></trkpt>
   <trkpt lat="-37.840481" lon="144.992522"><ele>15</ele></trkpt>
   <trkpt lat="-37.840249" lon="144.992403"><ele>15.25</ele></trkpt>
   <trkpt lat="-37.840126" lon="144.992358"><ele>15.25</ele></trkpt>
   <trkpt lat="-37.840002" lon="144.992324"><ele>15.25</ele></trkpt>
   <trkpt lat="-37.839804" lon="144.99229"><ele>15.75</ele></trkpt>
   <trkpt lat="-37.839171" lon="144.992236"><ele>16.75</ele></trkpt>
   <trkpt lat="-37.839018" lon="144.992237"><ele>17</ele></trkpt>
   <trkpt lat="-37.838866" lon="144.992249"><ele>17</ele></trkpt>
   <trkpt lat="-37.838813" lon="144.992256"><ele>17.25</ele></trkpt>
   <trkpt lat="-37.83864" lon="144.992285"><ele>17.25</ele></trkpt>
   <trkpt lat="-37.83717" lon="144.99259"><ele>14.25</ele></trkpt>
   <trkpt lat="-37.835681" lon="144.992901"><ele>17</ele></trkpt>
   <trkpt lat="-37.835221" lon="144.992974"><ele>17.75</ele></trkpt>
   <trkpt lat="-37.834491" lon="144.993067"><ele>16.75</ele></trkpt>
   <trkpt lat="-37.834216" lon="144.993117"><ele>15.5</ele></trkpt>
   <trkpt lat="-37.832811" lon="144.993409"><ele>13.25</ele></trkpt>
   <trkpt lat="-37.831128" lon="144.993766"><ele>15.25</ele></trkpt>
   <trkpt lat="-37.830268" lon="144.993925"><ele>14.75</ele></trkpt>
   <trkpt lat="-37.830099" lon="144.993954"><ele>14.75</ele></trkpt>
   <trkpt lat="-37.828592" lon="144.994208"><ele>12.75</ele></trkpt>
   <trkpt lat="-37.828419" lon="144.994224"><ele>12.75</ele></trkpt>
   <trkpt lat="-37.828098" lon="144.99422"><ele>13.5</ele></trkpt>
   <trkpt lat="-37.827877" lon="144.9942"><ele>14</ele></trkpt>
   <trkpt lat="-37.827453" lon="144.994117"><ele>14.75</ele></trkpt>
   <trkpt lat="-37.827301" lon="144.994065"><ele>14.75</ele></trkpt>
   <trkpt lat="-37.827187" lon="144.994019"><ele>14.5</ele></trkpt>
   <trkpt lat="-37.826838" lon="144.99386"><ele>14</ele></trkpt>
   <trkpt lat="-37.826604" lon="144.993717"><ele>14</ele></trkpt>
   <trkpt lat="-37.826376" lon="144.993549"><ele>14.25</ele></trkpt>
   <trkpt lat="-37.826176" lon="144.993379"><ele>14.5</ele></trkpt>
   <trkpt lat="-37.825973" lon="144.993175"><ele>14.25</ele></trkpt>
   <trkpt lat="-37.825772" lon="144.992947"><ele>14</ele></trkpt>
   <trkpt lat="-37.825518" lon="144.992638"><ele>13</ele></trkpt>
   <trkpt lat="-37.825135" lon="144.992087"><ele>11</ele></trkpt>
   <trkpt lat="-37.824876" lon="144.991662"><ele>10.25</ele></trkpt>
   <trkpt lat="-37.824578" lon="144.991177"><ele>11.5</ele></trkpt>
   <trkpt lat="-37.824422" lon="144.990904"><ele>12</ele></trkpt>
   <trkpt lat="-37.824329" lon="144.990713"><ele>12</ele></trkpt>
   <trkpt lat="-37.82425" lon="144.990517"><ele>11.5</ele></trkpt>
   <trkpt lat="-37.824182" lon="144.990311"><ele>11</ele></trkpt>
   <trkpt lat="-37.824123" lon="144.9901"><ele>11</ele></trkpt>
   <trkpt lat="-37.824115" lon="144.990072"><ele>11</ele></trkpt>
   <trkpt lat="-37.824106" lon="144.990041"><ele>11</ele></trkpt>
   <trkpt lat="-37.823858" lon="144.989136"><ele>11.25</ele></trkpt>
   <trkpt lat="-37.82375" lon="144.988739"><ele>11.5</ele></trkpt>
   <trkpt lat="-37.823649" lon="144.988372"><ele>11.5</ele></trkpt>
   <trkpt lat="-37.823534" lon="144.987954"><ele>11.25</ele></trkpt>
   <trkpt lat="-37.823312" lon="144.986978"><ele>11</ele></trkpt>
   <trkpt lat="-37.823183" lon="144.986471"><ele>11.25</ele></trkpt>
   <trkpt lat="-37.823071" lon="144.986116"><ele>11.5</ele></trkpt>
   <trkpt lat="-37.822738" lon="144.985162"><ele>10.5</ele></trkpt>
   <trkpt lat="-37.822612" lon="144.984806"><ele>10.25</ele></trkpt>
   <trkpt lat="-37.822464" lon="144.984439"><ele>10.75</ele></trkpt>
   <trkpt lat="-37.822057" lon="144.98351"><ele>13.25</ele></trkpt>
   <trkpt lat="-37.821905" lon="144.983203"><ele>14</ele></trkpt>
   <trkpt lat="-37.821649" lon="144.982748"><ele>13.25</ele></trkpt>
   <trkpt lat="-37.821399" lon="144.982318"><ele>13</ele></trkpt>
   <trkpt lat="-37.821207" lon="144.982015"><ele>12.75</ele></trkpt>
   <trkpt lat="-37.821013" lon="144.981753"><ele>12</ele></trkpt>
   <trkpt lat="-37.820677" lon="144.981346"><ele>10.25</ele></trkpt>
   <trkpt lat="-37.820579" lon="144.981215"><ele>9.5</ele></trkpt>
   <trkpt lat="-37.820442" lon="144.981014"><ele>8.75</ele></trkpt>
   <trkpt lat="-37.82018" lon="144.980577"><ele>7.75</ele></trkpt>
   <trkpt lat="-37.820035" lon="144.980254"><ele>7.25</ele></trkpt>
   <trkpt lat="-37.819848" lon="144.979846"><ele>7</ele></trkpt>
   <trkpt lat="-37.81965" lon="144.97951"><ele>7.5</ele></trkpt>
   <trkpt lat="-37.819468" lon="144.979127"><ele>8.25</ele></trkpt>
   <trkpt lat="-37.819292" lon="144.978827"><ele>8.5</ele></trkpt>
   <trkpt lat="-37.819095" lon="144.978496"><ele>8.75</ele></trkpt>
   <trkpt lat="-37.818885" lon="144.978127"><ele>9.75</ele></trkpt>
   <trkpt lat="-37.818691" lon="144.977774"><ele>9.75</ele></trkpt>
   <trkpt lat="-37.818383" lon="144.977175"><ele>8.5</ele></trkpt>
   <trkpt lat="-37.817706" lon="144.975999"><ele>8.75</ele></trkpt>
   <trkpt lat="-37.81758" lon="144.97575"><ele>10</ele></trkpt>
   <trkpt lat="-37.817455" lon="144.975466"><ele>11.75</ele></trkpt>
   <trkpt lat="-37.817373" lon="144.975256"><ele>12.75</ele></trkpt>
   <trkpt lat="-37.817301" lon="144.975046"><ele>14</ele></trkpt>
   <trkpt lat="-37.81723" lon="144.974812"><ele>14.25</ele></trkpt>
   <trkpt lat="-37.817128" lon="144.974392"><ele>13.5</ele></trkpt>
   <trkpt lat="-37.817053" lon="144.973883"><ele>11.5</ele></trkpt>
   <trkpt lat="-37.817029" lon="144.973653"><ele>10.25</ele></trkpt>
   <trkpt lat="-37.817017" lon="144.973373"><ele>9</ele></trkpt>
   <trkpt lat="-37.817016" lon="144.973112"><ele>10.5</ele></trkpt>
   <trkpt lat="-37.817024" lon="144.972928"><ele>11.75</ele></trkpt>
   <trkpt lat="-37.817067" lon="144.972567"><ele>14.75</ele></trkpt>
   <trkpt lat="-37.817134" lon="144.972167"><ele>14.5</ele></trkpt>
   <trkpt lat="-37.817253" lon="144.971661"><ele>12.25</ele></trkpt>
   <trkpt lat="-37.817309" lon="144.97138"><ele>11.5</ele></trkpt>
   <trkpt lat="-37.817554" lon="144.97048"><ele>12</ele></trkpt>
   <trkpt lat="-37.817696" lon="144.969996"><ele>12.5</ele></trkpt>
   <trkpt lat="-37.817768" lon="144.969761"><ele>12.5</ele></trkpt>
   <trkpt lat="-37.817909" lon="144.969277"><ele>13</ele></trkpt>
   <trkpt lat="-37.818227" lon="144.968392"><ele>13.5</ele></trkpt>
   <trkpt lat="-37.818425" lon="144.967698"><ele>14.25</ele></trkpt>
   <trkpt lat="-37.818615" lon="144.967018"><ele>14.75</ele></trkpt>
   <trkpt lat="-37.818644" lon="144.966897"><ele>14.75</ele></trkpt>
   <trkpt lat="-37.818705" lon="144.966623"><ele>14</ele></trkpt>
  </trkseg>
 </trk>
</gpx>