<?xml version="1.0" encoding="UTF-8"?>
<!-- track-length = 20858 filtered ascend = 28 plain-ascend = -103 cost=20862 energy=0.2kwh time=27m 49s -->
<gpx 
 xmlns="http://www.topografix.com/GPX/1/1" 
 xmlns:xsi="http://www.w3.org/2001/XMLSchema-instance" 
 xsi:schemaLocation="http://www.topografix.com/GPX/1/1 http://www.topografix.com/GPX/1/1/gpx.xsd" 
 version="1.1" 
 creator="BRouter-Web 0.18.1">
 <trk>
  <name>GWY</name>
  <trkseg>
   <trkpt lat="-37.879744" lon="145.163204"><ele>120.25</ele></trkpt>
   <trkpt lat="-37.879495" lon="145.162284"><ele>119</ele></trkpt>
   <trkpt lat="-37.879167" lon="145.16107"><ele>120.5</ele></trkpt>
   <trkpt lat="-37.879045" lon="145.160617"><ele>121.75</ele></trkpt>
   <trkpt lat="-37.878945" lon="145.160236"><ele>122.75</ele></trkpt>
   <trkpt lat="-37.878826" lon="145.159759"><ele>123.5</ele></trkpt>
   <trkpt lat="-37.878746" lon="145.159363"><ele>124</ele></trkpt>
   <trkpt lat="-37.878252" lon="145.157551"><ele>127.25</ele></trkpt>
   <trkpt lat="-37.877682" lon="145.155439"><ele>128.25</ele></trkpt>
   <trkpt lat="-37.876814" lon="145.152265"><ele>118.75</ele></trkpt>
   <trkpt lat="-37.876672" lon="145.151707"><ele>115</ele></trkpt>
   <trkpt lat="-37.876578" lon="145.151302"><ele>113</ele></trkpt>
   <trkpt lat="-37.876491" lon="145.150871"><ele>110.75</ele></trkpt>
   <trkpt lat="-37.876418" lon="145.150377"><ele>108.75</ele></trkpt>
   <trkpt lat="-37.876366" lon="145.149934"><ele>107</ele></trkpt>
   <trkpt lat="-37.876136" lon="145.148101"><ele>104.5</ele></trkpt>
   <trkpt lat="-37.876061" lon="145.147461"><ele>105.25</ele></trkpt>
   <trkpt lat="-37.875992" lon="145.146727"><ele>109</ele></trkpt>
   <trkpt lat="-37.875624" lon="145.143278"><ele>126.25</ele></trkpt>
   <trkpt lat="-37.875409" lon="145.141362"><ele>132</ele></trkpt>
   <trkpt lat="-37.875284" lon="145.140167"><ele>131.25</ele></trkpt>
   <trkpt lat="-37.875245" lon="145.13913"><ele>131.5</ele></trkpt>
   <trkpt lat="-37.875244" lon="145.137994"><ele>131.75</ele></trkpt>
   <trkpt lat="-37.875266" lon="145.133747"><ele>123</ele></trkpt>
   <trkpt lat="-37.875269" lon="145.133175"><ele>122.5</ele></trkpt>
   <trkpt lat="-37.875274" lon="145.132055"><ele>120.5</ele></trkpt>
   <trkpt lat="-37.875297" lon="145.127697"><ele>119.5</ele></trkpt>
   <trkpt lat="-37.875321" lon="145.123216"><ele>108.25</ele></trkpt>
   <trkpt lat="-37.875334" lon="145.122795"><ele>107.25</ele></trkpt>
   <trkpt lat="-37.875336" lon="145.122626"><ele>106.75</ele></trkpt>
   <trkpt lat="-37.875342" lon="145.122393"><ele>106.25</ele></trkpt>
   <trkpt lat="-37.875331" lon="145.122016"><ele>105.5</ele></trkpt>
   <trkpt lat="-37.875251" lon="145.120741"><ele>103.5</ele></trkpt>
   <trkpt lat="-37.87503" lon="145.11817"><ele>106.25</ele></trkpt>
   <trkpt lat="-37.874938" lon="145.116956"><ele>106.5</ele></trkpt>
   <trkpt lat="-37.874831" lon="145.116141"><ele>103.25</ele></trkpt>
   <trkpt lat="-37.874703" lon="145.115459"><ele>99.75</ele></trkpt>
   <trkpt lat="-37.874529" lon="145.114759"><ele>97.5</ele></trkpt>
   <trkpt lat="-37.874271" lon="145.1139"><ele>98.75</ele></trkpt>
   <trkpt lat="-37.874058" lon="145.11329"><ele>99</ele></trkpt>
   <trkpt lat="-37.873728" lon="145.112275"><ele>95.5</ele></trkpt>
   <trkpt lat="-37.873485" lon="145.111532"><ele>92.5</ele></trkpt>
   <trkpt lat="-37.87347" lon="145.111488"><ele>92.5</ele></trkpt>
   <trkpt lat="-37.873361" lon="145.111143"><ele>91.75</ele></trkpt>
   <trkpt lat="-37.873282" lon="145.110865"><ele>90.75</ele></trkpt>
   <trkpt lat="-37.873222" lon="145.110617"><ele>89.5</ele></trkpt>
   <trkpt lat="-37.873146" lon="145.110227"><ele>88</ele></trkpt>
   <trkpt lat="-37.873089" lon="145.109855"><ele>86.75</ele></trkpt>
   <trkpt lat="-37.873061" lon="145.109628"><ele>86.75</ele></trkpt>
   <trkpt lat="-37.873037" lon="145.109363"><ele>86.75</ele></trkpt>
   <trkpt lat="-37.873019" lon="145.109062"><ele>86.75</ele></trkpt>
   <trkpt lat="-37.873014" lon="145.108791"><ele>86.75</ele></trkpt>
   <trkpt lat="-37.873014" lon="145.108562"><ele>87</ele></trkpt>
   <trkpt lat="-37.873027" lon="145.108196"><ele>87</ele></trkpt>
   <trkpt lat="-37.873134" lon="145.106675"><ele>82.25</ele></trkpt>
   <trkpt lat="-37.873636" lon="145.099937"><ele>56.75</ele></trkpt>
   <trkpt lat="-37.873653" lon="145.099722"><ele>56.75</ele></trkpt>
   <trkpt lat="-37.874068" lon="145.094132"><ele>47.75</ele></trkpt>
   <trkpt lat="-37.874141" lon="145.093164"><ele>47.5</ele></trkpt>
   <trkpt lat="-37.874223" lon="145.092082"><ele>44</ele></trkpt>
   <trkpt lat="-37.874237" lon="145.091924"><ele>43.5</ele></trkpt>
   <trkpt lat="-37.874278" lon="145.09159"><ele>42.5</ele></trkpt>
   <trkpt lat="-37.874352" lon="145.091159"><ele>42.5</ele></trkpt>
   <trkpt lat="-37.874401" lon="145.09093"><ele>43</ele></trkpt>
   <trkpt lat="-37.874556" lon="145.090283"><ele>44.75</ele></trkpt>
   <trkpt lat="-37.875052" lon="145.088279"><ele>43.5</ele></trkpt>
   <trkpt lat="-37.875429" lon="145.086753"><ele>45.25</ele></trkpt>
   <trkpt lat="-37.876626" lon="145.081883"><ele>40</ele></trkpt>
   <trkpt lat="-37.876727" lon="145.081415"><ele>39.75</ele></trkpt>
   <trkpt lat="-37.876785" lon="145.081112"><ele>39.25</ele></trkpt>
   <trkpt lat="-37.876885" lon="145.080454"><ele>38</ele></trkpt>
   <trkpt lat="-37.87696" lon="145.079816"><ele>37.25</ele></trkpt>
   <trkpt lat="-37.877049" lon="145.078644"><ele>35.5</ele></trkpt>
   <trkpt lat="-37.877187" lon="145.076903"><ele>35.5</ele></trkpt>
   <trkpt lat="-37.877233" lon="145.07623"><ele>34.5</ele></trkpt>
   <trkpt lat="-37.877278" lon="145.07505"><ele>33.25</ele></trkpt>
   <trkpt lat="-37.877307" lon="145.074522"><ele>33.5</ele></trkpt>
   <trkpt lat="-37.877474" lon="145.072698"><ele>31.75</ele></trkpt>
   <trkpt lat="-37.877506" lon="145.07226"><ele>32.25</ele></trkpt>
   <trkpt lat="-37.87752" lon="145.071904"><ele>32.5</ele></trkpt>
   <trkpt lat="-37.877518" lon="145.071714"><ele>32.75</ele></trkpt>
   <trkpt lat="-37.877497" lon="145.071346"><ele>32.75</ele></trkpt>
   <trkpt lat="-37.877441" lon="145.070937"><ele>32.5</ele></trkpt>
   <trkpt lat="-37.877386" lon="145.070663"><ele>32.5</ele></trkpt>
   <trkpt lat="-37.877328" lon="145.070433"><ele>32.75</ele></trkpt>
   <trkpt lat="-37.877221" lon="145.070088"><ele>32.75</ele></trkpt>
   <trkpt lat="-37.876919" lon="145.069303"><ele>34.25</ele></trkpt>
   <trkpt lat="-37.876779" lon="145.068937"><ele>34.5</ele></trkpt>
   <trkpt lat="-37.876584" lon="145.068508"><ele>34.25</ele></trkpt>
   <trkpt lat="-37.876463" lon="145.068281"><ele>34</ele></trkpt>
   <trkpt lat="-37.876385" lon="145.068149"><ele>33.75</ele></trkpt>
   <trkpt lat="-37.876047" lon="145.067632"><ele>33.25</ele></trkpt>
   <trkpt lat="-37.875706" lon="145.067156"><ele>34.25</ele></trkpt>
   <trkpt lat="-37.875441" lon="145.066835"><ele>35</ele></trkpt>
   <trkpt lat="-37.8753" lon="145.066686"><ele>35</ele></trkpt>
   <trkpt lat="-37.875055" lon="145.066453"><ele>34.75</ele></trkpt>
   <trkpt lat="-37.874878" lon="145.066307"><ele>35</ele></trkpt>
   <trkpt lat="-37.874653" lon="145.066134"><ele>35.25</ele></trkpt>
   <trkpt lat="-37.874313" lon="145.065903"><ele>35.75</ele></trkpt>
   <trkpt lat="-37.873954" lon="145.065704"><ele>36.5</ele></trkpt>
   <trkpt lat="-37.873571" lon="145.065528"><ele>36.75</ele></trkpt>
   <trkpt lat="-37.871655" lon="145.064719"><ele>31.5</ele></trkpt>
   <trkpt lat="-37.871063" lon="145.064439"><ele>32</ele></trkpt>
   <trkpt lat="-37.870497" lon="145.064115"><ele>31</ele></trkpt>
   <trkpt lat="-37.870036" lon="145.063806"><ele>30.5</ele></trkpt>
   <trkpt lat="-37.869742" lon="145.063587"><ele>29.25</ele></trkpt>
   <trkpt lat="-37.869541" lon="145.063426"><ele>29</ele></trkpt>
   <trkpt lat="-37.868993" lon="145.062948"><ele>28.75</ele></trkpt>
   <trkpt lat="-37.868363" lon="145.062397"><ele>29</ele></trkpt>
   <trkpt lat="-37.867862" lon="145.061949"><ele>29.25</ele></trkpt>
   <trkpt lat="-37.867535" lon="145.061664"><ele>30</ele></trkpt>
   <trkpt lat="-37.867244" lon="145.061432"><ele>29.75</ele></trkpt>
   <trkpt lat="-37.866993" lon="145.061256"><ele>29.75</ele></trkpt>
   <trkpt lat="-37.866651" lon="145.061044"><ele>30</ele></trkpt>
   <trkpt lat="-37.866297" lon="145.06086"><ele>29.5</ele></trkpt>
   <trkpt lat="-37.865991" lon="145.060732"><ele>28.5</ele></trkpt>
   <trkpt lat="-37.865515" lon="145.060575"><ele>26.75</ele></trkpt>
   <trkpt lat="-37.863733" lon="145.06003"><ele>24.25</ele></trkpt>
   <trkpt lat="-37.863532" lon="145.059961"><ele>24.25</ele></trkpt>
   <trkpt lat="-37.861349" lon="145.059296"><ele>27.5</ele></trkpt>
   <trkpt lat="-37.860934" lon="145.059151"><ele>27.25</ele></trkpt>
   <trkpt lat="-37.860703" lon="145.059046"><ele>27</ele></trkpt>
   <trkpt lat="-37.860509" lon="145.058947"><ele>27</ele></trkpt>
   <trkpt lat="-37.860173" lon="145.058746"><ele>27.25</ele></trkpt>
   <trkpt lat="-37.860096" lon="145.058696"><ele>27.25</ele></trkpt>
   <trkpt lat="-37.860006" lon="145.058634"><ele>27.5</ele></trkpt>
   <trkpt lat="-37.859926" lon="145.058578"><ele>27.75</ele></trkpt>
   <trkpt lat="-37.859207" lon="145.058043"><ele>30.25</ele></trkpt>
   <trkpt lat="-37.858303" lon="145.057368"><ele>28.25</ele></trkpt>
   <trkpt lat="-37.857476" lon="145.05671"><ele>26.5</ele></trkpt>
   <trkpt lat="-37.856997" lon="145.05634"><ele>27.75</ele></trkpt>
   <trkpt lat="-37.855918" lon="145.055531"><ele>29.5</ele></trkpt>
   <trkpt lat="-37.855598" lon="145.055302"><ele>29.5</ele></trkpt>
   <trkpt lat="-37.855173" lon="145.054957"><ele>28.75</ele></trkpt>
   <trkpt lat="-37.854891" lon="145.054686"><ele>27.75</ele></trkpt>
   <trkpt lat="-37.854683" lon="145.054468"><ele>26.75</ele></trkpt>
   <trkpt lat="-37.854426" lon="145.054162"><ele>25.75</ele></trkpt>
   <trkpt lat="-37.854201" lon="145.053865"><ele>24.5</ele></trkpt>
   <trkpt lat="-37.854027" lon="145.053613"><ele>23.75</ele></trkpt>
   <trkpt lat="-37.853867" lon="145.053357"><ele>23.5</ele></trkpt>
   <trkpt lat="-37.853726" lon="145.053114"><ele>23.75</ele></trkpt>
   <trkpt lat="-37.853573" lon="145.052818"><ele>24</ele></trkpt>
   <trkpt lat="-37.853381" lon="145.052398"><ele>24.5</ele></trkpt>
   <trkpt lat="-37.853279" lon="145.052138"><ele>24.75</ele></trkpt>
   <trkpt lat="-37.85318" lon="145.051849"><ele>25.25</ele></trkpt>
   <trkpt lat="-37.853098" lon="145.051576"><ele>25.25</ele></trkpt>
   <trkpt lat="-37.852937" lon="145.051107"><ele>24.75</ele></trkpt>
   <trkpt lat="-37.852714" lon="145.050459"><ele>24.25</ele></trkpt>
   <trkpt lat="-37.852164" lon="145.048771"><ele>23.25</ele></trkpt>
   <trkpt lat="-37.851971" lon="145.048051"><ele>22.5</ele></trkpt>
   <trkpt lat="-37.85195" lon="145.047956"><ele>22.5</ele></trkpt>
   <trkpt lat="-37.851882" lon="145.047658"><ele>22.75</ele></trkpt>
   <trkpt lat="-37.851502" lon="145.046327"><ele>23.25</ele></trkpt>
   <trkpt lat="-37.850975" lon="145.044765"><ele>20.75</ele></trkpt>
   <trkpt lat="-37.850743" lon="145.044109"><ele>18.5</ele></trkpt>
   <trkpt lat="-37.850521" lon="145.043599"><ele>17</ele></trkpt>
   <trkpt lat="-37.850286" lon="145.043139"><ele>17</ele></trkpt>
   <trkpt lat="-37.850177" lon="145.042939"><ele>17.75</ele></trkpt>
   <trkpt lat="-37.850099" lon="145.042788"><ele>18.5</ele></trkpt>
   <trkpt lat="-37.850008" lon="145.042636"><ele>19</ele></trkpt>
   <trkpt lat="-37.849831" lon="145.042351"><ele>18.75</ele></trkpt>
   <trkpt lat="-37.849549" lon="145.041947"><ele>17.25</ele></trkpt>
   <trkpt lat="-37.849261" lon="145.041583"><ele>16.75</ele></trkpt>
   <trkpt lat="-37.848941" lon="145.041225"><ele>18</ele></trkpt>
   <trkpt lat="-37.848658" lon="145.040938"><ele>19.75</ele></trkpt>
   <trkpt lat="-37.848554" lon="145.040844"><ele>20.5</ele></trkpt>
   <trkpt lat="-37.848341" lon="145.040649"><ele>20.75</ele></trkpt>
   <trkpt lat="-37.848004" lon="145.040381"><ele>20</ele></trkpt>
   <trkpt lat="-37.847656" lon="145.040129"><ele>19.25</ele></trkpt>
   <trkpt lat="-37.847188" lon="145.039883"><ele>19.25</ele></trkpt>
   <trkpt lat="-37.84598" lon="145.039343"><ele>19.25</ele></trkpt>
   <trkpt lat="-37.844039" lon="145.038334"><ele>18.5</ele></trkpt>
   <trkpt lat="-37.843683" lon="145.03815"><ele>19</ele></trkpt>
   <trkpt lat="-37.84305" lon="145.037775"><ele>20.75</ele></trkpt>
   <trkpt lat="-37.84274" lon="145.037564"><ele>21.25</ele></trkpt>
   <trkpt lat="-37.842285" lon="145.037234"><ele>20.75</ele></trkpt>
   <trkpt lat="-37.841745" lon="145.036774"><ele>19.75</ele></trkpt>
   <trkpt lat="-37.841401" lon="145.036414"><ele>19</ele></trkpt>
   <trkpt lat="-37.84099" lon="145.035887"><ele>17.75</ele></trkpt>
   <trkpt lat="-37.840769" lon="145.03555"><ele>18.75</ele></trkpt>
   <trkpt lat="-37.840561" lon="145.035196"><ele>19.75</ele></trkpt>
   <trkpt lat="-37.840392" lon="145.034855"><ele>20.25</ele></trkpt>
   <trkpt lat="-37.840243" lon="145.034518"><ele>20.25</ele></trkpt>
   <trkpt lat="-37.840146" lon="145.034276"><ele>20.5</ele></trkpt>
   <trkpt lat="-37.840054" lon="145.034022"><ele>20.25</ele></trkpt>
   <trkpt lat="-37.83994" lon="145.033665"><ele>19.5</ele></trkpt>
   <trkpt lat="-37.839906" lon="145.03355"><ele>19.5</ele></trkpt>
   <trkpt lat="-37.839844" lon="145.033295"><ele>19.25</ele></trkpt>
   <trkpt lat="-37.839772" lon="145.032923"><ele>19.5</ele></trkpt>
   <trkpt lat="-37.839727" lon="145.032655"><ele>19.5</ele></trkpt>
   <trkpt lat="-37.839691" lon="145.032387"><ele>19.25</ele></trkpt>
   <trkpt lat="-37.839681" lon="145.032298"><ele>19</ele></trkpt>
   <trkpt lat="-37.839679" lon="145.032279"><ele>19</ele></trkpt>
   <trkpt lat="-37.839676" lon="145.03226"><ele>19</ele></trkpt>
   <trkpt lat="-37.839643" lon="145.032266"><ele>18.75</ele></trkpt>
   <trkpt lat="-37.839633" lon="145.032167"><ele>18.5</ele></trkpt>
   <trkpt lat="-37.839603" lon="145.031874"><ele>18.25</ele></trkpt>
   <trkpt lat="-37.839569" lon="145.031544"><ele>17.5</ele></trkpt>
   <trkpt lat="-37.83927" lon="145.028613"><ele>14.5</ele></trkpt>
   <trkpt lat="-37.839227" lon="145.028299"><ele>14</ele></trkpt>
   <trkpt lat="-37.839148" lon="145.027918"><ele>14.25</ele></trkpt>
   <trkpt lat="-37.839108" lon="145.027762"><ele>14.25</ele></trkpt>
   <trkpt lat="-37.839067" lon="145.027623"><ele>14.5</ele></trkpt>
   <trkpt lat="-37.838988" lon="145.027381"><ele>15</ele></trkpt>
   <trkpt lat="-37.838917" lon="145.027195"><ele>15.5</ele></trkpt>
   <trkpt lat="-37.838834" lon="145.027"><ele>16</ele></trkpt>
   <trkpt lat="-37.838692" lon="145.026704"><ele>17.25</ele></trkpt>
   <trkpt lat="-37.838509" lon="145.026392"><ele>17.5</ele></trkpt>
   <trkpt lat="-37.838282" lon="145.026073"><ele>17.5</ele></trkpt>
   <trkpt lat="-37.838138" lon="145.025893"><ele>17.5</ele></trkpt>
   <trkpt lat="-37.83801" lon="145.02575"><ele>18.25</ele></trkpt>
   <trkpt lat="-37.837906" lon="145.025641"><ele>19</ele></trkpt>
   <trkpt lat="-37.837593" lon="145.025368"><ele>21</ele></trkpt>
   <trkpt lat="-37.837255" lon="145.02514"><ele>21.75</ele></trkpt>
   <trkpt lat="-37.836564" lon="145.024753"><ele>23</ele></trkpt>
   <trkpt lat="-37.836392" lon="145.024628"><ele>23.25</ele></trkpt>
   <trkpt lat="-37.836144" lon="145.024423"><ele>23.75</ele></trkpt>
   <trkpt lat="-37.836026" lon="145.024312"><ele>24.5</ele></trkpt>
   <trkpt lat="-37.835872" lon="145.024153"><ele>25.25</ele></trkpt>
   <trkpt lat="-37.83552" lon="145.023731"><ele>27</ele></trkpt>
   <trkpt lat="-37.835271" lon="145.023417"><ele>27.25</ele></trkpt>
   <trkpt lat="-37.835021" lon="145.023117"><ele>26.5</ele></trkpt>
   <trkpt lat="-37.834859" lon="145.022942"><ele>24.75</ele></trkpt>
   <trkpt lat="-37.834663" lon="145.022744"><ele>22.5</ele></trkpt>
   <trkpt lat="-37.834319" lon="145.022444"><ele>19.5</ele></trkpt>
   <trkpt lat="-37.834189" lon="145.022342"><ele>19.25</ele></trkpt>
   <trkpt lat="-37.833997" lon="145.022198"><ele>20.25</ele></trkpt>
   <trkpt lat="-37.833726" lon="145.022013"><ele>21.75</ele></trkpt>
   <trkpt lat="-37.833561" lon="145.021902"><ele>22.25</ele></trkpt>
   <trkpt lat="-37.833212" lon="145.021691"><ele>21.75</ele></trkpt>
   <trkpt lat="-37.832849" lon="145.021518"><ele>16.25</ele></trkpt>
   <trkpt lat="-37.832657" lon="145.021442"><ele>13.25</ele></trkpt>
   <trkpt lat="-37.830307" lon="145.020526"><ele>13</ele></trkpt>
   <trkpt lat="-37.829887" lon="145.020352"><ele>15.5</ele></trkpt>
   <trkpt lat="-37.829675" lon="145.020244"><ele>16.5</ele></trkpt>
   <trkpt lat="-37.829504" lon="145.02014"><ele>17.25</ele></trkpt>
   <trkpt lat="-37.829329" lon="145.020018"><ele>18</ele></trkpt>
   <trkpt lat="-37.829173" lon="145.019893"><ele>19</ele></trkpt>
   <trkpt lat="-37.829014" lon="145.019747"><ele>19</ele></trkpt>
   <trkpt lat="-37.828835" lon="145.019558"><ele>19.25</ele></trkpt>
   <trkpt lat="-37.828676" lon="145.019371"><ele>19.25</ele></trkpt>
   <trkpt lat="-37.828546" lon="145.019204"><ele>19.25</ele></trkpt>
   <trkpt lat="-37.828403" lon="145.018998"><ele>19</ele></trkpt>
   <trkpt lat="-37.828276" lon="145.0188"><ele>19</ele></trkpt>
   <trkpt lat="-37.828195" lon="145.018656"><ele>18.75</ele></trkpt>
   <trkpt lat="-37.828121" lon="145.018508"><ele>18.75</ele></trkpt>
   <trkpt lat="-37.828017" lon="145.018263"><ele>18.5</ele></trkpt>
   <trkpt lat="-37.827937" lon="145.01804"><ele>18.75</ele></trkpt>
   <trkpt lat="-37.827852" lon="145.017739"><ele>18.75</ele></trkpt>
   <trkpt lat="-37.827758" lon="145.017249"><ele>18.5</ele></trkpt>
   <trkpt lat="-37.827745" lon="145.017143"><ele>18.5</ele></trkpt>
   <trkpt lat="-37.827736" lon="145.01707"><ele>18.75</ele></trkpt>
   <trkpt lat="-37.827714" lon="145.016904"><ele>18.75</ele></trkpt>
   <trkpt lat="-37.82769" lon="145.016677"><ele>19.25</ele></trkpt>
   <trkpt lat="-37.827674" lon="145.016393"><ele>18.75</ele></trkpt>
   <trkpt lat="-37.827669" lon="145.016159"><ele>18.5</ele></trkpt>
   <trkpt lat="-37.827625" lon="145.014217"><ele>19</ele></trkpt>
   <trkpt lat="-37.827626" lon="145.013787"><ele>18.75</ele></trkpt>
   <trkpt lat="-37.827626" lon="145.013307"><ele>18.75</ele></trkpt>
   <trkpt lat="-37.827639" lon="145.013118"><ele>18.75</ele></trkpt>
   <trkpt lat="-37.827693" lon="145.012586"><ele>18.75</ele></trkpt>
   <trkpt lat="-37.827768" lon="145.011803"><ele>18.75</ele></trkpt>
   <trkpt lat="-37.827804" lon="145.011098"><ele>18.25</ele></trkpt>
   <trkpt lat="-37.827801" lon="145.01079"><ele>18</ele></trkpt>
   <trkpt lat="-37.827792" lon="145.010523"><ele>18</ele></trkpt>
   <trkpt lat="-37.827779" lon="145.010342"><ele>17.75</ele></trkpt>
   <trkpt lat="-37.827751" lon="145.009874"><ele>17.5</ele></trkpt>
   <trkpt lat="-37.827667" lon="145.00956"><ele>17</ele></trkpt>
   <trkpt lat="-37.827606" lon="145.009264"><ele>17</ele></trkpt>
   <trkpt lat="-37.827494" lon="145.00814"><ele>18.75</ele></trkpt>
   <trkpt lat="-37.827381" lon="145.006781"><ele>17.25</ele></trkpt>
   <trkpt lat="-37.827362" lon="145.006407"><ele>17</ele></trkpt>
   <trkpt lat="-37.8273" lon="145.005557"><ele>16.25</ele></trkpt>
   <trkpt lat="-37.827241" lon="145.004806"><ele>15</ele></trkpt>
   <trkpt lat="-37.827192" lon="145.004328"><ele>14.75</ele></trkpt>
   <trkpt lat="-37.826726" lon="145.000117"><ele>19</ele></trkpt>
   <trkpt lat="-37.826675" lon="144.999677"><ele>18.5</ele></trkpt>
   <trkpt lat="-37.826357" lon="144.996778"><ele>15.5</ele></trkpt>
   <trkpt lat="-37.826228" lon="144.995646"><ele>14.75</ele></trkpt>
   <trkpt lat="-37.826132" lon="144.994797"><ele>14.75</ele></trkpt>
   <trkpt lat="-37.826077" lon="144.994423"><ele>14.75</ele></trkpt>
   <trkpt lat="-37.825981" lon="144.994034"><ele>14.75</ele></trkpt>
   <trkpt lat="-37.825912" lon="144.993834"><ele>14.75</ele></trkpt>
   <trkpt lat="-37.825831" lon="144.993637"><ele>15</ele></trkpt>
   <trkpt lat="-37.825722" lon="144.993407"><ele>15</ele></trkpt>
   <trkpt lat="-37.825619" lon="144.99324"><ele>14.5</ele></trkpt>
   <trkpt lat="-37.825417" lon="144.992951"><ele>13.75</ele></trkpt>
   <trkpt lat="-37.825203" lon="144.992671"><ele>12.75</ele></trkpt>
   <trkpt lat="-37.824956" lon="144.992358"><ele>11.5</ele></trkpt>
   <trkpt lat="-37.824598" lon="144.991902"><ele>11.5</ele></trkpt>
   <trkpt lat="-37.824327" lon="144.991533"><ele>12.25</ele></trkpt>
   <trkpt lat="-37.824175" lon="144.99128"><ele>12.75</ele></trkpt>
   <trkpt lat="-37.824067" lon="144.991067"><ele>13</ele></trkpt>
   <trkpt lat="-37.823955" lon="144.990803"><ele>13.25</ele></trkpt>
   <trkpt lat="-37.823886" lon="144.990607"><ele>12.75</ele></trkpt>
   <trkpt lat="-37.823787" lon="144.990252"><ele>12.25</ele></trkpt>
   <trkpt lat="-37.823779" lon="144.990222"><ele>12.25</ele></trkpt>
   <trkpt lat="-37.82377" lon="144.990193"><ele>12.25</ele></trkpt>
   <trkpt lat="-37.823487" lon="144.98918"><ele>11.25</ele></trkpt>
   <trkpt lat="-37.823381" lon="144.988797"><ele>10.75</ele></trkpt>
   <trkpt lat="-37.823303" lon="144.988514"><ele>11</ele></trkpt>
   <trkpt lat="-37.823182" lon="144.988087"><ele>11</ele></trkpt>
   <trkpt lat="-37.823071" lon="144.987589"><ele>11.5</ele></trkpt>
   <trkpt lat="-37.82269" lon="144.985954"><ele>13.25</ele></trkpt>
   <trkpt lat="-37.822571" lon="144.985498"><ele>13.75</ele></trkpt>
   <trkpt lat="-37.822453" lon="144.985163"><ele>14</ele></trkpt>
   <trkpt lat="-37.822244" lon="144.984657"><ele>14.75</ele></trkpt>
   <trkpt lat="-37.822007" lon="144.984115"><ele>15.25</ele></trkpt>
   <trkpt lat="-37.821872" lon="144.983837"><ele>15.75</ele></trkpt>
   <trkpt lat="-37.821496" lon="144.983126"><ele>15.75</ele></trkpt>
   <trkpt lat="-37.821113" lon="144.982478"><ele>15.75</ele></trkpt>
   <trkpt lat="-37.820985" lon="144.98219"><ele>14.75</ele></trkpt>
   <trkpt lat="-37.818417" lon="144.977815"><ele>11.25</ele></trkpt>
   <trkpt lat="-37.818219" lon="144.977455"><ele>10.25</ele></trkpt>
   <trkpt lat="-37.818046" lon="144.977167"><ele>9.5</ele></trkpt>
   <trkpt lat="-37.817355" lon="144.976007"><ele>8.25</ele></trkpt>
   <trkpt lat="-37.817169" lon="144.975662"><ele>8.75</ele></trkpt>
   <trkpt lat="-37.817081" lon="144.975472"><ele>10</ele></trkpt>
   <trkpt lat="-37.816939" lon="144.975111"><ele>12.5</ele></trkpt>
   <trkpt lat="-37.816836" lon="144.974787"><ele>12.5</ele></trkpt>
   <trkpt lat="-37.816761" lon="144.974515"><ele>11.25</ele></trkpt>
   <trkpt lat="-37.816673" lon="144.974047"><ele>8.5</ele></trkpt>
   <trkpt lat="-37.816637" lon="144.973743"><ele>8</ele></trkpt>
   <trkpt lat="-37.816618" lon="144.973484"><ele>7.5</ele></trkpt>
   <trkpt lat="-37.816611" lon="144.973253"><ele>7.75</ele></trkpt>
   <trkpt lat="-37.816619" lon="144.972865"><ele>10.25</ele></trkpt>
   <trkpt lat="-37.81663" lon="144.972701"><ele>11.25</ele></trkpt>
   <trkpt lat="-37.816653" lon="144.972489"><ele>12.25</ele></trkpt>
   <trkpt lat="-37.816697" lon="144.972183"><ele>12.5</ele></trkpt>
   <trkpt lat="-37.816775" lon="144.971801"><ele>12.75</ele></trkpt>
   <trkpt lat="-37.81692" lon="144.971272"><ele>13.25</ele></trkpt>
   <trkpt lat="-37.817079" lon="144.970758"><ele>13.25</ele></trkpt>
   <trkpt lat="-37.81718" lon="144.970321"><ele>13.5</ele></trkpt>
   <trkpt lat="-37.817345" lon="144.969693"><ele>14</ele></trkpt>
   <trkpt lat="-37.817398" lon="144.96952"><ele>14.25</ele></trkpt>
   <trkpt lat="-37.817463" lon="144.969259"><ele>14.5</ele></trkpt>
   <trkpt lat="-37.817599" lon="144.968708"><ele>15</ele></trkpt>
   <trkpt lat="-37.817766" lon="144.968141"><ele>15.5</ele></trkpt>
   <trkpt lat="-37.817954" lon="144.967486"><ele>16</ele></trkpt>
   <trkpt lat="-37.818121" lon="144.966903"><ele>16.75</ele></trkpt>
   <trkpt lat="-37.818206" lon="144.966585"><ele>16.75</ele></trkpt>
   <trkpt lat="-37.818273" lon="144.966349"><ele>16</ele></trkpt>
  </trkseg>
 </trk>
</gpx>