<?xml version="1.0" encoding="UTF-8"?>
<!-- track-length = 42831 filtered ascend = 260 plain-ascend = 93 cost=42831 energy=0.5kwh time=57m 7s -->
<gpx 
 xmlns="http://www.topografix.com/GPX/1/1" 
 xmlns:xsi="http://www.w3.org/2001/XMLSchema-instance" 
 xsi:schemaLocation="http://www.topografix.com/GPX/1/1 http://www.topografix.com/GPX/1/1/gpx.xsd" 
 version="1.1" 
 creator="BRouter-Web 0.18.1">
 <trk>
  <name>LIL</name>
  <trkseg>
   <trkpt lat="-37.81778" lon="144.976952"><ele>8.75</ele></trkpt>
   <trkpt lat="-37.81747" lon="144.976508"><ele>7.25</ele></trkpt>
   <trkpt lat="-37.81729" lon="144.976232"><ele>7.25</ele></trkpt>
   <trkpt lat="-37.817138" lon="144.975971"><ele>7</ele></trkpt>
   <trkpt lat="-37.816993" lon="144.975676"><ele>7.75</ele></trkpt>
   <trkpt lat="-37.816875" lon="144.975393"><ele>9.5</ele></trkpt>
   <trkpt lat="-37.816777" lon="144.975118"><ele>12</ele></trkpt>
   <trkpt lat="-37.816707" lon="144.974877"><ele>12.5</ele></trkpt>
   <trkpt lat="-37.816626" lon="144.974564"><ele>11.25</ele></trkpt>
   <trkpt lat="-37.816567" lon="144.974244"><ele>11</ele></trkpt>
   <trkpt lat="-37.816528" lon="144.973954"><ele>11</ele></trkpt>
   <trkpt lat="-37.816506" lon="144.973699"><ele>10.5</ele></trkpt>
   <trkpt lat="-37.816494" lon="144.973419"><ele>10</ele></trkpt>
   <trkpt lat="-37.816498" lon="144.973092"><ele>11.5</ele></trkpt>
   <trkpt lat="-37.816506" lon="144.972956"><ele>12.25</ele></trkpt>
   <trkpt lat="-37.816536" lon="144.972616"><ele>14.25</ele></trkpt>
   <trkpt lat="-37.816599" lon="144.972195"><ele>14</ele></trkpt>
   <trkpt lat="-37.816701" lon="144.971756"><ele>12.75</ele></trkpt>
   <trkpt lat="-37.816848" lon="144.971239"><ele>13.5</ele></trkpt>
   <trkpt lat="-37.816949" lon="144.970929"><ele>13.5</ele></trkpt>
   <trkpt lat="-37.817068" lon="144.970509"><ele>15.75</ele></trkpt>
   <trkpt lat="-37.817129" lon="144.970301"><ele>15.75</ele></trkpt>
   <trkpt lat="-37.817599" lon="144.968708"><ele>16.25</ele></trkpt>
   <trkpt lat="-37.817766" lon="144.968141"><ele>16.25</ele></trkpt>
   <trkpt lat="-37.817954" lon="144.967486"><ele>16.5</ele></trkpt>
   <trkpt lat="-37.818121" lon="144.966903"><ele>16.75</ele></trkpt>
   <trkpt lat="-37.818206" lon="144.966585"><ele>16.75</ele></trkpt>
   <trkpt lat="-37.818346" lon="144.966092"><ele>16</ele></trkpt>
   <trkpt lat="-37.818426" lon="144.96581"><ele>16</ele></trkpt>
   <trkpt lat="-37.818713" lon="144.964848"><ele>13.75</ele></trkpt>
   <trkpt lat="-37.819013" lon="144.963832"><ele>12.75</ele></trkpt>
   <trkpt lat="-37.819133" lon="144.963417"><ele>11.25</ele></trkpt>
   <trkpt lat="-37.819263" lon="144.962977"><ele>13.25</ele></trkpt>
   <trkpt lat="-37.819322" lon="144.9627"><ele>14.5</ele></trkpt>
   <trkpt lat="-37.819371" lon="144.96247"><ele>15.25</ele></trkpt>
   <trkpt lat="-37.819433" lon="144.962102"><ele>15.5</ele></trkpt>
   <trkpt lat="-37.819448" lon="144.961961"><ele>15.75</ele></trkpt>
   <trkpt lat="-37.819456" lon="144.96165"><ele>15.75</ele></trkpt>
   <trkpt lat="-37.819463" lon="144.961496"><ele>15.75</ele></trkpt>
   <trkpt lat="-37.819485" lon="144.961229"><ele>15.75</ele></trkpt>
   <trkpt lat="-37.819506" lon="144.96106"><ele>15.75</ele></trkpt>
   <trkpt lat="-37.819548" lon="144.960783"><ele>15.75</ele></trkpt>
   <trkpt lat="-37.819576" lon="144.960646"><ele>16</ele></trkpt>
   <trkpt lat="-37.819629" lon="144.960425"><ele>16</ele></trkpt>
   <trkpt lat="-37.819724" lon="144.960083"><ele>16</ele></trkpt>
   <trkpt lat="-37.819983" lon="144.959217"><ele>16.25</ele></trkpt>
   <trkpt lat="-37.82006" lon="144.958983"><ele>16.25</ele></trkpt>
   <trkpt lat="-37.820271" lon="144.958475"><ele>16.5</ele></trkpt>
   <trkpt lat="-37.820432" lon="144.958185"><ele>16.5</ele></trkpt>
   <trkpt lat="-37.820598" lon="144.957914"><ele>16.5</ele></trkpt>
   <trkpt lat="-37.820869" lon="144.957492"><ele>16.75</ele></trkpt>
   <trkpt lat="-37.821012" lon="144.957233"><ele>16.75</ele></trkpt>
   <trkpt lat="-37.821117" lon="144.956967"><ele>16.75</ele></trkpt>
   <trkpt lat="-37.821202" lon="144.956686"><ele>16.75</ele></trkpt>
   <trkpt lat="-37.82126" lon="144.956405"><ele>17</ele></trkpt>
   <trkpt lat="-37.821293" lon="144.956102"><ele>17</ele></trkpt>
   <trkpt lat="-37.821303" lon="144.955792"><ele>17</ele></trkpt>
   <trkpt lat="-37.821279" lon="144.955487"><ele>17</ele></trkpt>
   <trkpt lat="-37.821231" lon="144.955207"><ele>17.25</ele></trkpt>
   <trkpt lat="-37.821166" lon="144.954953"><ele>17.25</ele></trkpt>
   <trkpt lat="-37.821064" lon="144.954667"><ele>17.25</ele></trkpt>
   <trkpt lat="-37.820916" lon="144.954354"><ele>17.25</ele></trkpt>
   <trkpt lat="-37.820844" lon="144.954238"><ele>17.5</ele></trkpt>
   <trkpt lat="-37.820708" lon="144.954024"><ele>17.5</ele></trkpt>
   <trkpt lat="-37.820549" lon="144.953816"><ele>15.75</ele></trkpt>
   <trkpt lat="-37.820455" lon="144.953705"><ele>14.75</ele></trkpt>
   <trkpt lat="-37.820294" lon="144.953536"><ele>13.5</ele></trkpt>
   <trkpt lat="-37.820121" lon="144.953319"><ele>12.25</ele></trkpt>
   <trkpt lat="-37.819911" lon="144.953106"><ele>11.75</ele></trkpt>
   <trkpt lat="-37.81986" lon="144.953078"><ele>11.75</ele></trkpt>
   <trkpt lat="-37.819667" lon="144.952943"><ele>10.75</ele></trkpt>
   <trkpt lat="-37.819155" lon="144.952586"><ele>7</ele></trkpt>
   <trkpt lat="-37.81833" lon="144.951933"><ele>12.5</ele></trkpt>
   <trkpt lat="-37.818018" lon="144.951686"><ele>12</ele></trkpt>
   <trkpt lat="-37.817704" lon="144.951478"><ele>12</ele></trkpt>
   <trkpt lat="-37.817533" lon="144.951339"><ele>12.25</ele></trkpt>
   <trkpt lat="-37.817263" lon="144.951106"><ele>11.5</ele></trkpt>
   <trkpt lat="-37.816963" lon="144.950871"><ele>10.75</ele></trkpt>
   <trkpt lat="-37.816514" lon="144.950502"><ele>10.25</ele></trkpt>
   <trkpt lat="-37.816272" lon="144.950314"/>
   <trkpt lat="-37.816045" lon="144.950169"/>
   <trkpt lat="-37.81571" lon="144.950016"/>
   <trkpt lat="-37.81552" lon="144.949964"/>
   <trkpt lat="-37.815354" lon="144.949936"/>
   <trkpt lat="-37.815136" lon="144.949922"/>
   <trkpt lat="-37.814931" lon="144.949929"/>
   <trkpt lat="-37.814731" lon="144.949965"/>
   <trkpt lat="-37.814501" lon="144.950031"/>
   <trkpt lat="-37.814307" lon="144.950116"/>
   <trkpt lat="-37.814118" lon="144.950221"/>
   <trkpt lat="-37.813956" lon="144.950333"/>
   <trkpt lat="-37.813777" lon="144.950482"/>
   <trkpt lat="-37.81363" lon="144.950633"/>
   <trkpt lat="-37.813473" lon="144.950827"/>
   <trkpt lat="-37.813332" lon="144.951045"/>
   <trkpt lat="-37.813202" lon="144.951281"/>
   <trkpt lat="-37.813108" lon="144.951498"/>
   <trkpt lat="-37.812982" lon="144.951815"/>
   <trkpt lat="-37.812835" lon="144.952238"/>
   <trkpt lat="-37.812781" lon="144.952393"/>
   <trkpt lat="-37.812725" lon="144.952574"/>
   <trkpt lat="-37.812265" lon="144.954206"/>
   <trkpt lat="-37.811759" lon="144.955972"/>
   <trkpt lat="-37.810171" lon="144.961539"/>
   <trkpt lat="-37.809914" lon="144.96246"/>
   <trkpt lat="-37.808237" lon="144.968184"/>
   <trkpt lat="-37.808133" lon="144.968603"/>
   <trkpt lat="-37.80809" lon="144.968883"/>
   <trkpt lat="-37.808067" lon="144.969105"/>
   <trkpt lat="-37.808056" lon="144.969388"/>
   <trkpt lat="-37.808063" lon="144.969631"/>
   <trkpt lat="-37.808091" lon="144.969913"/>
   <trkpt lat="-37.808099" lon="144.969958"/>
   <trkpt lat="-37.808129" lon="144.970158"/>
   <trkpt lat="-37.80819" lon="144.97044"/>
   <trkpt lat="-37.808262" lon="144.970685"/>
   <trkpt lat="-37.808362" lon="144.97094"/>
   <trkpt lat="-37.808486" lon="144.971216"/>
   <trkpt lat="-37.808653" lon="144.971508"/>
   <trkpt lat="-37.808797" lon="144.971702"/>
   <trkpt lat="-37.808982" lon="144.971927"/>
   <trkpt lat="-37.809199" lon="144.972141"/>
   <trkpt lat="-37.809429" lon="144.972324"/>
   <trkpt lat="-37.809724" lon="144.972496"/>
   <trkpt lat="-37.810227" lon="144.972767"/>
   <trkpt lat="-37.810968" lon="144.973113"/>
   <trkpt lat="-37.811564" lon="144.973391"/>
   <trkpt lat="-37.811976" lon="144.973568"/>
   <trkpt lat="-37.812746" lon="144.973934"/>
   <trkpt lat="-37.816052" lon="144.97552"/>
   <trkpt lat="-37.81615" lon="144.975574"><ele>9</ele></trkpt>
   <trkpt lat="-37.816288" lon="144.975651"><ele>9</ele></trkpt>
   <trkpt lat="-37.816535" lon="144.975811"><ele>9</ele></trkpt>
   <trkpt lat="-37.816744" lon="144.975964"><ele>9</ele></trkpt>
   <trkpt lat="-37.816991" lon="144.976166"><ele>9</ele></trkpt>
   <trkpt lat="-37.817261" lon="144.976426"><ele>9</ele></trkpt>
   <trkpt lat="-37.817486" lon="144.976681"><ele>9</ele></trkpt>
   <trkpt lat="-37.817691" lon="144.976944"><ele>9</ele></trkpt>
   <trkpt lat="-37.817956" lon="144.977324"><ele>10.75</ele></trkpt>
   <trkpt lat="-37.818083" lon="144.977526"><ele>11.25</ele></trkpt>
   <trkpt lat="-37.819071" lon="144.979202"><ele>10.5</ele></trkpt>
   <trkpt lat="-37.819385" lon="144.979817"><ele>8.5</ele></trkpt>
   <trkpt lat="-37.819908" lon="144.980708"><ele>8.25</ele></trkpt>
   <trkpt lat="-37.82022" lon="144.981227"><ele>9.5</ele></trkpt>
   <trkpt lat="-37.820527" lon="144.981694"><ele>11.75</ele></trkpt>
   <trkpt lat="-37.821102" lon="144.982626"><ele>16.25</ele></trkpt>
   <trkpt lat="-37.821338" lon="144.983047"><ele>16.25</ele></trkpt>
   <trkpt lat="-37.821631" lon="144.983597"><ele>15.5</ele></trkpt>
   <trkpt lat="-37.821815" lon="144.983974"><ele>13.75</ele></trkpt>
   <trkpt lat="-37.822039" lon="144.984461"><ele>11.75</ele></trkpt>
   <trkpt lat="-37.822542" lon="144.98563"><ele>10.75</ele></trkpt>
   <trkpt lat="-37.82285" lon="144.986401"><ele>11.75</ele></trkpt>
   <trkpt lat="-37.82296" lon="144.986735"><ele>11.75</ele></trkpt>
   <trkpt lat="-37.823266" lon="144.988052"><ele>11</ele></trkpt>
   <trkpt lat="-37.823305" lon="144.988169"><ele>11</ele></trkpt>
   <trkpt lat="-37.823388" lon="144.988479"><ele>11.25</ele></trkpt>
   <trkpt lat="-37.823472" lon="144.988786"><ele>11.25</ele></trkpt>
   <trkpt lat="-37.823576" lon="144.98917"><ele>11.5</ele></trkpt>
   <trkpt lat="-37.823846" lon="144.990161"><ele>11.75</ele></trkpt>
   <trkpt lat="-37.823855" lon="144.990196"><ele>11.75</ele></trkpt>
   <trkpt lat="-37.823861" lon="144.990218"><ele>12</ele></trkpt>
   <trkpt lat="-37.82391" lon="144.990395"><ele>12</ele></trkpt>
   <trkpt lat="-37.823993" lon="144.990658"><ele>12.75</ele></trkpt>
   <trkpt lat="-37.824086" lon="144.990901"><ele>13</ele></trkpt>
   <trkpt lat="-37.824227" lon="144.99122"><ele>12.75</ele></trkpt>
   <trkpt lat="-37.824359" lon="144.991463"><ele>12.25</ele></trkpt>
   <trkpt lat="-37.824492" lon="144.991685"><ele>11.75</ele></trkpt>
   <trkpt lat="-37.824656" lon="144.99192"><ele>11.5</ele></trkpt>
   <trkpt lat="-37.824947" lon="144.992286"><ele>11.5</ele></trkpt>
   <trkpt lat="-37.825195" lon="144.992603"><ele>12.5</ele></trkpt>
   <trkpt lat="-37.825425" lon="144.992902"><ele>13.5</ele></trkpt>
   <trkpt lat="-37.825647" lon="144.993212"><ele>14.5</ele></trkpt>
   <trkpt lat="-37.825785" lon="144.993458"><ele>15</ele></trkpt>
   <trkpt lat="-37.825918" lon="144.993745"><ele>14.75</ele></trkpt>
   <trkpt lat="-37.826011" lon="144.994019"><ele>14.75</ele></trkpt>
   <trkpt lat="-37.826066" lon="144.994219"><ele>14.5</ele></trkpt>
   <trkpt lat="-37.826125" lon="144.994475"><ele>14.75</ele></trkpt>
   <trkpt lat="-37.826165" lon="144.994722"><ele>14.5</ele></trkpt>
   <trkpt lat="-37.826199" lon="144.995071"><ele>14.5</ele></trkpt>
   <trkpt lat="-37.826569" lon="144.998395"><ele>18</ele></trkpt>
   <trkpt lat="-37.826647" lon="144.999096"><ele>18</ele></trkpt>
   <trkpt lat="-37.82697" lon="145.002023"><ele>17.75</ele></trkpt>
   <trkpt lat="-37.827235" lon="145.004384"><ele>14.75</ele></trkpt>
   <trkpt lat="-37.827285" lon="145.004864"><ele>15</ele></trkpt>
   <trkpt lat="-37.827343" lon="145.005553"><ele>16.25</ele></trkpt>
   <trkpt lat="-37.82737" lon="145.005853"><ele>16.75</ele></trkpt>
   <trkpt lat="-37.827386" lon="145.006223"><ele>16.75</ele></trkpt>
   <trkpt lat="-37.827381" lon="145.006781"><ele>17.25</ele></trkpt>
   <trkpt lat="-37.827494" lon="145.00814"><ele>18.75</ele></trkpt>
   <trkpt lat="-37.827606" lon="145.009264"><ele>17</ele></trkpt>
   <trkpt lat="-37.82766" lon="145.009814"><ele>17.25</ele></trkpt>
   <trkpt lat="-37.827685" lon="145.010207"><ele>17.5</ele></trkpt>
   <trkpt lat="-37.827702" lon="145.010629"><ele>18.25</ele></trkpt>
   <trkpt lat="-37.827703" lon="145.011115"><ele>18.5</ele></trkpt>
   <trkpt lat="-37.827692" lon="145.011475"><ele>18.5</ele></trkpt>
   <trkpt lat="-37.827665" lon="145.011876"><ele>19</ele></trkpt>
   <trkpt lat="-37.827605" lon="145.012569"><ele>19.5</ele></trkpt>
   <trkpt lat="-37.827565" lon="145.012989"><ele>19.25</ele></trkpt>
   <trkpt lat="-37.827498" lon="145.0134"><ele>19</ele></trkpt>
   <trkpt lat="-37.827435" lon="145.013675"><ele>19</ele></trkpt>
   <trkpt lat="-37.827329" lon="145.014077"><ele>19.75</ele></trkpt>
   <trkpt lat="-37.827219" lon="145.014405"><ele>20</ele></trkpt>
   <trkpt lat="-37.827049" lon="145.014817"><ele>19.75</ele></trkpt>
   <trkpt lat="-37.82688" lon="145.015161"><ele>19.75</ele></trkpt>
   <trkpt lat="-37.825951" lon="145.016783"><ele>18.5</ele></trkpt>
   <trkpt lat="-37.825504" lon="145.017573"><ele>14.75</ele></trkpt>
   <trkpt lat="-37.824717" lon="145.01898"><ele>22</ele></trkpt>
   <trkpt lat="-37.8245" lon="145.019349"><ele>23.5</ele></trkpt>
   <trkpt lat="-37.824181" lon="145.019847"><ele>24.5</ele></trkpt>
   <trkpt lat="-37.823261" lon="145.02119"><ele>22</ele></trkpt>
   <trkpt lat="-37.822907" lon="145.021684"><ele>20.25</ele></trkpt>
   <trkpt lat="-37.822647" lon="145.021996"><ele>19</ele></trkpt>
   <trkpt lat="-37.822467" lon="145.0222"><ele>18.75</ele></trkpt>
   <trkpt lat="-37.822004" lon="145.022709"><ele>21.25</ele></trkpt>
   <trkpt lat="-37.821865" lon="145.022879"><ele>21.75</ele></trkpt>
   <trkpt lat="-37.82176" lon="145.023022"><ele>22.25</ele></trkpt>
   <trkpt lat="-37.821646" lon="145.023193"><ele>22.25</ele></trkpt>
   <trkpt lat="-37.82142" lon="145.023587"><ele>22.75</ele></trkpt>
   <trkpt lat="-37.821293" lon="145.023855"><ele>23.75</ele></trkpt>
   <trkpt lat="-37.821189" lon="145.024053"><ele>24.25</ele></trkpt>
   <trkpt lat="-37.821095" lon="145.024264"><ele>24.75</ele></trkpt>
   <trkpt lat="-37.820921" lon="145.024709"><ele>24.75</ele></trkpt>
   <trkpt lat="-37.820841" lon="145.024953"><ele>24.75</ele></trkpt>
   <trkpt lat="-37.820733" lon="145.025348"><ele>25</ele></trkpt>
   <trkpt lat="-37.820686" lon="145.025568"><ele>25</ele></trkpt>
   <trkpt lat="-37.820651" lon="145.025765"><ele>25</ele></trkpt>
   <trkpt lat="-37.820599" lon="145.026127"><ele>24.75</ele></trkpt>
   <trkpt lat="-37.820571" lon="145.02646"><ele>24.5</ele></trkpt>
   <trkpt lat="-37.820563" lon="145.026742"><ele>24.25</ele></trkpt>
   <trkpt lat="-37.820573" lon="145.027159"><ele>24</ele></trkpt>
   <trkpt lat="-37.820593" lon="145.027408"><ele>23.75</ele></trkpt>
   <trkpt lat="-37.820629" lon="145.027759"><ele>24</ele></trkpt>
   <trkpt lat="-37.820696" lon="145.028318"><ele>24</ele></trkpt>
   <trkpt lat="-37.820767" lon="145.028826"><ele>22.75</ele></trkpt>
   <trkpt lat="-37.820917" lon="145.029803"><ele>24.5</ele></trkpt>
   <trkpt lat="-37.820963" lon="145.030165"><ele>25.25</ele></trkpt>
   <trkpt lat="-37.821131" lon="145.031512"><ele>26.75</ele></trkpt>
   <trkpt lat="-37.821205" lon="145.032138"><ele>27</ele></trkpt>
   <trkpt lat="-37.821253" lon="145.03299"><ele>27.25</ele></trkpt>
   <trkpt lat="-37.821295" lon="145.034645"><ele>30.75</ele></trkpt>
   <trkpt lat="-37.821308" lon="145.035016"><ele>31.5</ele></trkpt>
   <trkpt lat="-37.821338" lon="145.03548"><ele>33.5</ele></trkpt>
   <trkpt lat="-37.821357" lon="145.035727"><ele>34.75</ele></trkpt>
   <trkpt lat="-37.821383" lon="145.036017"><ele>36</ele></trkpt>
   <trkpt lat="-37.821445" lon="145.036532"><ele>38.75</ele></trkpt>
   <trkpt lat="-37.821739" lon="145.038993"><ele>40.5</ele></trkpt>
   <trkpt lat="-37.821756" lon="145.039115"><ele>40.75</ele></trkpt>
   <trkpt lat="-37.821852" lon="145.039821"><ele>38.75</ele></trkpt>
   <trkpt lat="-37.821885" lon="145.040065"><ele>38.25</ele></trkpt>
   <trkpt lat="-37.822057" lon="145.041468"><ele>39.5</ele></trkpt>
   <trkpt lat="-37.822153" lon="145.042348"><ele>39.5</ele></trkpt>
   <trkpt lat="-37.822175" lon="145.042586"><ele>39.5</ele></trkpt>
   <trkpt lat="-37.822203" lon="145.042941"><ele>40</ele></trkpt>
   <trkpt lat="-37.822244" lon="145.0436"><ele>41.25</ele></trkpt>
   <trkpt lat="-37.822314" lon="145.044947"><ele>43.5</ele></trkpt>
   <trkpt lat="-37.82233" lon="145.0452"><ele>43.25</ele></trkpt>
   <trkpt lat="-37.822357" lon="145.045631"><ele>43</ele></trkpt>
   <trkpt lat="-37.822391" lon="145.046001"><ele>43</ele></trkpt>
   <trkpt lat="-37.822439" lon="145.046397"><ele>43.5</ele></trkpt>
   <trkpt lat="-37.822524" lon="145.04689"><ele>44.25</ele></trkpt>
   <trkpt lat="-37.822664" lon="145.047562"><ele>45.25</ele></trkpt>
   <trkpt lat="-37.822895" lon="145.048604"><ele>48</ele></trkpt>
   <trkpt lat="-37.82294" lon="145.04882"><ele>49</ele></trkpt>
   <trkpt lat="-37.823048" lon="145.049404"><ele>50.5</ele></trkpt>
   <trkpt lat="-37.823304" lon="145.050927"><ele>51.25</ele></trkpt>
   <trkpt lat="-37.823356" lon="145.051203"><ele>51.75</ele></trkpt>
   <trkpt lat="-37.823458" lon="145.05165"><ele>52.5</ele></trkpt>
   <trkpt lat="-37.823519" lon="145.051863"><ele>52.75</ele></trkpt>
   <trkpt lat="-37.823582" lon="145.05205"><ele>52.75</ele></trkpt>
   <trkpt lat="-37.823707" lon="145.052367"><ele>53.25</ele></trkpt>
   <trkpt lat="-37.823786" lon="145.052539"><ele>53.5</ele></trkpt>
   <trkpt lat="-37.823896" lon="145.052756"><ele>54.5</ele></trkpt>
   <trkpt lat="-37.82407" lon="145.053053"><ele>55.75</ele></trkpt>
   <trkpt lat="-37.824201" lon="145.053245"><ele>56.25</ele></trkpt>
   <trkpt lat="-37.824429" lon="145.053535"><ele>57.5</ele></trkpt>
   <trkpt lat="-37.824652" lon="145.053775"><ele>58.25</ele></trkpt>
   <trkpt lat="-37.824754" lon="145.053873"><ele>58.5</ele></trkpt>
   <trkpt lat="-37.824965" lon="145.054077"><ele>58.5</ele></trkpt>
   <trkpt lat="-37.825296" lon="145.054405"><ele>59.75</ele></trkpt>
   <trkpt lat="-37.825477" lon="145.054606"><ele>60</ele></trkpt>
   <trkpt lat="-37.825568" lon="145.054721"><ele>60.25</ele></trkpt>
   <trkpt lat="-37.825653" lon="145.054835"><ele>60.25</ele></trkpt>
   <trkpt lat="-37.825811" lon="145.055072"><ele>60.25</ele></trkpt>
   <trkpt lat="-37.825968" lon="145.055347"><ele>61.25</ele></trkpt>
   <trkpt lat="-37.826109" lon="145.055635"><ele>62</ele></trkpt>
   <trkpt lat="-37.826165" lon="145.055765"><ele>62.5</ele></trkpt>
   <trkpt lat="-37.826259" lon="145.056011"><ele>63.25</ele></trkpt>
   <trkpt lat="-37.826337" lon="145.056253"><ele>64.5</ele></trkpt>
   <trkpt lat="-37.826431" lon="145.056615"><ele>66.25</ele></trkpt>
   <trkpt lat="-37.826488" lon="145.056907"><ele>67.25</ele></trkpt>
   <trkpt lat="-37.826522" lon="145.057163"><ele>68</ele></trkpt>
   <trkpt lat="-37.82654" lon="145.057509"><ele>69.25</ele></trkpt>
   <trkpt lat="-37.826546" lon="145.057741"><ele>69</ele></trkpt>
   <trkpt lat="-37.826541" lon="145.0587"><ele>69.25</ele></trkpt>
   <trkpt lat="-37.826536" lon="145.059583"><ele>70.25</ele></trkpt>
   <trkpt lat="-37.826535" lon="145.05966"><ele>70.5</ele></trkpt>
   <trkpt lat="-37.826532" lon="145.060096"><ele>71</ele></trkpt>
   <trkpt lat="-37.826531" lon="145.060164"><ele>71.25</ele></trkpt>
   <trkpt lat="-37.826539" lon="145.060379"><ele>71.5</ele></trkpt>
   <trkpt lat="-37.826561" lon="145.060753"><ele>72</ele></trkpt>
   <trkpt lat="-37.826534" lon="145.061582"><ele>73.75</ele></trkpt>
   <trkpt lat="-37.826554" lon="145.062079"><ele>75.25</ele></trkpt>
   <trkpt lat="-37.826546" lon="145.062345"><ele>76.25</ele></trkpt>
   <trkpt lat="-37.826536" lon="145.062665"><ele>76.75</ele></trkpt>
   <trkpt lat="-37.826482" lon="145.06321"><ele>77</ele></trkpt>
   <trkpt lat="-37.826472" lon="145.063456"><ele>77</ele></trkpt>
   <trkpt lat="-37.826443" lon="145.064424"><ele>76.75</ele></trkpt>
   <trkpt lat="-37.826424" lon="145.064851"><ele>77.5</ele></trkpt>
   <trkpt lat="-37.826407" lon="145.065014"><ele>77.75</ele></trkpt>
   <trkpt lat="-37.826368" lon="145.065326"><ele>78.5</ele></trkpt>
   <trkpt lat="-37.826294" lon="145.065707"><ele>79.5</ele></trkpt>
   <trkpt lat="-37.826229" lon="145.065987"><ele>79.5</ele></trkpt>
   <trkpt lat="-37.826118" lon="145.066457"><ele>78.75</ele></trkpt>
   <trkpt lat="-37.825923" lon="145.067437"><ele>74.25</ele></trkpt>
   <trkpt lat="-37.825729" lon="145.068317"><ele>72.25</ele></trkpt>
   <trkpt lat="-37.825681" lon="145.068569"><ele>71.25</ele></trkpt>
   <trkpt lat="-37.825619" lon="145.068958"><ele>69.5</ele></trkpt>
   <trkpt lat="-37.825569" lon="145.069378"><ele>68.25</ele></trkpt>
   <trkpt lat="-37.825515" lon="145.069978"><ele>67</ele></trkpt>
   <trkpt lat="-37.825487" lon="145.070567"><ele>66</ele></trkpt>
   <trkpt lat="-37.825492" lon="145.071062"><ele>65.75</ele></trkpt>
   <trkpt lat="-37.825498" lon="145.071224"><ele>65.75</ele></trkpt>
   <trkpt lat="-37.825527" lon="145.071821"><ele>66</ele></trkpt>
   <trkpt lat="-37.825729" lon="145.075204"><ele>64.5</ele></trkpt>
   <trkpt lat="-37.825755" lon="145.075592"><ele>63.75</ele></trkpt>
   <trkpt lat="-37.825831" lon="145.076374"><ele>62.25</ele></trkpt>
   <trkpt lat="-37.825843" lon="145.076542"><ele>62</ele></trkpt>
   <trkpt lat="-37.825858" lon="145.07695"><ele>62.25</ele></trkpt>
   <trkpt lat="-37.825846" lon="145.077331"><ele>62.75</ele></trkpt>
   <trkpt lat="-37.825815" lon="145.077695"><ele>63.25</ele></trkpt>
   <trkpt lat="-37.825766" lon="145.078041"><ele>63.5</ele></trkpt>
   <trkpt lat="-37.825673" lon="145.078463"><ele>64</ele></trkpt>
   <trkpt lat="-37.825582" lon="145.078796"><ele>64.75</ele></trkpt>
   <trkpt lat="-37.825484" lon="145.079083"><ele>65.75</ele></trkpt>
   <trkpt lat="-37.825336" lon="145.079451"><ele>66.25</ele></trkpt>
   <trkpt lat="-37.825091" lon="145.079986"><ele>66.75</ele></trkpt>
   <trkpt lat="-37.824389" lon="145.081484"><ele>67.75</ele></trkpt>
   <trkpt lat="-37.824366" lon="145.081534"><ele>67.75</ele></trkpt>
   <trkpt lat="-37.824285" lon="145.081718"><ele>68</ele></trkpt>
   <trkpt lat="-37.824206" lon="145.081926"><ele>68.5</ele></trkpt>
   <trkpt lat="-37.824046" lon="145.082379"><ele>69.25</ele></trkpt>
   <trkpt lat="-37.823899" lon="145.082823"><ele>69.25</ele></trkpt>
   <trkpt lat="-37.823797" lon="145.0832"><ele>70.5</ele></trkpt>
   <trkpt lat="-37.823719" lon="145.083574"><ele>71</ele></trkpt>
   <trkpt lat="-37.82364" lon="145.084097"><ele>71</ele></trkpt>
   <trkpt lat="-37.823617" lon="145.084558"><ele>71.5</ele></trkpt>
   <trkpt lat="-37.823617" lon="145.085012"><ele>72</ele></trkpt>
   <trkpt lat="-37.823642" lon="145.085382"><ele>73.5</ele></trkpt>
   <trkpt lat="-37.823712" lon="145.085875"><ele>75.75</ele></trkpt>
   <trkpt lat="-37.824051" lon="145.087873"><ele>78.75</ele></trkpt>
   <trkpt lat="-37.824184" lon="145.088808"><ele>78</ele></trkpt>
   <trkpt lat="-37.824275" lon="145.089285"><ele>78</ele></trkpt>
   <trkpt lat="-37.824493" lon="145.090307"><ele>80.25</ele></trkpt>
   <trkpt lat="-37.824606" lon="145.090927"><ele>81.25</ele></trkpt>
   <trkpt lat="-37.824844" lon="145.092357"><ele>83</ele></trkpt>
   <trkpt lat="-37.82491" lon="145.092833"><ele>82.5</ele></trkpt>
   <trkpt lat="-37.824948" lon="145.093278"><ele>82</ele></trkpt>
   <trkpt lat="-37.824966" lon="145.093492"><ele>82.5</ele></trkpt>
   <trkpt lat="-37.824982" lon="145.09373"><ele>83.75</ele></trkpt>
   <trkpt lat="-37.82499" lon="145.094282"><ele>86</ele></trkpt>
   <trkpt lat="-37.82498" lon="145.094691"><ele>87</ele></trkpt>
   <trkpt lat="-37.82497" lon="145.094882"><ele>87.5</ele></trkpt>
   <trkpt lat="-37.824925" lon="145.095475"><ele>89.75</ele></trkpt>
   <trkpt lat="-37.824871" lon="145.095924"><ele>91.25</ele></trkpt>
   <trkpt lat="-37.824769" lon="145.09651"><ele>91.25</ele></trkpt>
   <trkpt lat="-37.824641" lon="145.097054"><ele>92</ele></trkpt>
   <trkpt lat="-37.824349" lon="145.098038"><ele>93</ele></trkpt>
   <trkpt lat="-37.824152" lon="145.098515"><ele>93</ele></trkpt>
   <trkpt lat="-37.823857" lon="145.099137"><ele>92.75</ele></trkpt>
   <trkpt lat="-37.823637" lon="145.099555"><ele>93.75</ele></trkpt>
   <trkpt lat="-37.823063" lon="145.100386"><ele>96.5</ele></trkpt>
   <trkpt lat="-37.822893" lon="145.100631"><ele>97.75</ele></trkpt>
   <trkpt lat="-37.822293" lon="145.101495"><ele>99.25</ele></trkpt>
   <trkpt lat="-37.821948" lon="145.102013"><ele>100.25</ele></trkpt>
   <trkpt lat="-37.821742" lon="145.102323"><ele>100.75</ele></trkpt>
   <trkpt lat="-37.821387" lon="145.102855"><ele>102.5</ele></trkpt>
   <trkpt lat="-37.821052" lon="145.103383"><ele>104.25</ele></trkpt>
   <trkpt lat="-37.820332" lon="145.104438"><ele>108.5</ele></trkpt>
   <trkpt lat="-37.81993" lon="145.105011"><ele>109</ele></trkpt>
   <trkpt lat="-37.819235" lon="145.106053"><ele>109.25</ele></trkpt>
   <trkpt lat="-37.819084" lon="145.106306"><ele>109.25</ele></trkpt>
   <trkpt lat="-37.818898" lon="145.106651"><ele>108.5</ele></trkpt>
   <trkpt lat="-37.818787" lon="145.106909"><ele>107.75</ele></trkpt>
   <trkpt lat="-37.818711" lon="145.107106"><ele>107</ele></trkpt>
   <trkpt lat="-37.818605" lon="145.107411"><ele>106</ele></trkpt>
   <trkpt lat="-37.81852" lon="145.10773"><ele>105</ele></trkpt>
   <trkpt lat="-37.818436" lon="145.108086"><ele>104</ele></trkpt>
   <trkpt lat="-37.818396" lon="145.108343"><ele>103.25</ele></trkpt>
   <trkpt lat="-37.81835" lon="145.108754"><ele>101.5</ele></trkpt>
   <trkpt lat="-37.818326" lon="145.109142"><ele>100</ele></trkpt>
   <trkpt lat="-37.81823" lon="145.112226"><ele>93.75</ele></trkpt>
   <trkpt lat="-37.818225" lon="145.112345"><ele>93.75</ele></trkpt>
   <trkpt lat="-37.818209" lon="145.113033"><ele>94</ele></trkpt>
   <trkpt lat="-37.818217" lon="145.113551"><ele>94</ele></trkpt>
   <trkpt lat="-37.818237" lon="145.114065"><ele>94</ele></trkpt>
   <trkpt lat="-37.818268" lon="145.114617"><ele>95.25</ele></trkpt>
   <trkpt lat="-37.818271" lon="145.114671"><ele>96</ele></trkpt>
   <trkpt lat="-37.818279" lon="145.114898"><ele>96</ele></trkpt>
   <trkpt lat="-37.818298" lon="145.115252"><ele>96.25</ele></trkpt>
   <trkpt lat="-37.818386" lon="145.116063"><ele>95.5</ele></trkpt>
   <trkpt lat="-37.818507" lon="145.116815"><ele>95</ele></trkpt>
   <trkpt lat="-37.818694" lon="145.11791"><ele>98.5</ele></trkpt>
   <trkpt lat="-37.818812" lon="145.118637"><ele>99.75</ele></trkpt>
   <trkpt lat="-37.818973" lon="145.119787"><ele>102.75</ele></trkpt>
   <trkpt lat="-37.819098" lon="145.120748"><ele>102</ele></trkpt>
   <trkpt lat="-37.819304" lon="145.122124"><ele>101.25</ele></trkpt>
   <trkpt lat="-37.819541" lon="145.123711"><ele>100.5</ele></trkpt>
   <trkpt lat="-37.819731" lon="145.12484"><ele>100.5</ele></trkpt>
   <trkpt lat="-37.819913" lon="145.12607"><ele>99</ele></trkpt>
   <trkpt lat="-37.82006" lon="145.127183"><ele>97.75</ele></trkpt>
   <trkpt lat="-37.820219" lon="145.12836"><ele>98.25</ele></trkpt>
   <trkpt lat="-37.820386" lon="145.129557"><ele>99.25</ele></trkpt>
   <trkpt lat="-37.820575" lon="145.130771"><ele>102.5</ele></trkpt>
   <trkpt lat="-37.820672" lon="145.13146"><ele>104.5</ele></trkpt>
   <trkpt lat="-37.820747" lon="145.132058"><ele>106</ele></trkpt>
   <trkpt lat="-37.821471" lon="145.137021"><ele>100.25</ele></trkpt>
   <trkpt lat="-37.821527" lon="145.137474"><ele>100.25</ele></trkpt>
   <trkpt lat="-37.821547" lon="145.137819"><ele>99.25</ele></trkpt>
   <trkpt lat="-37.821541" lon="145.13818"><ele>98.5</ele></trkpt>
   <trkpt lat="-37.821508" lon="145.138549"><ele>97.25</ele></trkpt>
   <trkpt lat="-37.821467" lon="145.138819"><ele>96.25</ele></trkpt>
   <trkpt lat="-37.821386" lon="145.139161"><ele>95</ele></trkpt>
   <trkpt lat="-37.821291" lon="145.139466"><ele>93.75</ele></trkpt>
   <trkpt lat="-37.821172" lon="145.139772"><ele>92.25</ele></trkpt>
   <trkpt lat="-37.820929" lon="145.14028"><ele>89.75</ele></trkpt>
   <trkpt lat="-37.820432" lon="145.141277"><ele>88</ele></trkpt>
   <trkpt lat="-37.820281" lon="145.141572"><ele>88.5</ele></trkpt>
   <trkpt lat="-37.820148" lon="145.141843"><ele>88.75</ele></trkpt>
   <trkpt lat="-37.820017" lon="145.142148"><ele>88.75</ele></trkpt>
   <trkpt lat="-37.819889" lon="145.142527"><ele>89</ele></trkpt>
   <trkpt lat="-37.819785" lon="145.143011"><ele>90.25</ele></trkpt>
   <trkpt lat="-37.819754" lon="145.14321"><ele>90.5</ele></trkpt>
   <trkpt lat="-37.819721" lon="145.143517"><ele>90.5</ele></trkpt>
   <trkpt lat="-37.819711" lon="145.143656"><ele>90.5</ele></trkpt>
   <trkpt lat="-37.819709" lon="145.143823"><ele>90.5</ele></trkpt>
   <trkpt lat="-37.819709" lon="145.144018"><ele>90.5</ele></trkpt>
   <trkpt lat="-37.819721" lon="145.144206"><ele>90.5</ele></trkpt>
   <trkpt lat="-37.819741" lon="145.144447"><ele>90.25</ele></trkpt>
   <trkpt lat="-37.819966" lon="145.146515"><ele>92.5</ele></trkpt>
   <trkpt lat="-37.820033" lon="145.147139"><ele>94</ele></trkpt>
   <trkpt lat="-37.820086" lon="145.147798"><ele>95</ele></trkpt>
   <trkpt lat="-37.820111" lon="145.14825"><ele>95.5</ele></trkpt>
   <trkpt lat="-37.820115" lon="145.148563"><ele>95.5</ele></trkpt>
   <trkpt lat="-37.820091" lon="145.149579"><ele>96.25</ele></trkpt>
   <trkpt lat="-37.820088" lon="145.150029"><ele>96.75</ele></trkpt>
   <trkpt lat="-37.820103" lon="145.150951"><ele>98.25</ele></trkpt>
   <trkpt lat="-37.820192" lon="145.152268"><ele>100.5</ele></trkpt>
   <trkpt lat="-37.820261" lon="145.152835"><ele>101.5</ele></trkpt>
   <trkpt lat="-37.820302" lon="145.153136"><ele>102</ele></trkpt>
   <trkpt lat="-37.820695" lon="145.156285"><ele>111.5</ele></trkpt>
   <trkpt lat="-37.821265" lon="145.160876"><ele>119</ele></trkpt>
   <trkpt lat="-37.821466" lon="145.162546"><ele>122.25</ele></trkpt>
   <trkpt lat="-37.821722" lon="145.164581"><ele>122.75</ele></trkpt>
   <trkpt lat="-37.821766" lon="145.164988"><ele>122.5</ele></trkpt>
   <trkpt lat="-37.821803" lon="145.165498"><ele>123.25</ele></trkpt>
   <trkpt lat="-37.821813" lon="145.165814"><ele>123.75</ele></trkpt>
   <trkpt lat="-37.821815" lon="145.166155"><ele>124.5</ele></trkpt>
   <trkpt lat="-37.821802" lon="145.166637"><ele>125.25</ele></trkpt>
   <trkpt lat="-37.821783" lon="145.166968"><ele>124.75</ele></trkpt>
   <trkpt lat="-37.821756" lon="145.167266"><ele>124.25</ele></trkpt>
   <trkpt lat="-37.82171" lon="145.16765"><ele>123.75</ele></trkpt>
   <trkpt lat="-37.82152" lon="145.16889"><ele>122.5</ele></trkpt>
   <trkpt lat="-37.82125" lon="145.1707"><ele>121.25</ele></trkpt>
   <trkpt lat="-37.821148" lon="145.171343"><ele>121.25</ele></trkpt>
   <trkpt lat="-37.820443" lon="145.174841"><ele>127.5</ele></trkpt>
   <trkpt lat="-37.820403" lon="145.175039"><ele>128</ele></trkpt>
   <trkpt lat="-37.820328" lon="145.17544"><ele>129.5</ele></trkpt>
   <trkpt lat="-37.820244" lon="145.176121"><ele>132.25</ele></trkpt>
   <trkpt lat="-37.8201" lon="145.177794"><ele>132.25</ele></trkpt>
   <trkpt lat="-37.820015" lon="145.178624"><ele>132.5</ele></trkpt>
   <trkpt lat="-37.819916" lon="145.179346"><ele>132.25</ele></trkpt>
   <trkpt lat="-37.819549" lon="145.181707"><ele>136.75</ele></trkpt>
   <trkpt lat="-37.819462" lon="145.182309"><ele>137.25</ele></trkpt>
   <trkpt lat="-37.819245" lon="145.183951"><ele>141.5</ele></trkpt>
   <trkpt lat="-37.819175" lon="145.184399"><ele>142.5</ele></trkpt>
   <trkpt lat="-37.819027" lon="145.185357"><ele>145.25</ele></trkpt>
   <trkpt lat="-37.818981" lon="145.185632"><ele>146.5</ele></trkpt>
   <trkpt lat="-37.818643" lon="145.187884"><ele>149.75</ele></trkpt>
   <trkpt lat="-37.818566" lon="145.188408"><ele>149.75</ele></trkpt>
   <trkpt lat="-37.818526" lon="145.189018"><ele>150.25</ele></trkpt>
   <trkpt lat="-37.818492" lon="145.189702"><ele>151</ele></trkpt>
   <trkpt lat="-37.818444" lon="145.190361"><ele>151</ele></trkpt>
   <trkpt lat="-37.81835" lon="145.191054"><ele>150.5</ele></trkpt>
   <trkpt lat="-37.818277" lon="145.191482"><ele>151.25</ele></trkpt>
   <trkpt lat="-37.817952" lon="145.193563"><ele>152</ele></trkpt>
   <trkpt lat="-37.817853" lon="145.194182"><ele>149.75</ele></trkpt>
   <trkpt lat="-37.817729" lon="145.195057"><ele>146.25</ele></trkpt>
   <trkpt lat="-37.817709" lon="145.195203"><ele>145.5</ele></trkpt>
   <trkpt lat="-37.817683" lon="145.195633"><ele>143</ele></trkpt>
   <trkpt lat="-37.817681" lon="145.196107"><ele>141.5</ele></trkpt>
   <trkpt lat="-37.817717" lon="145.196693"><ele>140.25</ele></trkpt>
   <trkpt lat="-37.81786" lon="145.19843"><ele>140.25</ele></trkpt>
   <trkpt lat="-37.818126" lon="145.202021"><ele>127.75</ele></trkpt>
   <trkpt lat="-37.818137" lon="145.202159"><ele>127.5</ele></trkpt>
   <trkpt lat="-37.818444" lon="145.205798"><ele>133.5</ele></trkpt>
   <trkpt lat="-37.818612" lon="145.207845"><ele>141.25</ele></trkpt>
   <trkpt lat="-37.818698" lon="145.208971"><ele>142</ele></trkpt>
   <trkpt lat="-37.818806" lon="145.210233"><ele>140.5</ele></trkpt>
   <trkpt lat="-37.818852" lon="145.210828"><ele>141.5</ele></trkpt>
   <trkpt lat="-37.818866" lon="145.211092"><ele>141.5</ele></trkpt>
   <trkpt lat="-37.818886" lon="145.211644"><ele>142</ele></trkpt>
   <trkpt lat="-37.818889" lon="145.211983"><ele>140</ele></trkpt>
   <trkpt lat="-37.818876" lon="145.212576"><ele>136.75</ele></trkpt>
   <trkpt lat="-37.818866" lon="145.212844"><ele>134.5</ele></trkpt>
   <trkpt lat="-37.818705" lon="145.215474"><ele>120.75</ele></trkpt>
   <trkpt lat="-37.818649" lon="145.21635"><ele>117.25</ele></trkpt>
   <trkpt lat="-37.81857" lon="145.217607"><ele>114.25</ele></trkpt>
   <trkpt lat="-37.818491" lon="145.218669"><ele>113.75</ele></trkpt>
   <trkpt lat="-37.818395" lon="145.220346"><ele>112</ele></trkpt>
   <trkpt lat="-37.818384" lon="145.220491"><ele>112.25</ele></trkpt>
   <trkpt lat="-37.818321" lon="145.221397"><ele>113.5</ele></trkpt>
   <trkpt lat="-37.818238" lon="145.222346"><ele>114.25</ele></trkpt>
   <trkpt lat="-37.818164" lon="145.22291"><ele>116.5</ele></trkpt>
   <trkpt lat="-37.818087" lon="145.223312"><ele>118.75</ele></trkpt>
   <trkpt lat="-37.817992" lon="145.223738"><ele>119.75</ele></trkpt>
   <trkpt lat="-37.81788" lon="145.224138"><ele>120.5</ele></trkpt>
   <trkpt lat="-37.817706" lon="145.224645"><ele>121.25</ele></trkpt>
   <trkpt lat="-37.817494" lon="145.225206"><ele>122</ele></trkpt>
   <trkpt lat="-37.817339" lon="145.22557"><ele>122.25</ele></trkpt>
   <trkpt lat="-37.817017" lon="145.226292"><ele>122.5</ele></trkpt>
   <trkpt lat="-37.816685" lon="145.227072"><ele>122.5</ele></trkpt>
   <trkpt lat="-37.816587" lon="145.227294"><ele>122.75</ele></trkpt>
   <trkpt lat="-37.816529" lon="145.22743"><ele>123</ele></trkpt>
   <trkpt lat="-37.816453" lon="145.227632"><ele>123.5</ele></trkpt>
   <trkpt lat="-37.816399" lon="145.227826"><ele>124.25</ele></trkpt>
   <trkpt lat="-37.816303" lon="145.228094"><ele>125.5</ele></trkpt>
   <trkpt lat="-37.816219" lon="145.228301"><ele>126.25</ele></trkpt>
   <trkpt lat="-37.815875" lon="145.229086"><ele>128.75</ele></trkpt>
   <trkpt lat="-37.815484" lon="145.229974"><ele>129.25</ele></trkpt>
   <trkpt lat="-37.815201" lon="145.230635"><ele>126.25</ele></trkpt>
   <trkpt lat="-37.815017" lon="145.230965"><ele>124.25</ele></trkpt>
   <trkpt lat="-37.814965" lon="145.231084"><ele>124.25</ele></trkpt>
   <trkpt lat="-37.81484" lon="145.231355"><ele>124.5</ele></trkpt>
   <trkpt lat="-37.814792" lon="145.231462"><ele>124.75</ele></trkpt>
   <trkpt lat="-37.814542" lon="145.231948"><ele>125.25</ele></trkpt>
   <trkpt lat="-37.814165" lon="145.232825"><ele>126.25</ele></trkpt>
   <trkpt lat="-37.814059" lon="145.233104"><ele>126.25</ele></trkpt>
   <trkpt lat="-37.813968" lon="145.233386"><ele>126.25</ele></trkpt>
   <trkpt lat="-37.813837" lon="145.233874"><ele>126.25</ele></trkpt>
   <trkpt lat="-37.813786" lon="145.234102"><ele>126.5</ele></trkpt>
   <trkpt lat="-37.813727" lon="145.234496"><ele>126.75</ele></trkpt>
   <trkpt lat="-37.813707" lon="145.234765"><ele>127.25</ele></trkpt>
   <trkpt lat="-37.813701" lon="145.235076"><ele>127.5</ele></trkpt>
   <trkpt lat="-37.81371" lon="145.235309"><ele>127</ele></trkpt>
   <trkpt lat="-37.813724" lon="145.235559"><ele>126.75</ele></trkpt>
   <trkpt lat="-37.8139" lon="145.237622"><ele>127</ele></trkpt>
   <trkpt lat="-37.813999" lon="145.238564"><ele>127</ele></trkpt>
   <trkpt lat="-37.814063" lon="145.23925"><ele>127</ele></trkpt>
   <trkpt lat="-37.81411" lon="145.239941"><ele>126.25</ele></trkpt>
   <trkpt lat="-37.814127" lon="145.24033"><ele>126.75</ele></trkpt>
   <trkpt lat="-37.814119" lon="145.24092"><ele>128.25</ele></trkpt>
   <trkpt lat="-37.814076" lon="145.241661"><ele>129.75</ele></trkpt>
   <trkpt lat="-37.814057" lon="145.241883"><ele>130</ele></trkpt>
   <trkpt lat="-37.813949" lon="145.242642"><ele>131.25</ele></trkpt>
   <trkpt lat="-37.813869" lon="145.243053"><ele>132.5</ele></trkpt>
   <trkpt lat="-37.813699" lon="145.243737"><ele>134.5</ele></trkpt>
   <trkpt lat="-37.813342" lon="145.244962"><ele>136.75</ele></trkpt>
   <trkpt lat="-37.812995" lon="145.245929"><ele>139.5</ele></trkpt>
   <trkpt lat="-37.812681" lon="145.246736"><ele>141.75</ele></trkpt>
   <trkpt lat="-37.81252" lon="145.247233"><ele>143.25</ele></trkpt>
   <trkpt lat="-37.81237" lon="145.24773"><ele>144.5</ele></trkpt>
   <trkpt lat="-37.811695" lon="145.249999"><ele>147</ele></trkpt>
   <trkpt lat="-37.811389" lon="145.251074"><ele>147</ele></trkpt>
   <trkpt lat="-37.811295" lon="145.251436"><ele>146.5</ele></trkpt>
   <trkpt lat="-37.811184" lon="145.251969"><ele>146.25</ele></trkpt>
   <trkpt lat="-37.810859" lon="145.253376"><ele>144.75</ele></trkpt>
   <trkpt lat="-37.810577" lon="145.254321"><ele>142</ele></trkpt>
   <trkpt lat="-37.809448" lon="145.258214"><ele>155.25</ele></trkpt>
   <trkpt lat="-37.808953" lon="145.259886"><ele>148.5</ele></trkpt>
   <trkpt lat="-37.8076" lon="145.264508"><ele>146.25</ele></trkpt>
   <trkpt lat="-37.807256" lon="145.265707"><ele>151</ele></trkpt>
   <trkpt lat="-37.807151" lon="145.266015"><ele>151.25</ele></trkpt>
   <trkpt lat="-37.80702" lon="145.266342"><ele>150.5</ele></trkpt>
   <trkpt lat="-37.806807" lon="145.266773"><ele>148.75</ele></trkpt>
   <trkpt lat="-37.806589" lon="145.267162"><ele>146.25</ele></trkpt>
   <trkpt lat="-37.80591" lon="145.268137"><ele>145</ele></trkpt>
   <trkpt lat="-37.804248" lon="145.270492"><ele>144</ele></trkpt>
   <trkpt lat="-37.803747" lon="145.271178"><ele>142</ele></trkpt>
   <trkpt lat="-37.803386" lon="145.271601"><ele>142</ele></trkpt>
   <trkpt lat="-37.803206" lon="145.27179"><ele>142</ele></trkpt>
   <trkpt lat="-37.803003" lon="145.271975"><ele>142.25</ele></trkpt>
   <trkpt lat="-37.802648" lon="145.272255"><ele>141.75</ele></trkpt>
   <trkpt lat="-37.80114" lon="145.273305"><ele>133.5</ele></trkpt>
   <trkpt lat="-37.800744" lon="145.273576"><ele>133.25</ele></trkpt>
   <trkpt lat="-37.800264" lon="145.273899"><ele>134.5</ele></trkpt>
   <trkpt lat="-37.799275" lon="145.274665"><ele>134</ele></trkpt>
   <trkpt lat="-37.798856" lon="145.275047"><ele>133.75</ele></trkpt>
   <trkpt lat="-37.798609" lon="145.275307"><ele>132.5</ele></trkpt>
   <trkpt lat="-37.798334" lon="145.275625"><ele>130.5</ele></trkpt>
   <trkpt lat="-37.798002" lon="145.276069"><ele>128.25</ele></trkpt>
   <trkpt lat="-37.797687" lon="145.276537"><ele>127.5</ele></trkpt>
   <trkpt lat="-37.797152" lon="145.277461"><ele>124.75</ele></trkpt>
   <trkpt lat="-37.796759" lon="145.278044"><ele>124</ele></trkpt>
   <trkpt lat="-37.796547" lon="145.278376"><ele>123.5</ele></trkpt>
   <trkpt lat="-37.795887" lon="145.2794"><ele>122</ele></trkpt>
   <trkpt lat="-37.795512" lon="145.280057"><ele>121</ele></trkpt>
   <trkpt lat="-37.794895" lon="145.281116"><ele>119.5</ele></trkpt>
   <trkpt lat="-37.794585" lon="145.281657"><ele>118.75</ele></trkpt>
   <trkpt lat="-37.793489" lon="145.283725"><ele>114.5</ele></trkpt>
   <trkpt lat="-37.793358" lon="145.284018"><ele>114</ele></trkpt>
   <trkpt lat="-37.793207" lon="145.284327"><ele>113.5</ele></trkpt>
   <trkpt lat="-37.792842" lon="145.284978"><ele>113.5</ele></trkpt>
   <trkpt lat="-37.792417" lon="145.285702"><ele>111.75</ele></trkpt>
   <trkpt lat="-37.792058" lon="145.286273"><ele>113.5</ele></trkpt>
   <trkpt lat="-37.79167" lon="145.286791"><ele>115.5</ele></trkpt>
   <trkpt lat="-37.791237" lon="145.287296"><ele>115.5</ele></trkpt>
   <trkpt lat="-37.790803" lon="145.287715"><ele>115.25</ele></trkpt>
   <trkpt lat="-37.790375" lon="145.288074"><ele>115</ele></trkpt>
   <trkpt lat="-37.790029" lon="145.288348"><ele>115</ele></trkpt>
   <trkpt lat="-37.788824" lon="145.289196"><ele>116.5</ele></trkpt>
   <trkpt lat="-37.788521" lon="145.289437"><ele>117.5</ele></trkpt>
   <trkpt lat="-37.788334" lon="145.289609"><ele>118</ele></trkpt>
   <trkpt lat="-37.788072" lon="145.289924"><ele>119.25</ele></trkpt>
   <trkpt lat="-37.787964" lon="145.290071"><ele>119.5</ele></trkpt>
   <trkpt lat="-37.787845" lon="145.290244"><ele>119.75</ele></trkpt>
   <trkpt lat="-37.78768" lon="145.290508"><ele>120.25</ele></trkpt>
   <trkpt lat="-37.787614" lon="145.290631"><ele>120.5</ele></trkpt>
   <trkpt lat="-37.787512" lon="145.290835"><ele>121</ele></trkpt>
   <trkpt lat="-37.787361" lon="145.291191"><ele>121.75</ele></trkpt>
   <trkpt lat="-37.787155" lon="145.291765"><ele>122.5</ele></trkpt>
   <trkpt lat="-37.784649" lon="145.299075"><ele>101.75</ele></trkpt>
   <trkpt lat="-37.784067" lon="145.300726"><ele>95.25</ele></trkpt>
   <trkpt lat="-37.783274" lon="145.303065"><ele>96</ele></trkpt>
   <trkpt lat="-37.783168" lon="145.303473"><ele>97</ele></trkpt>
   <trkpt lat="-37.783096" lon="145.303862"><ele>98</ele></trkpt>
   <trkpt lat="-37.78307" lon="145.304107"><ele>98.75</ele></trkpt>
   <trkpt lat="-37.783059" lon="145.304272"><ele>98.75</ele></trkpt>
   <trkpt lat="-37.783056" lon="145.304693"><ele>98</ele></trkpt>
   <trkpt lat="-37.783062" lon="145.304946"><ele>97.75</ele></trkpt>
   <trkpt lat="-37.783076" lon="145.305146"><ele>96.75</ele></trkpt>
   <trkpt lat="-37.783102" lon="145.305401"><ele>95.5</ele></trkpt>
   <trkpt lat="-37.783185" lon="145.305877"><ele>93.25</ele></trkpt>
   <trkpt lat="-37.783238" lon="145.306101"><ele>92.75</ele></trkpt>
   <trkpt lat="-37.783303" lon="145.306337"><ele>92</ele></trkpt>
   <trkpt lat="-37.783412" lon="145.306681"><ele>91.25</ele></trkpt>
   <trkpt lat="-37.784119" lon="145.308759"><ele>87.5</ele></trkpt>
   <trkpt lat="-37.784462" lon="145.309784"><ele>89.25</ele></trkpt>
   <trkpt lat="-37.78454" lon="145.310054"><ele>89.5</ele></trkpt>
   <trkpt lat="-37.784605" lon="145.31032"><ele>89.5</ele></trkpt>
   <trkpt lat="-37.784669" lon="145.310643"><ele>90</ele></trkpt>
   <trkpt lat="-37.784712" lon="145.310934"><ele>90.5</ele></trkpt>
   <trkpt lat="-37.784735" lon="145.311259"><ele>91</ele></trkpt>
   <trkpt lat="-37.784751" lon="145.311664"><ele>91.75</ele></trkpt>
   <trkpt lat="-37.784751" lon="145.311838"><ele>92.25</ele></trkpt>
   <trkpt lat="-37.78474" lon="145.312164"><ele>92.75</ele></trkpt>
   <trkpt lat="-37.784727" lon="145.312352"><ele>93</ele></trkpt>
   <trkpt lat="-37.784686" lon="145.312753"><ele>93.75</ele></trkpt>
   <trkpt lat="-37.784521" lon="145.314537"><ele>97</ele></trkpt>
   <trkpt lat="-37.784489" lon="145.314873"><ele>97.75</ele></trkpt>
   <trkpt lat="-37.784408" lon="145.315725"><ele>97.75</ele></trkpt>
   <trkpt lat="-37.784364" lon="145.316023"><ele>98.75</ele></trkpt>
   <trkpt lat="-37.784292" lon="145.316394"><ele>100.25</ele></trkpt>
   <trkpt lat="-37.784234" lon="145.316604"><ele>101.25</ele></trkpt>
   <trkpt lat="-37.784148" lon="145.316864"><ele>101</ele></trkpt>
   <trkpt lat="-37.78405" lon="145.3171"><ele>100.75</ele></trkpt>
   <trkpt lat="-37.78393" lon="145.317322"><ele>100.5</ele></trkpt>
   <trkpt lat="-37.783489" lon="145.31818"><ele>103</ele></trkpt>
   <trkpt lat="-37.783271" lon="145.318558"><ele>103.25</ele></trkpt>
   <trkpt lat="-37.783096" lon="145.318828"><ele>103.25</ele></trkpt>
   <trkpt lat="-37.782685" lon="145.31952"><ele>102.75</ele></trkpt>
   <trkpt lat="-37.781818" lon="145.320939"><ele>105.75</ele></trkpt>
   <trkpt lat="-37.78137" lon="145.321654"><ele>108.5</ele></trkpt>
   <trkpt lat="-37.781003" lon="145.322287"><ele>108.75</ele></trkpt>
   <trkpt lat="-37.780699" lon="145.322783"><ele>109.25</ele></trkpt>
   <trkpt lat="-37.780325" lon="145.323335"><ele>110</ele></trkpt>
   <trkpt lat="-37.779886" lon="145.323831"><ele>111.25</ele></trkpt>
   <trkpt lat="-37.778991" lon="145.324668"><ele>113.5</ele></trkpt>
   <trkpt lat="-37.778169" lon="145.325411"><ele>114</ele></trkpt>
   <trkpt lat="-37.777789" lon="145.325773"><ele>114.5</ele></trkpt>
   <trkpt lat="-37.777486" lon="145.326113"><ele>115.25</ele></trkpt>
   <trkpt lat="-37.777168" lon="145.32651"><ele>115</ele></trkpt>
   <trkpt lat="-37.776916" lon="145.326862"><ele>114.5</ele></trkpt>
   <trkpt lat="-37.776613" lon="145.327345"><ele>113.75</ele></trkpt>
   <trkpt lat="-37.776403" lon="145.327712"><ele>113.25</ele></trkpt>
   <trkpt lat="-37.775934" lon="145.328656"><ele>114.75</ele></trkpt>
   <trkpt lat="-37.775401" lon="145.329753"><ele>115.5</ele></trkpt>
   <trkpt lat="-37.775217" lon="145.330111"><ele>115.75</ele></trkpt>
   <trkpt lat="-37.775127" lon="145.33029"><ele>116.25</ele></trkpt>
   <trkpt lat="-37.774807" lon="145.330949"><ele>119</ele></trkpt>
   <trkpt lat="-37.774081" lon="145.332368"><ele>124</ele></trkpt>
   <trkpt lat="-37.773571" lon="145.33339"><ele>127.75</ele></trkpt>
   <trkpt lat="-37.773401" lon="145.333718"><ele>128.75</ele></trkpt>
   <trkpt lat="-37.773191" lon="145.334043"><ele>129.75</ele></trkpt>
   <trkpt lat="-37.772953" lon="145.334359"><ele>131.5</ele></trkpt>
   <trkpt lat="-37.772616" lon="145.334713"><ele>134.25</ele></trkpt>
   <trkpt lat="-37.772239" lon="145.335033"><ele>135.75</ele></trkpt>
   <trkpt lat="-37.771865" lon="145.335261"><ele>136.5</ele></trkpt>
   <trkpt lat="-37.771596" lon="145.335382"><ele>136.5</ele></trkpt>
   <trkpt lat="-37.771263" lon="145.335502"><ele>137.25</ele></trkpt>
   <trkpt lat="-37.770859" lon="145.335595"><ele>138</ele></trkpt>
   <trkpt lat="-37.766723" lon="145.336381"><ele>135</ele></trkpt>
   <trkpt lat="-37.766293" lon="145.336475"><ele>135.25</ele></trkpt>
   <trkpt lat="-37.765969" lon="145.336588"><ele>134.5</ele></trkpt>
   <trkpt lat="-37.765668" lon="145.336734"><ele>134</ele></trkpt>
   <trkpt lat="-37.765344" lon="145.336939"><ele>134</ele></trkpt>
   <trkpt lat="-37.765024" lon="145.337183"><ele>134.75</ele></trkpt>
   <trkpt lat="-37.764721" lon="145.337477"><ele>134.5</ele></trkpt>
   <trkpt lat="-37.764466" lon="145.337784"><ele>134.75</ele></trkpt>
   <trkpt lat="-37.76421" lon="145.33814"><ele>133.75</ele></trkpt>
   <trkpt lat="-37.763839" lon="145.338689"><ele>127</ele></trkpt>
   <trkpt lat="-37.763523" lon="145.339136"><ele>122.25</ele></trkpt>
   <trkpt lat="-37.763143" lon="145.339568"><ele>120.75</ele></trkpt>
   <trkpt lat="-37.762335" lon="145.340434"><ele>117</ele></trkpt>
   <trkpt lat="-37.760195" lon="145.342685"><ele>111.75</ele></trkpt>
   <trkpt lat="-37.759113" lon="145.34382"><ele>107.25</ele></trkpt>
   <trkpt lat="-37.7588" lon="145.344086"><ele>106.25</ele></trkpt>
   <trkpt lat="-37.758545" lon="145.344314"><ele>105</ele></trkpt>
   <trkpt lat="-37.758374" lon="145.344483"><ele>104.5</ele></trkpt>
   <trkpt lat="-37.758056" lon="145.344814"><ele>103.25</ele></trkpt>
   <trkpt lat="-37.757352" lon="145.345553"><ele>100.75</ele></trkpt>
   <trkpt lat="-37.756411" lon="145.346543"><ele>97.75</ele></trkpt>
  </trkseg>
 </trk>
</gpx>