<?xml version="1.0" encoding="UTF-8"?>
<!-- track-length = 64611 filtered ascend = 85 plain-ascend = -9 cost=64611 energy=0.8kwh time=1h 26m 9s -->
<gpx 
 xmlns="http://www.topografix.com/GPX/1/1" 
 xmlns:xsi="http://www.w3.org/2001/XMLSchema-instance" 
 xsi:schemaLocation="http://www.topografix.com/GPX/1/1 http://www.topografix.com/GPX/1/1/gpx.xsd" 
 version="1.1" 
 creator="BRouter-Web 0.18.1">
 <trk>
  <name>PKM</name>
  <trkseg>
   <trkpt lat="-38.084456" lon="145.507707"><ele>27.75</ele></trkpt>
   <trkpt lat="-38.084271" lon="145.506752"><ele>26</ele></trkpt>
   <trkpt lat="-38.08389" lon="145.504749"><ele>22.75</ele></trkpt>
   <trkpt lat="-38.083391" lon="145.502123"><ele>22.5</ele></trkpt>
   <trkpt lat="-38.083291" lon="145.501596"><ele>22</ele></trkpt>
   <trkpt lat="-38.083008" lon="145.500118"><ele>23.25</ele></trkpt>
   <trkpt lat="-38.082865" lon="145.49956"><ele>23</ele></trkpt>
   <trkpt lat="-38.08254" lon="145.497859"><ele>22.5</ele></trkpt>
   <trkpt lat="-38.082225" lon="145.495712"><ele>25.5</ele></trkpt>
   <trkpt lat="-38.082038" lon="145.494235"><ele>26.5</ele></trkpt>
   <trkpt lat="-38.081905" lon="145.493341"><ele>27.25</ele></trkpt>
   <trkpt lat="-38.081797" lon="145.492737"><ele>27.75</ele></trkpt>
   <trkpt lat="-38.081342" lon="145.490322"><ele>29.5</ele></trkpt>
   <trkpt lat="-38.081075" lon="145.488951"><ele>30.5</ele></trkpt>
   <trkpt lat="-38.080765" lon="145.487264"><ele>32</ele></trkpt>
   <trkpt lat="-38.080579" lon="145.486337"><ele>32.75</ele></trkpt>
   <trkpt lat="-38.080123" lon="145.483888"><ele>34.5</ele></trkpt>
   <trkpt lat="-38.079793" lon="145.482187"><ele>36</ele></trkpt>
   <trkpt lat="-38.079527" lon="145.48077"><ele>37</ele></trkpt>
   <trkpt lat="-38.077894" lon="145.472233"><ele>43.75</ele></trkpt>
   <trkpt lat="-38.07747" lon="145.470075"><ele>43.75</ele></trkpt>
   <trkpt lat="-38.076946" lon="145.467665"><ele>43.75</ele></trkpt>
   <trkpt lat="-38.075708" lon="145.461224"><ele>40.75</ele></trkpt>
   <trkpt lat="-38.074784" lon="145.456316"><ele>36.25</ele></trkpt>
   <trkpt lat="-38.074715" lon="145.455959"><ele>35.75</ele></trkpt>
   <trkpt lat="-38.07122" lon="145.437652"><ele>31.25</ele></trkpt>
   <trkpt lat="-38.070885" lon="145.435898"><ele>30.75</ele></trkpt>
   <trkpt lat="-38.070853" lon="145.435734"><ele>30.75</ele></trkpt>
   <trkpt lat="-38.070514" lon="145.433959"><ele>29.5</ele></trkpt>
   <trkpt lat="-38.070497" lon="145.433872"><ele>29.5</ele></trkpt>
   <trkpt lat="-38.066688" lon="145.413924"><ele>35.5</ele></trkpt>
   <trkpt lat="-38.066642" lon="145.413685"><ele>35.25</ele></trkpt>
   <trkpt lat="-38.066277" lon="145.411714"><ele>35.75</ele></trkpt>
   <trkpt lat="-38.066007" lon="145.410356"><ele>35.25</ele></trkpt>
   <trkpt lat="-38.065782" lon="145.409187"><ele>35</ele></trkpt>
   <trkpt lat="-38.065767" lon="145.409105"><ele>35</ele></trkpt>
   <trkpt lat="-38.065453" lon="145.407463"><ele>35.5</ele></trkpt>
   <trkpt lat="-38.065436" lon="145.407378"><ele>35.5</ele></trkpt>
   <trkpt lat="-38.062819" lon="145.393683"><ele>40.75</ele></trkpt>
   <trkpt lat="-38.060793" lon="145.383067"><ele>47</ele></trkpt>
   <trkpt lat="-38.060627" lon="145.382248"><ele>47.5</ele></trkpt>
   <trkpt lat="-38.060547" lon="145.381903"><ele>47.75</ele></trkpt>
   <trkpt lat="-38.060459" lon="145.381565"><ele>48</ele></trkpt>
   <trkpt lat="-38.060351" lon="145.381205"><ele>47.75</ele></trkpt>
   <trkpt lat="-38.060168" lon="145.380668"><ele>47.5</ele></trkpt>
   <trkpt lat="-38.060019" lon="145.380299"><ele>48.25</ele></trkpt>
   <trkpt lat="-38.059865" lon="145.379951"><ele>48.75</ele></trkpt>
   <trkpt lat="-38.059688" lon="145.379586"><ele>49.75</ele></trkpt>
   <trkpt lat="-38.059506" lon="145.379251"><ele>51</ele></trkpt>
   <trkpt lat="-38.059322" lon="145.378929"><ele>51.5</ele></trkpt>
   <trkpt lat="-38.059156" lon="145.378674"><ele>52</ele></trkpt>
   <trkpt lat="-38.059049" lon="145.378517"><ele>52.25</ele></trkpt>
   <trkpt lat="-38.058757" lon="145.378119"><ele>52.75</ele></trkpt>
   <trkpt lat="-38.058305" lon="145.377571"><ele>53.25</ele></trkpt>
   <trkpt lat="-38.056818" lon="145.375881"><ele>53</ele></trkpt>
   <trkpt lat="-38.053963" lon="145.372632"><ele>53.5</ele></trkpt>
   <trkpt lat="-38.05359" lon="145.372164"><ele>53.5</ele></trkpt>
   <trkpt lat="-38.053409" lon="145.37192"><ele>54.25</ele></trkpt>
   <trkpt lat="-38.053121" lon="145.3715"><ele>54.25</ele></trkpt>
   <trkpt lat="-38.052908" lon="145.37116"><ele>53.75</ele></trkpt>
   <trkpt lat="-38.052736" lon="145.370859"><ele>53.75</ele></trkpt>
   <trkpt lat="-38.052482" lon="145.370379"><ele>54.5</ele></trkpt>
   <trkpt lat="-38.052352" lon="145.370111"><ele>54.5</ele></trkpt>
   <trkpt lat="-38.052205" lon="145.369787"><ele>53.75</ele></trkpt>
   <trkpt lat="-38.052116" lon="145.369575"><ele>53.25</ele></trkpt>
   <trkpt lat="-38.051902" lon="145.369026"><ele>52.5</ele></trkpt>
   <trkpt lat="-38.051026" lon="145.366546"><ele>53</ele></trkpt>
   <trkpt lat="-38.050681" lon="145.36556"><ele>53.25</ele></trkpt>
   <trkpt lat="-38.050582" lon="145.36527"><ele>53</ele></trkpt>
   <trkpt lat="-38.050395" lon="145.364734"><ele>52.5</ele></trkpt>
   <trkpt lat="-38.049976" lon="145.363544"><ele>52.25</ele></trkpt>
   <trkpt lat="-38.049899" lon="145.363321"><ele>52.5</ele></trkpt>
   <trkpt lat="-38.047211" lon="145.355651"><ele>59</ele></trkpt>
   <trkpt lat="-38.046807" lon="145.35454"><ele>59.5</ele></trkpt>
   <trkpt lat="-38.046574" lon="145.353931"><ele>59.25</ele></trkpt>
   <trkpt lat="-38.045704" lon="145.35175"><ele>62</ele></trkpt>
   <trkpt lat="-38.045445" lon="145.351122"><ele>61.5</ele></trkpt>
   <trkpt lat="-38.045215" lon="145.35063"><ele>61</ele></trkpt>
   <trkpt lat="-38.044915" lon="145.350078"><ele>61.25</ele></trkpt>
   <trkpt lat="-38.04478" lon="145.349852"><ele>61</ele></trkpt>
   <trkpt lat="-38.044619" lon="145.349601"><ele>60.75</ele></trkpt>
   <trkpt lat="-38.044294" lon="145.349141"><ele>59</ele></trkpt>
   <trkpt lat="-38.043895" lon="145.348655"><ele>58</ele></trkpt>
   <trkpt lat="-38.043712" lon="145.34845"><ele>57.5</ele></trkpt>
   <trkpt lat="-38.043299" lon="145.348028"><ele>56.25</ele></trkpt>
   <trkpt lat="-38.043044" lon="145.347779"><ele>55</ele></trkpt>
   <trkpt lat="-38.042507" lon="145.347265"><ele>51.25</ele></trkpt>
   <trkpt lat="-38.042067" lon="145.346876"><ele>50.75</ele></trkpt>
   <trkpt lat="-38.041848" lon="145.346699"><ele>50.75</ele></trkpt>
   <trkpt lat="-38.041187" lon="145.34621"><ele>52</ele></trkpt>
   <trkpt lat="-38.040663" lon="145.345851"><ele>53</ele></trkpt>
   <trkpt lat="-38.040233" lon="145.345546"><ele>54.75</ele></trkpt>
   <trkpt lat="-38.040092" lon="145.345438"><ele>55.25</ele></trkpt>
   <trkpt lat="-38.039775" lon="145.345193"><ele>55.75</ele></trkpt>
   <trkpt lat="-38.039422" lon="145.344897"><ele>55.25</ele></trkpt>
   <trkpt lat="-38.039016" lon="145.344532"><ele>55.75</ele></trkpt>
   <trkpt lat="-38.038714" lon="145.344235"><ele>55.5</ele></trkpt>
   <trkpt lat="-38.038272" lon="145.343754"><ele>55</ele></trkpt>
   <trkpt lat="-38.037862" lon="145.343296"><ele>53.75</ele></trkpt>
   <trkpt lat="-38.037533" lon="145.342891"><ele>52.25</ele></trkpt>
   <trkpt lat="-38.037419" lon="145.342741"><ele>51.75</ele></trkpt>
   <trkpt lat="-38.037193" lon="145.342417"><ele>51</ele></trkpt>
   <trkpt lat="-38.037055" lon="145.342221"><ele>50.75</ele></trkpt>
   <trkpt lat="-38.0366" lon="145.341432"><ele>49.75</ele></trkpt>
   <trkpt lat="-38.036293" lon="145.340768"><ele>48.25</ele></trkpt>
   <trkpt lat="-38.036081" lon="145.340234"><ele>47</ele></trkpt>
   <trkpt lat="-38.035827" lon="145.339445"><ele>46</ele></trkpt>
   <trkpt lat="-38.03563" lon="145.338625"><ele>45.75</ele></trkpt>
   <trkpt lat="-38.035496" lon="145.337844"><ele>43.75</ele></trkpt>
   <trkpt lat="-38.035415" lon="145.337094"><ele>41.25</ele></trkpt>
   <trkpt lat="-38.034651" lon="145.32895"><ele>33.5</ele></trkpt>
   <trkpt lat="-38.03455" lon="145.327935"><ele>35</ele></trkpt>
   <trkpt lat="-38.034424" lon="145.326877"><ele>36</ele></trkpt>
   <trkpt lat="-38.03435" lon="145.326379"><ele>34.75</ele></trkpt>
   <trkpt lat="-38.034223" lon="145.325644"><ele>32</ele></trkpt>
   <trkpt lat="-38.034053" lon="145.324787"><ele>29.75</ele></trkpt>
   <trkpt lat="-38.033041" lon="145.32034"><ele>35.75</ele></trkpt>
   <trkpt lat="-38.032721" lon="145.319006"><ele>34.5</ele></trkpt>
   <trkpt lat="-38.031537" lon="145.313884"><ele>27.75</ele></trkpt>
   <trkpt lat="-38.031197" lon="145.312423"><ele>31.25</ele></trkpt>
   <trkpt lat="-38.030917" lon="145.311185"><ele>34.25</ele></trkpt>
   <trkpt lat="-38.030696" lon="145.310365"><ele>34.25</ele></trkpt>
   <trkpt lat="-38.030494" lon="145.309757"><ele>34</ele></trkpt>
   <trkpt lat="-38.030236" lon="145.309101"><ele>33.25</ele></trkpt>
   <trkpt lat="-38.030006" lon="145.308598"><ele>33.25</ele></trkpt>
   <trkpt lat="-38.029736" lon="145.308058"><ele>31.75</ele></trkpt>
   <trkpt lat="-38.028948" lon="145.306592"><ele>30</ele></trkpt>
   <trkpt lat="-38.028621" lon="145.305978"><ele>29.5</ele></trkpt>
   <trkpt lat="-38.028137" lon="145.305036"><ele>28.5</ele></trkpt>
   <trkpt lat="-38.027573" lon="145.30393"><ele>27.25</ele></trkpt>
   <trkpt lat="-38.026091" lon="145.301123"><ele>24.5</ele></trkpt>
   <trkpt lat="-38.025818" lon="145.300573"><ele>24</ele></trkpt>
   <trkpt lat="-38.024985" lon="145.298781"><ele>24</ele></trkpt>
   <trkpt lat="-38.024707" lon="145.29821"><ele>23</ele></trkpt>
   <trkpt lat="-38.024303" lon="145.29741"><ele>21.5</ele></trkpt>
   <trkpt lat="-38.021126" lon="145.291317"><ele>19</ele></trkpt>
   <trkpt lat="-38.020637" lon="145.290355"><ele>19.75</ele></trkpt>
   <trkpt lat="-38.020475" lon="145.29"><ele>20.25</ele></trkpt>
   <trkpt lat="-38.020252" lon="145.28945"><ele>20</ele></trkpt>
   <trkpt lat="-38.020091" lon="145.28898"><ele>19.5</ele></trkpt>
   <trkpt lat="-38.019928" lon="145.288441"><ele>19</ele></trkpt>
   <trkpt lat="-38.019795" lon="145.287942"><ele>19</ele></trkpt>
   <trkpt lat="-38.019652" lon="145.287255"><ele>19.25</ele></trkpt>
   <trkpt lat="-38.0196" lon="145.28695"><ele>19</ele></trkpt>
   <trkpt lat="-38.019551" lon="145.286606"><ele>19</ele></trkpt>
   <trkpt lat="-38.019464" lon="145.285848"><ele>20.75</ele></trkpt>
   <trkpt lat="-38.019335" lon="145.284647"><ele>20.5</ele></trkpt>
   <trkpt lat="-38.01918" lon="145.283127"><ele>19.25</ele></trkpt>
   <trkpt lat="-38.018755" lon="145.279243"><ele>21.25</ele></trkpt>
   <trkpt lat="-38.018503" lon="145.276796"><ele>19.75</ele></trkpt>
   <trkpt lat="-38.018441" lon="145.275939"><ele>18.75</ele></trkpt>
   <trkpt lat="-38.018374" lon="145.274812"><ele>19</ele></trkpt>
   <trkpt lat="-38.018341" lon="145.274353"><ele>19.75</ele></trkpt>
   <trkpt lat="-38.018247" lon="145.273355"><ele>19</ele></trkpt>
   <trkpt lat="-38.018178" lon="145.272723"><ele>19.75</ele></trkpt>
   <trkpt lat="-38.018022" lon="145.271245"><ele>20.25</ele></trkpt>
   <trkpt lat="-38.017926" lon="145.270296"><ele>20.75</ele></trkpt>
   <trkpt lat="-38.017822" lon="145.269399"><ele>21.25</ele></trkpt>
   <trkpt lat="-38.017678" lon="145.268133"><ele>21.25</ele></trkpt>
   <trkpt lat="-38.017617" lon="145.267591"><ele>20.75</ele></trkpt>
   <trkpt lat="-38.017239" lon="145.26515"><ele>19.5</ele></trkpt>
   <trkpt lat="-38.017202" lon="145.264858"><ele>19.25</ele></trkpt>
   <trkpt lat="-38.016921" lon="145.262363"><ele>19.75</ele></trkpt>
   <trkpt lat="-38.016871" lon="145.26183"><ele>20</ele></trkpt>
   <trkpt lat="-38.016785" lon="145.261111"><ele>21.25</ele></trkpt>
   <trkpt lat="-38.016699" lon="145.26049"><ele>22.25</ele></trkpt>
   <trkpt lat="-38.016548" lon="145.259643"><ele>23.75</ele></trkpt>
   <trkpt lat="-38.016423" lon="145.259098"><ele>24</ele></trkpt>
   <trkpt lat="-38.016242" lon="145.258436"><ele>22.75</ele></trkpt>
   <trkpt lat="-38.015962" lon="145.257571"><ele>22.75</ele></trkpt>
   <trkpt lat="-38.015742" lon="145.257023"><ele>21.75</ele></trkpt>
   <trkpt lat="-38.012628" lon="145.250096"><ele>21.25</ele></trkpt>
   <trkpt lat="-38.011191" lon="145.246902"><ele>19.5</ele></trkpt>
   <trkpt lat="-38.010707" lon="145.245806"><ele>18.5</ele></trkpt>
   <trkpt lat="-38.009192" lon="145.24246"><ele>19.75</ele></trkpt>
   <trkpt lat="-38.005974" lon="145.235324"><ele>22</ele></trkpt>
   <trkpt lat="-38.005846" lon="145.23504"><ele>22</ele></trkpt>
   <trkpt lat="-38.003499" lon="145.229841"><ele>26</ele></trkpt>
   <trkpt lat="-38.003351" lon="145.229503"><ele>26</ele></trkpt>
   <trkpt lat="-38.001736" lon="145.225945"><ele>22.5</ele></trkpt>
   <trkpt lat="-38.000175" lon="145.222484"><ele>24.75</ele></trkpt>
   <trkpt lat="-38.000007" lon="145.222101"><ele>24.75</ele></trkpt>
   <trkpt lat="-37.999322" lon="145.220591"><ele>25.25</ele></trkpt>
   <trkpt lat="-37.998981" lon="145.219853"><ele>26.75</ele></trkpt>
   <trkpt lat="-37.998808" lon="145.219506"><ele>26.75</ele></trkpt>
   <trkpt lat="-37.998575" lon="145.219088"><ele>26.25</ele></trkpt>
   <trkpt lat="-37.998438" lon="145.218862"><ele>25.75</ele></trkpt>
   <trkpt lat="-37.998336" lon="145.218702"><ele>25.25</ele></trkpt>
   <trkpt lat="-37.998143" lon="145.21842"><ele>25</ele></trkpt>
   <trkpt lat="-37.997963" lon="145.218178"><ele>25</ele></trkpt>
   <trkpt lat="-37.997795" lon="145.217965"><ele>25</ele></trkpt>
   <trkpt lat="-37.99758" lon="145.217715"><ele>24.75</ele></trkpt>
   <trkpt lat="-37.997446" lon="145.21757"><ele>25</ele></trkpt>
   <trkpt lat="-37.997166" lon="145.217285"><ele>24.5</ele></trkpt>
   <trkpt lat="-37.996926" lon="145.217063"><ele>24.25</ele></trkpt>
   <trkpt lat="-37.996747" lon="145.21691"><ele>24.25</ele></trkpt>
   <trkpt lat="-37.996541" lon="145.216746"><ele>24</ele></trkpt>
   <trkpt lat="-37.996051" lon="145.216396"><ele>24</ele></trkpt>
   <trkpt lat="-37.994099" lon="145.215119"><ele>23.25</ele></trkpt>
   <trkpt lat="-37.99287" lon="145.214318"><ele>23.5</ele></trkpt>
   <trkpt lat="-37.992466" lon="145.214052"><ele>24</ele></trkpt>
   <trkpt lat="-37.992288" lon="145.213917"><ele>24</ele></trkpt>
   <trkpt lat="-37.992037" lon="145.213694"><ele>24</ele></trkpt>
   <trkpt lat="-37.991808" lon="145.213437"><ele>24</ele></trkpt>
   <trkpt lat="-37.991607" lon="145.213158"><ele>24</ele></trkpt>
   <trkpt lat="-37.991473" lon="145.212936"><ele>24</ele></trkpt>
   <trkpt lat="-37.991209" lon="145.212405"><ele>23.75</ele></trkpt>
   <trkpt lat="-37.991028" lon="145.212009"><ele>23.25</ele></trkpt>
   <trkpt lat="-37.990911" lon="145.211752"><ele>23</ele></trkpt>
   <trkpt lat="-37.990639" lon="145.211161"><ele>24.5</ele></trkpt>
   <trkpt lat="-37.990493" lon="145.210825"><ele>25.5</ele></trkpt>
   <trkpt lat="-37.990122" lon="145.210018"><ele>26.25</ele></trkpt>
   <trkpt lat="-37.989722" lon="145.209148"><ele>24.75</ele></trkpt>
   <trkpt lat="-37.98937" lon="145.208398"><ele>23.75</ele></trkpt>
   <trkpt lat="-37.989213" lon="145.207978"><ele>23.75</ele></trkpt>
   <trkpt lat="-37.98907" lon="145.207669"><ele>24.25</ele></trkpt>
   <trkpt lat="-37.988819" lon="145.207123"><ele>25.5</ele></trkpt>
   <trkpt lat="-37.988711" lon="145.206915"><ele>25.5</ele></trkpt>
   <trkpt lat="-37.988524" lon="145.206612"><ele>25.5</ele></trkpt>
   <trkpt lat="-37.987702" lon="145.205426"><ele>26</ele></trkpt>
   <trkpt lat="-37.987476" lon="145.2051"><ele>26.75</ele></trkpt>
   <trkpt lat="-37.985481" lon="145.202242"><ele>28.75</ele></trkpt>
   <trkpt lat="-37.98471" lon="145.201127"><ele>32</ele></trkpt>
   <trkpt lat="-37.984165" lon="145.200358"><ele>33.5</ele></trkpt>
   <trkpt lat="-37.982828" lon="145.198419"><ele>30</ele></trkpt>
   <trkpt lat="-37.981513" lon="145.196531"><ele>29.5</ele></trkpt>
   <trkpt lat="-37.98143" lon="145.196406"><ele>30.25</ele></trkpt>
   <trkpt lat="-37.979685" lon="145.193898"><ele>34.5</ele></trkpt>
   <trkpt lat="-37.979188" lon="145.193169"><ele>33</ele></trkpt>
   <trkpt lat="-37.978936" lon="145.192775"><ele>33.5</ele></trkpt>
   <trkpt lat="-37.978753" lon="145.192463"><ele>33.25</ele></trkpt>
   <trkpt lat="-37.978378" lon="145.191867"><ele>32.25</ele></trkpt>
   <trkpt lat="-37.978075" lon="145.19142"><ele>33.25</ele></trkpt>
   <trkpt lat="-37.977686" lon="145.190903"><ele>34.25</ele></trkpt>
   <trkpt lat="-37.977582" lon="145.190766"><ele>34.5</ele></trkpt>
   <trkpt lat="-37.977196" lon="145.190288"><ele>34.75</ele></trkpt>
   <trkpt lat="-37.976883" lon="145.189876"><ele>34.75</ele></trkpt>
   <trkpt lat="-37.976123" lon="145.188747"><ele>35</ele></trkpt>
   <trkpt lat="-37.975853" lon="145.188315"><ele>35</ele></trkpt>
   <trkpt lat="-37.975544" lon="145.187824"><ele>35</ele></trkpt>
   <trkpt lat="-37.975207" lon="145.187348"><ele>35.25</ele></trkpt>
   <trkpt lat="-37.972533" lon="145.183764"><ele>36.25</ele></trkpt>
   <trkpt lat="-37.971944" lon="145.183043"><ele>36.5</ele></trkpt>
   <trkpt lat="-37.969065" lon="145.179523"><ele>38.75</ele></trkpt>
   <trkpt lat="-37.968173" lon="145.178374"><ele>39.5</ele></trkpt>
   <trkpt lat="-37.967991" lon="145.178119"><ele>39.5</ele></trkpt>
   <trkpt lat="-37.967499" lon="145.177457"><ele>40</ele></trkpt>
   <trkpt lat="-37.967467" lon="145.177414"><ele>40</ele></trkpt>
   <trkpt lat="-37.96628" lon="145.175819"><ele>41</ele></trkpt>
   <trkpt lat="-37.965614" lon="145.174923"><ele>41.5</ele></trkpt>
   <trkpt lat="-37.965599" lon="145.174903"><ele>41.5</ele></trkpt>
   <trkpt lat="-37.965064" lon="145.174184"><ele>42</ele></trkpt>
   <trkpt lat="-37.96399" lon="145.172804"><ele>43</ele></trkpt>
   <trkpt lat="-37.963376" lon="145.171975"><ele>43.5</ele></trkpt>
   <trkpt lat="-37.962355" lon="145.170616"><ele>44.25</ele></trkpt>
   <trkpt lat="-37.961972" lon="145.170089"><ele>44.5</ele></trkpt>
   <trkpt lat="-37.961246" lon="145.169177"><ele>45.25</ele></trkpt>
   <trkpt lat="-37.960819" lon="145.168625"><ele>45.5</ele></trkpt>
   <trkpt lat="-37.960428" lon="145.168088"><ele>46</ele></trkpt>
   <trkpt lat="-37.959609" lon="145.166854"><ele>46</ele></trkpt>
   <trkpt lat="-37.959336" lon="145.166455"><ele>46.25</ele></trkpt>
   <trkpt lat="-37.958997" lon="145.165994"><ele>46.5</ele></trkpt>
   <trkpt lat="-37.958566" lon="145.165413"><ele>46.75</ele></trkpt>
   <trkpt lat="-37.957329" lon="145.163775"><ele>48</ele></trkpt>
   <trkpt lat="-37.956549" lon="145.162745"><ele>49.25</ele></trkpt>
   <trkpt lat="-37.956169" lon="145.162247"><ele>49</ele></trkpt>
   <trkpt lat="-37.955981" lon="145.161986"><ele>49.5</ele></trkpt>
   <trkpt lat="-37.955573" lon="145.16146"><ele>51</ele></trkpt>
   <trkpt lat="-37.954237" lon="145.15968"><ele>53</ele></trkpt>
   <trkpt lat="-37.953422" lon="145.158575"><ele>55</ele></trkpt>
   <trkpt lat="-37.952919" lon="145.157932"><ele>55.5</ele></trkpt>
   <trkpt lat="-37.952373" lon="145.157255"><ele>57.25</ele></trkpt>
   <trkpt lat="-37.951787" lon="145.156532"><ele>57.5</ele></trkpt>
   <trkpt lat="-37.95121" lon="145.155836"><ele>55.25</ele></trkpt>
   <trkpt lat="-37.950837" lon="145.155405"><ele>55</ele></trkpt>
   <trkpt lat="-37.950311" lon="145.154732"><ele>54.25</ele></trkpt>
   <trkpt lat="-37.950157" lon="145.154531"><ele>54.5</ele></trkpt>
   <trkpt lat="-37.949695" lon="145.153912"><ele>55.25</ele></trkpt>
   <trkpt lat="-37.949207" lon="145.153266"><ele>54.75</ele></trkpt>
   <trkpt lat="-37.949009" lon="145.153014"><ele>54.5</ele></trkpt>
   <trkpt lat="-37.948711" lon="145.152618"><ele>54.5</ele></trkpt>
   <trkpt lat="-37.948563" lon="145.152423"><ele>54.5</ele></trkpt>
   <trkpt lat="-37.948302" lon="145.152059"><ele>54.75</ele></trkpt>
   <trkpt lat="-37.947725" lon="145.151233"><ele>53.25</ele></trkpt>
   <trkpt lat="-37.947364" lon="145.150773"><ele>54</ele></trkpt>
   <trkpt lat="-37.947179" lon="145.150514"><ele>54</ele></trkpt>
   <trkpt lat="-37.946224" lon="145.149138"><ele>54.5</ele></trkpt>
   <trkpt lat="-37.944784" lon="145.147218"><ele>55</ele></trkpt>
   <trkpt lat="-37.943845" lon="145.145956"><ele>55.5</ele></trkpt>
   <trkpt lat="-37.941623" lon="145.143023"><ele>56</ele></trkpt>
   <trkpt lat="-37.939235" lon="145.139856"><ele>54.5</ele></trkpt>
   <trkpt lat="-37.938917" lon="145.139434"><ele>55.25</ele></trkpt>
   <trkpt lat="-37.938516" lon="145.138901"><ele>55.75</ele></trkpt>
   <trkpt lat="-37.938015" lon="145.13824"><ele>56</ele></trkpt>
   <trkpt lat="-37.937514" lon="145.137579"><ele>57</ele></trkpt>
   <trkpt lat="-37.935003" lon="145.134255"><ele>54</ele></trkpt>
   <trkpt lat="-37.934591" lon="145.133635"><ele>55.5</ele></trkpt>
   <trkpt lat="-37.93402" lon="145.13288"><ele>55.75</ele></trkpt>
   <trkpt lat="-37.933412" lon="145.13209"><ele>55.25</ele></trkpt>
   <trkpt lat="-37.933021" lon="145.131627"><ele>55.75</ele></trkpt>
   <trkpt lat="-37.931939" lon="145.130269"><ele>56.5</ele></trkpt>
   <trkpt lat="-37.931348" lon="145.129463"><ele>56.75</ele></trkpt>
   <trkpt lat="-37.930971" lon="145.128922"><ele>57.25</ele></trkpt>
   <trkpt lat="-37.930717" lon="145.128572"><ele>57.25</ele></trkpt>
   <trkpt lat="-37.929201" lon="145.126584"><ele>58.5</ele></trkpt>
   <trkpt lat="-37.928766" lon="145.126037"><ele>58.75</ele></trkpt>
   <trkpt lat="-37.92762" lon="145.124652"><ele>59.75</ele></trkpt>
   <trkpt lat="-37.927309" lon="145.124245"><ele>59.75</ele></trkpt>
   <trkpt lat="-37.927031" lon="145.123856"><ele>60</ele></trkpt>
   <trkpt lat="-37.926498" lon="145.123043"><ele>60.5</ele></trkpt>
   <trkpt lat="-37.926237" lon="145.122677"><ele>60.75</ele></trkpt>
   <trkpt lat="-37.925456" lon="145.121646"><ele>61.25</ele></trkpt>
   <trkpt lat="-37.925438" lon="145.121622"><ele>61.25</ele></trkpt>
   <trkpt lat="-37.924887" lon="145.120895"><ele>61.75</ele></trkpt>
   <trkpt lat="-37.924312" lon="145.120156"><ele>62.25</ele></trkpt>
   <trkpt lat="-37.924278" lon="145.120112"><ele>62.25</ele></trkpt>
   <trkpt lat="-37.923826" lon="145.119525"><ele>62.5</ele></trkpt>
   <trkpt lat="-37.922919" lon="145.118398"><ele>63.25</ele></trkpt>
   <trkpt lat="-37.922061" lon="145.117287"><ele>63.75</ele></trkpt>
   <trkpt lat="-37.921797" lon="145.116934"><ele>64</ele></trkpt>
   <trkpt lat="-37.921655" lon="145.116731"><ele>64.25</ele></trkpt>
   <trkpt lat="-37.920934" lon="145.115623"><ele>64.25</ele></trkpt>
   <trkpt lat="-37.920627" lon="145.115166"><ele>63.75</ele></trkpt>
   <trkpt lat="-37.920336" lon="145.114766"><ele>63.25</ele></trkpt>
   <trkpt lat="-37.920031" lon="145.114366"><ele>63.5</ele></trkpt>
   <trkpt lat="-37.912403" lon="145.104267"><ele>67</ele></trkpt>
   <trkpt lat="-37.912111" lon="145.103829"><ele>67.75</ele></trkpt>
   <trkpt lat="-37.911772" lon="145.103296"><ele>69</ele></trkpt>
   <trkpt lat="-37.911517" lon="145.102916"><ele>70.25</ele></trkpt>
   <trkpt lat="-37.911457" lon="145.102826"><ele>70.5</ele></trkpt>
   <trkpt lat="-37.910968" lon="145.102175"><ele>70.75</ele></trkpt>
   <trkpt lat="-37.910649" lon="145.101767"><ele>71.25</ele></trkpt>
   <trkpt lat="-37.910444" lon="145.101517"><ele>71</ele></trkpt>
   <trkpt lat="-37.910219" lon="145.101251"><ele>70.5</ele></trkpt>
   <trkpt lat="-37.909889" lon="145.100861"><ele>70</ele></trkpt>
   <trkpt lat="-37.909628" lon="145.100529"><ele>69.75</ele></trkpt>
   <trkpt lat="-37.906022" lon="145.095765"><ele>64.25</ele></trkpt>
   <trkpt lat="-37.904908" lon="145.094293"><ele>64.75</ele></trkpt>
   <trkpt lat="-37.904334" lon="145.093535"><ele>64</ele></trkpt>
   <trkpt lat="-37.901882" lon="145.090301"><ele>63</ele></trkpt>
   <trkpt lat="-37.901515" lon="145.089814"><ele>63.75</ele></trkpt>
   <trkpt lat="-37.901433" lon="145.089707"><ele>63.75</ele></trkpt>
   <trkpt lat="-37.900392" lon="145.088332"><ele>62.5</ele></trkpt>
   <trkpt lat="-37.899711" lon="145.087431"><ele>61.75</ele></trkpt>
   <trkpt lat="-37.899367" lon="145.086975"><ele>60.75</ele></trkpt>
   <trkpt lat="-37.899001" lon="145.086488"><ele>58.75</ele></trkpt>
   <trkpt lat="-37.898808" lon="145.086206"><ele>58.75</ele></trkpt>
   <trkpt lat="-37.898681" lon="145.086004"><ele>58.75</ele></trkpt>
   <trkpt lat="-37.89856" lon="145.085795"><ele>58.5</ele></trkpt>
   <trkpt lat="-37.898402" lon="145.08549"><ele>58</ele></trkpt>
   <trkpt lat="-37.897988" lon="145.084586"><ele>56.5</ele></trkpt>
   <trkpt lat="-37.897841" lon="145.084261"><ele>56</ele></trkpt>
   <trkpt lat="-37.896958" lon="145.082307"><ele>55</ele></trkpt>
   <trkpt lat="-37.895249" lon="145.078518"><ele>55</ele></trkpt>
   <trkpt lat="-37.895022" lon="145.077975"><ele>54.75</ele></trkpt>
   <trkpt lat="-37.894753" lon="145.077321"><ele>54.5</ele></trkpt>
   <trkpt lat="-37.894579" lon="145.076923"><ele>54.5</ele></trkpt>
   <trkpt lat="-37.894052" lon="145.075757"><ele>54</ele></trkpt>
   <trkpt lat="-37.892615" lon="145.072545"><ele>53.25</ele></trkpt>
   <trkpt lat="-37.891457" lon="145.069977"><ele>52.5</ele></trkpt>
   <trkpt lat="-37.891103" lon="145.069209"><ele>52.25</ele></trkpt>
   <trkpt lat="-37.890297" lon="145.067428"><ele>51.75</ele></trkpt>
   <trkpt lat="-37.889439" lon="145.065531"><ele>51</ele></trkpt>
   <trkpt lat="-37.88768" lon="145.061627"><ele>50</ele></trkpt>
   <trkpt lat="-37.887022" lon="145.060159"><ele>49.5</ele></trkpt>
   <trkpt lat="-37.886971" lon="145.060044"><ele>49.5</ele></trkpt>
   <trkpt lat="-37.88676" lon="145.059576"><ele>49.5</ele></trkpt>
   <trkpt lat="-37.886349" lon="145.05867"><ele>49.75</ele></trkpt>
   <trkpt lat="-37.885934" lon="145.057748"><ele>50</ele></trkpt>
   <trkpt lat="-37.88592" lon="145.057717"><ele>50</ele></trkpt>
   <trkpt lat="-37.885648" lon="145.057117"><ele>50</ele></trkpt>
   <trkpt lat="-37.883155" lon="145.051584"><ele>51.5</ele></trkpt>
   <trkpt lat="-37.882973" lon="145.05119"><ele>51.75</ele></trkpt>
   <trkpt lat="-37.882784" lon="145.050803"><ele>51.75</ele></trkpt>
   <trkpt lat="-37.882485" lon="145.050238"><ele>52</ele></trkpt>
   <trkpt lat="-37.881847" lon="145.049122"><ele>52.25</ele></trkpt>
   <trkpt lat="-37.88133" lon="145.048223"><ele>52.5</ele></trkpt>
   <trkpt lat="-37.88111" lon="145.047853"><ele>52.5</ele></trkpt>
   <trkpt lat="-37.880905" lon="145.047525"><ele>52.5</ele></trkpt>
   <trkpt lat="-37.880851" lon="145.047446"><ele>52.75</ele></trkpt>
   <trkpt lat="-37.88066" lon="145.047172"><ele>52.75</ele></trkpt>
   <trkpt lat="-37.880108" lon="145.046428"><ele>52.5</ele></trkpt>
   <trkpt lat="-37.879824" lon="145.046035"><ele>51.75</ele></trkpt>
   <trkpt lat="-37.879134" lon="145.044997"><ele>53</ele></trkpt>
   <trkpt lat="-37.87894" lon="145.04471"><ele>53.5</ele></trkpt>
   <trkpt lat="-37.878868" lon="145.044616"><ele>53.5</ele></trkpt>
   <trkpt lat="-37.878708" lon="145.044425"><ele>53.5</ele></trkpt>
   <trkpt lat="-37.878317" lon="145.043955"><ele>53.75</ele></trkpt>
   <trkpt lat="-37.878191" lon="145.043799"><ele>55.5</ele></trkpt>
   <trkpt lat="-37.878035" lon="145.043572"><ele>57.5</ele></trkpt>
   <trkpt lat="-37.877421" lon="145.042646"><ele>56.25</ele></trkpt>
   <trkpt lat="-37.877327" lon="145.042501"><ele>55</ele></trkpt>
   <trkpt lat="-37.877169" lon="145.042257"><ele>55</ele></trkpt>
   <trkpt lat="-37.877017" lon="145.042001"><ele>54.75</ele></trkpt>
   <trkpt lat="-37.876751" lon="145.041495"><ele>54</ele></trkpt>
   <trkpt lat="-37.876682" lon="145.041379"><ele>54</ele></trkpt>
   <trkpt lat="-37.876273" lon="145.040759"><ele>53</ele></trkpt>
   <trkpt lat="-37.876172" lon="145.040607"><ele>52.75</ele></trkpt>
   <trkpt lat="-37.876046" lon="145.040441"><ele>52.5</ele></trkpt>
   <trkpt lat="-37.87588" lon="145.040245"><ele>52</ele></trkpt>
   <trkpt lat="-37.875722" lon="145.040099"><ele>52</ele></trkpt>
   <trkpt lat="-37.875604" lon="145.039975"><ele>51.75</ele></trkpt>
   <trkpt lat="-37.87553" lon="145.039888"><ele>51.75</ele></trkpt>
   <trkpt lat="-37.87536" lon="145.039686"><ele>51.5</ele></trkpt>
   <trkpt lat="-37.875217" lon="145.03952"><ele>51.25</ele></trkpt>
   <trkpt lat="-37.874732" lon="145.038971"><ele>51.25</ele></trkpt>
   <trkpt lat="-37.871507" lon="145.035382"><ele>47.75</ele></trkpt>
   <trkpt lat="-37.871425" lon="145.035294"><ele>47.5</ele></trkpt>
   <trkpt lat="-37.868431" lon="145.031959"><ele>51.25</ele></trkpt>
   <trkpt lat="-37.868239" lon="145.031746"><ele>51.75</ele></trkpt>
   <trkpt lat="-37.8678" lon="145.031255"><ele>51</ele></trkpt>
   <trkpt lat="-37.866852" lon="145.030165"><ele>52.75</ele></trkpt>
   <trkpt lat="-37.866828" lon="145.030138"><ele>52.75</ele></trkpt>
   <trkpt lat="-37.866808" lon="145.030115"><ele>52.75</ele></trkpt>
   <trkpt lat="-37.866104" lon="145.029306"><ele>55</ele></trkpt>
   <trkpt lat="-37.862892" lon="145.025791"><ele>53.25</ele></trkpt>
   <trkpt lat="-37.862024" lon="145.024847"><ele>52</ele></trkpt>
   <trkpt lat="-37.861427" lon="145.024255"><ele>52.5</ele></trkpt>
   <trkpt lat="-37.857497" lon="145.02049"><ele>49.75</ele></trkpt>
   <trkpt lat="-37.857147" lon="145.020166"><ele>48.75</ele></trkpt>
   <trkpt lat="-37.856863" lon="145.01993"><ele>47.75</ele></trkpt>
   <trkpt lat="-37.856648" lon="145.019761"><ele>47.25</ele></trkpt>
   <trkpt lat="-37.856353" lon="145.019512"><ele>47.5</ele></trkpt>
   <trkpt lat="-37.856156" lon="145.019325"><ele>47.25</ele></trkpt>
   <trkpt lat="-37.855896" lon="145.019048"><ele>47</ele></trkpt>
   <trkpt lat="-37.855548" lon="145.018637"><ele>47.75</ele></trkpt>
   <trkpt lat="-37.855298" lon="145.018368"><ele>48</ele></trkpt>
   <trkpt lat="-37.852474" lon="145.015637"><ele>42.75</ele></trkpt>
   <trkpt lat="-37.851855" lon="145.015035"><ele>42</ele></trkpt>
   <trkpt lat="-37.851163" lon="145.014348"><ele>42.25</ele></trkpt>
   <trkpt lat="-37.849446" lon="145.012626"><ele>39.75</ele></trkpt>
   <trkpt lat="-37.849052" lon="145.012206"><ele>38.75</ele></trkpt>
   <trkpt lat="-37.848738" lon="145.01183"><ele>37.75</ele></trkpt>
   <trkpt lat="-37.848448" lon="145.011439"><ele>36.5</ele></trkpt>
   <trkpt lat="-37.848061" lon="145.010835"><ele>36</ele></trkpt>
   <trkpt lat="-37.847793" lon="145.010346"><ele>34</ele></trkpt>
   <trkpt lat="-37.847708" lon="145.010179"><ele>33.25</ele></trkpt>
   <trkpt lat="-37.847473" lon="145.009665"><ele>31.75</ele></trkpt>
   <trkpt lat="-37.847386" lon="145.009453"><ele>31.75</ele></trkpt>
   <trkpt lat="-37.846574" lon="145.007301"><ele>32.75</ele></trkpt>
   <trkpt lat="-37.846498" lon="145.007083"><ele>31.75</ele></trkpt>
   <trkpt lat="-37.845355" lon="145.00389"><ele>26.25</ele></trkpt>
   <trkpt lat="-37.845263" lon="145.003631"><ele>25.75</ele></trkpt>
   <trkpt lat="-37.845139" lon="145.003317"><ele>25.25</ele></trkpt>
   <trkpt lat="-37.845061" lon="145.003148"><ele>24.75</ele></trkpt>
   <trkpt lat="-37.844833" lon="145.002701"><ele>23.75</ele></trkpt>
   <trkpt lat="-37.844617" lon="145.00225"><ele>23</ele></trkpt>
   <trkpt lat="-37.844447" lon="145.001832"><ele>22.25</ele></trkpt>
   <trkpt lat="-37.84428" lon="145.001349"><ele>21</ele></trkpt>
   <trkpt lat="-37.8442" lon="145.001087"><ele>20.25</ele></trkpt>
   <trkpt lat="-37.844094" lon="145.000771"><ele>20</ele></trkpt>
   <trkpt lat="-37.843998" lon="145.000518"><ele>20</ele></trkpt>
   <trkpt lat="-37.843793" lon="145.000027"><ele>20</ele></trkpt>
   <trkpt lat="-37.843647" lon="144.999705"><ele>19</ele></trkpt>
   <trkpt lat="-37.843453" lon="144.999187"><ele>17</ele></trkpt>
   <trkpt lat="-37.8433" lon="144.998846"><ele>16.5</ele></trkpt>
   <trkpt lat="-37.843218" lon="144.998661"><ele>16</ele></trkpt>
   <trkpt lat="-37.843" lon="144.998175"><ele>16</ele></trkpt>
   <trkpt lat="-37.842757" lon="144.997726"><ele>17.75</ele></trkpt>
   <trkpt lat="-37.842434" lon="144.997005"><ele>21</ele></trkpt>
   <trkpt lat="-37.842279" lon="144.996642"><ele>21.75</ele></trkpt>
   <trkpt lat="-37.842053" lon="144.99604"><ele>21.25</ele></trkpt>
   <trkpt lat="-37.841923" lon="144.995667"><ele>20.5</ele></trkpt>
   <trkpt lat="-37.84162" lon="144.994802"><ele>18</ele></trkpt>
   <trkpt lat="-37.841587" lon="144.994706"><ele>18</ele></trkpt>
   <trkpt lat="-37.841435" lon="144.994331"><ele>18.5</ele></trkpt>
   <trkpt lat="-37.841325" lon="144.994077"><ele>18.5</ele></trkpt>
   <trkpt lat="-37.84126" lon="144.993947"><ele>18.5</ele></trkpt>
   <trkpt lat="-37.841009" lon="144.993523"><ele>17.25</ele></trkpt>
   <trkpt lat="-37.840763" lon="144.993156"><ele>16</ele></trkpt>
   <trkpt lat="-37.840679" lon="144.993047"><ele>16</ele></trkpt>
   <trkpt lat="-37.840574" lon="144.992926"><ele>16</ele></trkpt>
   <trkpt lat="-37.840423" lon="144.99279"><ele>15.75</ele></trkpt>
   <trkpt lat="-37.840265" lon="144.992673"><ele>15.25</ele></trkpt>
   <trkpt lat="-37.840079" lon="144.992567"><ele>14.5</ele></trkpt>
   <trkpt lat="-37.839968" lon="144.992518"><ele>14</ele></trkpt>
   <trkpt lat="-37.839782" lon="144.992454"><ele>15</ele></trkpt>
   <trkpt lat="-37.839593" lon="144.992406"><ele>15.75</ele></trkpt>
   <trkpt lat="-37.839402" lon="144.992378"><ele>16.5</ele></trkpt>
   <trkpt lat="-37.839187" lon="144.992368"><ele>16.5</ele></trkpt>
   <trkpt lat="-37.839036" lon="144.992375"><ele>16.75</ele></trkpt>
   <trkpt lat="-37.838884" lon="144.992393"><ele>17</ele></trkpt>
   <trkpt lat="-37.838834" lon="144.992401"><ele>17</ele></trkpt>
   <trkpt lat="-37.838653" lon="144.992435"><ele>17</ele></trkpt>
   <trkpt lat="-37.837195" lon="144.992742"><ele>13.5</ele></trkpt>
   <trkpt lat="-37.836281" lon="144.992929"><ele>15.25</ele></trkpt>
   <trkpt lat="-37.83583" lon="144.992995"><ele>15.5</ele></trkpt>
   <trkpt lat="-37.834797" lon="144.993117"><ele>17.25</ele></trkpt>
   <trkpt lat="-37.834505" lon="144.99316"><ele>16.25</ele></trkpt>
   <trkpt lat="-37.834238" lon="144.99321"><ele>15</ele></trkpt>
   <trkpt lat="-37.832827" lon="144.993502"><ele>12.75</ele></trkpt>
   <trkpt lat="-37.830952" lon="144.993903"><ele>14.75</ele></trkpt>
   <trkpt lat="-37.83027" lon="144.994021"><ele>14.75</ele></trkpt>
   <trkpt lat="-37.830103" lon="144.994049"><ele>14.75</ele></trkpt>
   <trkpt lat="-37.828537" lon="144.99432"><ele>13</ele></trkpt>
   <trkpt lat="-37.828227" lon="144.99434"><ele>13.25</ele></trkpt>
   <trkpt lat="-37.827916" lon="144.994323"><ele>14</ele></trkpt>
   <trkpt lat="-37.82761" lon="144.994271"><ele>14.5</ele></trkpt>
   <trkpt lat="-37.827281" lon="144.994157"><ele>14.5</ele></trkpt>
   <trkpt lat="-37.827166" lon="144.994115"><ele>14.5</ele></trkpt>
   <trkpt lat="-37.826804" lon="144.993962"><ele>14</ele></trkpt>
   <trkpt lat="-37.826564" lon="144.993804"><ele>14</ele></trkpt>
   <trkpt lat="-37.826249" lon="144.993567"><ele>14.5</ele></trkpt>
   <trkpt lat="-37.825948" lon="144.993277"><ele>14.5</ele></trkpt>
   <trkpt lat="-37.82575" lon="144.993052"><ele>14.25</ele></trkpt>
   <trkpt lat="-37.825596" lon="144.992866"><ele>13.5</ele></trkpt>
   <trkpt lat="-37.825161" lon="144.99231"><ele>11.5</ele></trkpt>
   <trkpt lat="-37.824914" lon="144.99199"><ele>11</ele></trkpt>
   <trkpt lat="-37.824705" lon="144.991712"><ele>11</ele></trkpt>
   <trkpt lat="-37.824538" lon="144.991457"><ele>11.5</ele></trkpt>
   <trkpt lat="-37.824246" lon="144.990873"><ele>12.5</ele></trkpt>
   <trkpt lat="-37.824043" lon="144.990267"><ele>11.25</ele></trkpt>
   <trkpt lat="-37.824013" lon="144.99015"><ele>11.25</ele></trkpt>
   <trkpt lat="-37.824008" lon="144.990132"><ele>11.25</ele></trkpt>
   <trkpt lat="-37.823996" lon="144.990091"><ele>11.25</ele></trkpt>
   <trkpt lat="-37.823736" lon="144.989146"><ele>11.25</ele></trkpt>
   <trkpt lat="-37.82363" lon="144.988761"><ele>11.25</ele></trkpt>
   <trkpt lat="-37.823536" lon="144.988418"><ele>11.25</ele></trkpt>
   <trkpt lat="-37.823437" lon="144.988058"><ele>11</ele></trkpt>
   <trkpt lat="-37.823418" lon="144.988005"><ele>11</ele></trkpt>
   <trkpt lat="-37.823249" lon="144.987206"><ele>11.25</ele></trkpt>
   <trkpt lat="-37.823132" lon="144.986692"><ele>11.25</ele></trkpt>
   <trkpt lat="-37.822956" lon="144.986141"><ele>11.5</ele></trkpt>
   <trkpt lat="-37.8226" lon="144.985076"><ele>10.25</ele></trkpt>
   <trkpt lat="-37.822419" lon="144.984588"><ele>10.5</ele></trkpt>
   <trkpt lat="-37.822252" lon="144.984176"><ele>11.75</ele></trkpt>
   <trkpt lat="-37.822086" lon="144.983824"><ele>12.75</ele></trkpt>
   <trkpt lat="-37.821969" lon="144.983597"><ele>13.75</ele></trkpt>
   <trkpt lat="-37.821735" lon="144.983175"><ele>14.75</ele></trkpt>
   <trkpt lat="-37.821419" lon="144.982641"><ele>14.25</ele></trkpt>
   <trkpt lat="-37.821295" lon="144.982433"><ele>14.25</ele></trkpt>
   <trkpt lat="-37.820793" lon="144.981598"/>
   <trkpt lat="-37.82006" lon="144.980451"/>
   <trkpt lat="-37.819733" lon="144.979989"/>
   <trkpt lat="-37.819473" lon="144.979669"/>
   <trkpt lat="-37.819103" lon="144.979215"/>
   <trkpt lat="-37.818811" lon="144.978826"/>
   <trkpt lat="-37.818559" lon="144.978453"/>
   <trkpt lat="-37.817955" lon="144.97745"/>
   <trkpt lat="-37.817711" lon="144.977079"/>
   <trkpt lat="-37.817412" lon="144.976703"/>
   <trkpt lat="-37.817189" lon="144.976468"/>
   <trkpt lat="-37.816975" lon="144.976263"/>
   <trkpt lat="-37.816716" lon="144.97605"/>
   <trkpt lat="-37.816501" lon="144.975896"/>
   <trkpt lat="-37.816254" lon="144.975743"/>
   <trkpt lat="-37.816054" lon="144.975637"><ele>45.75</ele></trkpt>
   <trkpt lat="-37.815991" lon="144.975605"><ele>45.75</ele></trkpt>
   <trkpt lat="-37.815572" lon="144.975405"><ele>45.75</ele></trkpt>
   <trkpt lat="-37.813216" lon="144.974319"><ele>45.75</ele></trkpt>
   <trkpt lat="-37.812958" lon="144.974181"><ele>45.75</ele></trkpt>
   <trkpt lat="-37.81271" lon="144.974036"><ele>45.75</ele></trkpt>
   <trkpt lat="-37.81235" lon="144.973796"><ele>45.75</ele></trkpt>
   <trkpt lat="-37.811968" lon="144.973585"><ele>45.75</ele></trkpt>
   <trkpt lat="-37.81156" lon="144.973408"><ele>45.75</ele></trkpt>
   <trkpt lat="-37.810964" lon="144.97313"><ele>45.75</ele></trkpt>
   <trkpt lat="-37.810222" lon="144.972783"><ele>45.75</ele></trkpt>
   <trkpt lat="-37.809719" lon="144.972517"><ele>45.75</ele></trkpt>
   <trkpt lat="-37.809422" lon="144.972341"><ele>45.75</ele></trkpt>
   <trkpt lat="-37.809193" lon="144.972158"><ele>45.75</ele></trkpt>
   <trkpt lat="-37.808982" lon="144.971952"><ele>45.75</ele></trkpt>
   <trkpt lat="-37.808785" lon="144.971714"><ele>45.75</ele></trkpt>
   <trkpt lat="-37.808647" lon="144.971519"><ele>45.75</ele></trkpt>
   <trkpt lat="-37.808478" lon="144.971228"><ele>45.75</ele></trkpt>
   <trkpt lat="-37.80835" lon="144.970953"><ele>45.75</ele></trkpt>
   <trkpt lat="-37.808252" lon="144.970694"><ele>45.75</ele></trkpt>
   <trkpt lat="-37.80818" lon="144.970447"><ele>45.75</ele></trkpt>
   <trkpt lat="-37.808118" lon="144.970172"><ele>45.75</ele></trkpt>
   <trkpt lat="-37.808078" lon="144.969918"><ele>45.75</ele></trkpt>
   <trkpt lat="-37.808055" lon="144.969689"><ele>45.75</ele></trkpt>
   <trkpt lat="-37.808044" lon="144.969391"><ele>45.75</ele></trkpt>
   <trkpt lat="-37.80805" lon="144.96911"><ele>45.75</ele></trkpt>
   <trkpt lat="-37.808075" lon="144.968878"><ele>45.75</ele></trkpt>
   <trkpt lat="-37.808114" lon="144.9686"><ele>45.75</ele></trkpt>
   <trkpt lat="-37.808211" lon="144.968208"><ele>45.75</ele></trkpt>
   <trkpt lat="-37.809899" lon="144.962453"><ele>45.75</ele></trkpt>
   <trkpt lat="-37.811743" lon="144.955965"><ele>45.75</ele></trkpt>
   <trkpt lat="-37.811801" lon="144.955762"><ele>45.75</ele></trkpt>
   <trkpt lat="-37.812847" lon="144.952078"/>
   <trkpt lat="-37.812974" lon="144.951618"/>
   <trkpt lat="-37.813094" lon="144.95128"/>
   <trkpt lat="-37.81324" lon="144.950974"/>
   <trkpt lat="-37.813342" lon="144.950798"/>
   <trkpt lat="-37.813448" lon="144.950643"/>
   <trkpt lat="-37.813596" lon="144.950452"/>
   <trkpt lat="-37.813771" lon="144.950274"/>
   <trkpt lat="-37.813783" lon="144.950263"><ele>11.25</ele></trkpt>
   <trkpt lat="-37.813946" lon="144.950118"><ele>11.25</ele></trkpt>
   <trkpt lat="-37.814153" lon="144.949974"><ele>11.25</ele></trkpt>
   <trkpt lat="-37.814279" lon="144.949901"><ele>11.25</ele></trkpt>
   <trkpt lat="-37.814411" lon="144.949839"><ele>11.25</ele></trkpt>
   <trkpt lat="-37.81454" lon="144.949789"><ele>11.25</ele></trkpt>
   <trkpt lat="-37.814735" lon="144.94973"><ele>11.25</ele></trkpt>
   <trkpt lat="-37.814906" lon="144.949697"><ele>11.25</ele></trkpt>
   <trkpt lat="-37.815073" lon="144.949679"><ele>11.25</ele></trkpt>
   <trkpt lat="-37.815232" lon="144.949673"><ele>11.25</ele></trkpt>
   <trkpt lat="-37.815491" lon="144.949701"><ele>11.25</ele></trkpt>
   <trkpt lat="-37.815705" lon="144.949747"><ele>11.25</ele></trkpt>
   <trkpt lat="-37.815917" lon="144.949817"><ele>11.25</ele></trkpt>
   <trkpt lat="-37.816104" lon="144.949906"><ele>11.25</ele></trkpt>
   <trkpt lat="-37.816326" lon="144.950056"><ele>11.25</ele></trkpt>
   <trkpt lat="-37.816771" lon="144.950389"><ele>10.25</ele></trkpt>
   <trkpt lat="-37.817349" lon="144.950845"><ele>12.25</ele></trkpt>
   <trkpt lat="-37.81753" lon="144.950995"><ele>12.5</ele></trkpt>
   <trkpt lat="-37.817615" lon="144.951062"><ele>12.25</ele></trkpt>
   <trkpt lat="-37.817934" lon="144.951313"><ele>11.75</ele></trkpt>
   <trkpt lat="-37.818425" lon="144.951701"><ele>11.25</ele></trkpt>
   <trkpt lat="-37.819261" lon="144.952357"><ele>6</ele></trkpt>
   <trkpt lat="-37.819457" lon="144.952505"><ele>7</ele></trkpt>
   <trkpt lat="-37.819771" lon="144.952719"><ele>9.5</ele></trkpt>
   <trkpt lat="-37.819928" lon="144.952851"><ele>10.5</ele></trkpt>
   <trkpt lat="-37.820017" lon="144.952937"><ele>11</ele></trkpt>
   <trkpt lat="-37.820158" lon="144.953102"><ele>11</ele></trkpt>
   <trkpt lat="-37.820549" lon="144.953632"><ele>13.5</ele></trkpt>
   <trkpt lat="-37.820919" lon="144.954152"><ele>13.5</ele></trkpt>
   <trkpt lat="-37.821005" lon="144.954285"><ele>13.5</ele></trkpt>
   <trkpt lat="-37.82116" lon="144.954607"><ele>13.5</ele></trkpt>
   <trkpt lat="-37.821265" lon="144.954897"><ele>13.5</ele></trkpt>
   <trkpt lat="-37.82134" lon="144.955168"><ele>13.5</ele></trkpt>
   <trkpt lat="-37.82139" lon="144.955464"><ele>13.5</ele></trkpt>
   <trkpt lat="-37.821409" lon="144.955785"><ele>13.75</ele></trkpt>
   <trkpt lat="-37.821398" lon="144.956114"><ele>13.75</ele></trkpt>
   <trkpt lat="-37.821363" lon="144.956433"><ele>13.75</ele></trkpt>
   <trkpt lat="-37.821302" lon="144.956719"><ele>13.75</ele></trkpt>
   <trkpt lat="-37.821213" lon="144.957017"><ele>13.75</ele></trkpt>
   <trkpt lat="-37.821095" lon="144.957308"><ele>13.75</ele></trkpt>
   <trkpt lat="-37.820952" lon="144.957576"><ele>13.75</ele></trkpt>
   <trkpt lat="-37.820684" lon="144.958008"><ele>14</ele></trkpt>
   <trkpt lat="-37.820515" lon="144.958263"><ele>14</ele></trkpt>
   <trkpt lat="-37.820363" lon="144.958552"><ele>14</ele></trkpt>
   <trkpt lat="-37.820243" lon="144.958824"><ele>14</ele></trkpt>
   <trkpt lat="-37.820157" lon="144.959043"><ele>14</ele></trkpt>
   <trkpt lat="-37.819804" lon="144.960211"><ele>14.25</ele></trkpt>
   <trkpt lat="-37.819741" lon="144.96043"><ele>14.25</ele></trkpt>
   <trkpt lat="-37.819684" lon="144.960677"><ele>14.25</ele></trkpt>
   <trkpt lat="-37.819647" lon="144.960874"><ele>14.25</ele></trkpt>
   <trkpt lat="-37.819604" lon="144.961167"><ele>14.25</ele></trkpt>
   <trkpt lat="-37.819573" lon="144.961497"><ele>14.25</ele></trkpt>
   <trkpt lat="-37.819565" lon="144.961652"><ele>14.5</ele></trkpt>
   <trkpt lat="-37.819533" lon="144.962072"><ele>14.5</ele></trkpt>
   <trkpt lat="-37.819478" lon="144.962414"><ele>14</ele></trkpt>
   <trkpt lat="-37.819398" lon="144.962709"><ele>13.75</ele></trkpt>
   <trkpt lat="-37.819346" lon="144.962864"><ele>13.25</ele></trkpt>
   <trkpt lat="-37.819301" lon="144.963039"><ele>12.5</ele></trkpt>
   <trkpt lat="-37.819244" lon="144.963305"><ele>11</ele></trkpt>
   <trkpt lat="-37.819088" lon="144.963944"><ele>11.75</ele></trkpt>
   <trkpt lat="-37.818917" lon="144.96473"><ele>11.75</ele></trkpt>
   <trkpt lat="-37.818819" lon="144.965157"><ele>12.25</ele></trkpt>
   <trkpt lat="-37.818718" lon="144.965541"><ele>13.5</ele></trkpt>
   <trkpt lat="-37.818616" lon="144.965898"><ele>14.5</ele></trkpt>
   <trkpt lat="-37.818426" lon="144.966616"><ele>15.5</ele></trkpt>
   <trkpt lat="-37.818411" lon="144.966673"><ele>15.5</ele></trkpt>
   <trkpt lat="-37.818318" lon="144.966997"><ele>15.25</ele></trkpt>
   <trkpt lat="-37.818154" lon="144.967578"><ele>14.75</ele></trkpt>
   <trkpt lat="-37.817997" lon="144.968125"><ele>14.25</ele></trkpt>
   <trkpt lat="-37.817858" lon="144.968804"><ele>13.75</ele></trkpt>
   <trkpt lat="-37.817804" lon="144.969017"><ele>13.75</ele></trkpt>
   <trkpt lat="-37.817651" lon="144.969538"><ele>13.25</ele></trkpt>
   <trkpt lat="-37.817603" lon="144.9697"><ele>13.25</ele></trkpt>
   <trkpt lat="-37.817427" lon="144.970422"><ele>12.75</ele></trkpt>
   <trkpt lat="-37.817395" lon="144.970538"><ele>12.75</ele></trkpt>
   <trkpt lat="-37.817339" lon="144.970817"><ele>10.5</ele></trkpt>
   <trkpt lat="-37.81727" lon="144.971102"><ele>11.25</ele></trkpt>
   <trkpt lat="-37.817187" lon="144.971359"><ele>12</ele></trkpt>
   <trkpt lat="-37.817038" lon="144.971963"><ele>13.25</ele></trkpt>
   <trkpt lat="-37.81698" lon="144.972299"><ele>14</ele></trkpt>
   <trkpt lat="-37.816947" lon="144.972566"><ele>13.75</ele></trkpt>
   <trkpt lat="-37.816926" lon="144.972851"><ele>11.5</ele></trkpt>
   <trkpt lat="-37.816927" lon="144.973414"><ele>8.5</ele></trkpt>
   <trkpt lat="-37.816934" lon="144.973708"><ele>9.5</ele></trkpt>
   <trkpt lat="-37.816944" lon="144.973877"><ele>10.5</ele></trkpt>
   <trkpt lat="-37.817023" lon="144.97443"><ele>12.75</ele></trkpt>
   <trkpt lat="-37.81712" lon="144.974813"><ele>13.75</ele></trkpt>
   <trkpt lat="-37.817205" lon="144.975095"><ele>13.5</ele></trkpt>
   <trkpt lat="-37.817283" lon="144.97533"><ele>12</ele></trkpt>
   <trkpt lat="-37.817382" lon="144.97557"><ele>10.75</ele></trkpt>
   <trkpt lat="-37.817499" lon="144.975827"><ele>10</ele></trkpt>
   <trkpt lat="-37.817657" lon="144.976132"><ele>8.5</ele></trkpt>
   <trkpt lat="-37.818277" lon="144.977176"><ele>8.75</ele></trkpt>
   <trkpt lat="-37.818451" lon="144.977487"><ele>9.5</ele></trkpt>
   <trkpt lat="-37.818623" lon="144.977821"><ele>10.25</ele></trkpt>
   <trkpt lat="-37.818922" lon="144.97836"><ele>10</ele></trkpt>
   <trkpt lat="-37.819316" lon="144.979035"><ele>9</ele></trkpt>
   <trkpt lat="-37.81946" lon="144.979276"><ele>8.5</ele></trkpt>
   <trkpt lat="-37.819667" lon="144.979626"><ele>7.5</ele></trkpt>
   <trkpt lat="-37.819809" lon="144.979869"><ele>7.25</ele></trkpt>
   <trkpt lat="-37.819963" lon="144.980205"><ele>7.25</ele></trkpt>
   <trkpt lat="-37.820094" lon="144.980496"><ele>7.75</ele></trkpt>
   <trkpt lat="-37.82032" lon="144.980883"><ele>8</ele></trkpt>
   <trkpt lat="-37.820483" lon="144.981167"><ele>9.25</ele></trkpt>
   <trkpt lat="-37.820645" lon="144.981388"><ele>10.5</ele></trkpt>
   <trkpt lat="-37.820898" lon="144.981693"><ele>12</ele></trkpt>
   <trkpt lat="-37.821102" lon="144.98199"><ele>13</ele></trkpt>
   <trkpt lat="-37.821453" lon="144.982584"><ele>14.25</ele></trkpt>
  </trkseg>
 </trk>
</gpx>