<?xml version="1.0" encoding="UTF-8"?>
<!-- track-length = 17731 filtered ascend = 18 plain-ascend = -7 cost=17731 energy=0.2kwh time=23m 38s -->
<gpx 
 xmlns="http://www.topografix.com/GPX/1/1" 
 xmlns:xsi="http://www.w3.org/2001/XMLSchema-instance" 
 xsi:schemaLocation="http://www.topografix.com/GPX/1/1 http://www.topografix.com/GPX/1/1/gpx.xsd" 
 version="1.1" 
 creator="BRouter-Web 0.18.1">
 <trk>
  <name>SHM</name>
  <trkseg>
   <trkpt lat="-37.950813" lon="145.004404"><ele>19.5</ele></trkpt>
   <trkpt lat="-37.9508" lon="145.004407"><ele>19.5</ele></trkpt>
   <trkpt lat="-37.949483" lon="145.004659"><ele>19.5</ele></trkpt>
   <trkpt lat="-37.949442" lon="145.004666"><ele>19.5</ele></trkpt>
   <trkpt lat="-37.948936" lon="145.004762"><ele>20</ele></trkpt>
   <trkpt lat="-37.94885" lon="145.004777"><ele>20.25</ele></trkpt>
   <trkpt lat="-37.948767" lon="145.004794"><ele>20.25</ele></trkpt>
   <trkpt lat="-37.948677" lon="145.004811"><ele>20.25</ele></trkpt>
   <trkpt lat="-37.948202" lon="145.004944"><ele>20.75</ele></trkpt>
   <trkpt lat="-37.948073" lon="145.004969"><ele>20.75</ele></trkpt>
   <trkpt lat="-37.944991" lon="145.005556"><ele>26</ele></trkpt>
   <trkpt lat="-37.944746" lon="145.005601"><ele>26</ele></trkpt>
   <trkpt lat="-37.944427" lon="145.005648"><ele>26.25</ele></trkpt>
   <trkpt lat="-37.94419" lon="145.005671"><ele>26</ele></trkpt>
   <trkpt lat="-37.943888" lon="145.005679"><ele>25</ele></trkpt>
   <trkpt lat="-37.943615" lon="145.005667"><ele>24</ele></trkpt>
   <trkpt lat="-37.943383" lon="145.005645"><ele>23.25</ele></trkpt>
   <trkpt lat="-37.943116" lon="145.005603"><ele>22.5</ele></trkpt>
   <trkpt lat="-37.942819" lon="145.005537"><ele>21.75</ele></trkpt>
   <trkpt lat="-37.942529" lon="145.005451"><ele>21</ele></trkpt>
   <trkpt lat="-37.942454" lon="145.005425"><ele>20.75</ele></trkpt>
   <trkpt lat="-37.942267" lon="145.005355"><ele>20.5</ele></trkpt>
   <trkpt lat="-37.942053" lon="145.005262"><ele>20.25</ele></trkpt>
   <trkpt lat="-37.941785" lon="145.005129"><ele>20</ele></trkpt>
   <trkpt lat="-37.941593" lon="145.005022"><ele>19.75</ele></trkpt>
   <trkpt lat="-37.941415" lon="145.004911"><ele>19.25</ele></trkpt>
   <trkpt lat="-37.941139" lon="145.004718"><ele>18.5</ele></trkpt>
   <trkpt lat="-37.941005" lon="145.004616"><ele>18</ele></trkpt>
   <trkpt lat="-37.940787" lon="145.004434"><ele>17.25</ele></trkpt>
   <trkpt lat="-37.940567" lon="145.004228"><ele>17.25</ele></trkpt>
   <trkpt lat="-37.94043" lon="145.004087"><ele>17.25</ele></trkpt>
   <trkpt lat="-37.94016" lon="145.003796"><ele>17</ele></trkpt>
   <trkpt lat="-37.938889" lon="145.002387"><ele>15.25</ele></trkpt>
   <trkpt lat="-37.938787" lon="145.002271"><ele>15.25</ele></trkpt>
   <trkpt lat="-37.9387" lon="145.002177"><ele>15.5</ele></trkpt>
   <trkpt lat="-37.938618" lon="145.002086"><ele>15.5</ele></trkpt>
   <trkpt lat="-37.937703" lon="145.00107"><ele>13.75</ele></trkpt>
   <trkpt lat="-37.936801" lon="145.000072"><ele>13</ele></trkpt>
   <trkpt lat="-37.936704" lon="144.999964"><ele>12.75</ele></trkpt>
   <trkpt lat="-37.93517" lon="144.998265"><ele>11.75</ele></trkpt>
   <trkpt lat="-37.934577" lon="144.997609"><ele>11</ele></trkpt>
   <trkpt lat="-37.934385" lon="144.997386"><ele>10.5</ele></trkpt>
   <trkpt lat="-37.934302" lon="144.997285"><ele>10.25</ele></trkpt>
   <trkpt lat="-37.934161" lon="144.997093"><ele>10</ele></trkpt>
   <trkpt lat="-37.934047" lon="144.996918"><ele>9.5</ele></trkpt>
   <trkpt lat="-37.93391" lon="144.996684"><ele>9.25</ele></trkpt>
   <trkpt lat="-37.933818" lon="144.99651"><ele>9.25</ele></trkpt>
   <trkpt lat="-37.933092" lon="144.994985"><ele>8.25</ele></trkpt>
   <trkpt lat="-37.932971" lon="144.994744"><ele>8.25</ele></trkpt>
   <trkpt lat="-37.932881" lon="144.994578"><ele>8.25</ele></trkpt>
   <trkpt lat="-37.932781" lon="144.994412"><ele>8.25</ele></trkpt>
   <trkpt lat="-37.932691" lon="144.994276"><ele>8.25</ele></trkpt>
   <trkpt lat="-37.932497" lon="144.994018"><ele>8.25</ele></trkpt>
   <trkpt lat="-37.932398" lon="144.993901"><ele>8.25</ele></trkpt>
   <trkpt lat="-37.932241" lon="144.993732"><ele>8.5</ele></trkpt>
   <trkpt lat="-37.931839" lon="144.993351"><ele>8.5</ele></trkpt>
   <trkpt lat="-37.931797" lon="144.993312"><ele>8.5</ele></trkpt>
   <trkpt lat="-37.931721" lon="144.993244"><ele>8.5</ele></trkpt>
   <trkpt lat="-37.930365" lon="144.991997"><ele>9.25</ele></trkpt>
   <trkpt lat="-37.930122" lon="144.991757"><ele>9.25</ele></trkpt>
   <trkpt lat="-37.929864" lon="144.991484"><ele>9.25</ele></trkpt>
   <trkpt lat="-37.928823" lon="144.990327"><ele>9.75</ele></trkpt>
   <trkpt lat="-37.928594" lon="144.990083"><ele>10</ele></trkpt>
   <trkpt lat="-37.928488" lon="144.98998"><ele>10</ele></trkpt>
   <trkpt lat="-37.928333" lon="144.989844"><ele>10</ele></trkpt>
   <trkpt lat="-37.928103" lon="144.989666"><ele>10.25</ele></trkpt>
   <trkpt lat="-37.927858" lon="144.989511"><ele>10.25</ele></trkpt>
   <trkpt lat="-37.927712" lon="144.989436"><ele>10.25</ele></trkpt>
   <trkpt lat="-37.927614" lon="144.989394"><ele>10.25</ele></trkpt>
   <trkpt lat="-37.927516" lon="144.989357"><ele>10.25</ele></trkpt>
   <trkpt lat="-37.92742" lon="144.989327"><ele>10.5</ele></trkpt>
   <trkpt lat="-37.927233" lon="144.989284"><ele>10.5</ele></trkpt>
   <trkpt lat="-37.927077" lon="144.989265"><ele>10.5</ele></trkpt>
   <trkpt lat="-37.926808" lon="144.989257"><ele>11</ele></trkpt>
   <trkpt lat="-37.926602" lon="144.989268"><ele>11</ele></trkpt>
   <trkpt lat="-37.926309" lon="144.989312"><ele>11</ele></trkpt>
   <trkpt lat="-37.926024" lon="144.989382"><ele>11</ele></trkpt>
   <trkpt lat="-37.925775" lon="144.989467"><ele>11.5</ele></trkpt>
   <trkpt lat="-37.925605" lon="144.989536"><ele>12.25</ele></trkpt>
   <trkpt lat="-37.924981" lon="144.989816"><ele>15.25</ele></trkpt>
   <trkpt lat="-37.924806" lon="144.989907"><ele>15.75</ele></trkpt>
   <trkpt lat="-37.924137" lon="144.990315"><ele>18</ele></trkpt>
   <trkpt lat="-37.923886" lon="144.990433"><ele>19</ele></trkpt>
   <trkpt lat="-37.923739" lon="144.990512"><ele>19.25</ele></trkpt>
   <trkpt lat="-37.922424" lon="144.991315"><ele>16.5</ele></trkpt>
   <trkpt lat="-37.92164" lon="144.991795"><ele>16</ele></trkpt>
   <trkpt lat="-37.919706" lon="144.992975"><ele>18.5</ele></trkpt>
   <trkpt lat="-37.919628" lon="144.993022"><ele>18.5</ele></trkpt>
   <trkpt lat="-37.919275" lon="144.993238"><ele>18</ele></trkpt>
   <trkpt lat="-37.9192" lon="144.993282"><ele>18</ele></trkpt>
   <trkpt lat="-37.916974" lon="144.994639"><ele>13.5</ele></trkpt>
   <trkpt lat="-37.916592" lon="144.994892"><ele>13</ele></trkpt>
   <trkpt lat="-37.916374" lon="144.995053"><ele>13.25</ele></trkpt>
   <trkpt lat="-37.916284" lon="144.995127"><ele>13.5</ele></trkpt>
   <trkpt lat="-37.916183" lon="144.995211"><ele>13.75</ele></trkpt>
   <trkpt lat="-37.915896" lon="144.995467"><ele>15</ele></trkpt>
   <trkpt lat="-37.915731" lon="144.995624"><ele>15.5</ele></trkpt>
   <trkpt lat="-37.915409" lon="144.995959"><ele>16.5</ele></trkpt>
   <trkpt lat="-37.915347" lon="144.996029"><ele>16.75</ele></trkpt>
   <trkpt lat="-37.9153" lon="144.996085"><ele>16.75</ele></trkpt>
   <trkpt lat="-37.914249" lon="144.997304"><ele>17.25</ele></trkpt>
   <trkpt lat="-37.912443" lon="144.999402"><ele>19.5</ele></trkpt>
   <trkpt lat="-37.912176" lon="144.999705"><ele>20.5</ele></trkpt>
   <trkpt lat="-37.911928" lon="144.999971"><ele>21.5</ele></trkpt>
   <trkpt lat="-37.911858" lon="145.000041"><ele>21.5</ele></trkpt>
   <trkpt lat="-37.91167" lon="145.000226"><ele>21.5</ele></trkpt>
   <trkpt lat="-37.911485" lon="145.000392"><ele>21.5</ele></trkpt>
   <trkpt lat="-37.911209" lon="145.00062"><ele>21.25</ele></trkpt>
   <trkpt lat="-37.910997" lon="145.000782"><ele>21</ele></trkpt>
   <trkpt lat="-37.910859" lon="145.00088"><ele>20.75</ele></trkpt>
   <trkpt lat="-37.910584" lon="145.001059"><ele>20.25</ele></trkpt>
   <trkpt lat="-37.910407" lon="145.001165"><ele>20</ele></trkpt>
   <trkpt lat="-37.910072" lon="145.001346"><ele>19.25</ele></trkpt>
   <trkpt lat="-37.909617" lon="145.001557"><ele>18.5</ele></trkpt>
   <trkpt lat="-37.909452" lon="145.001622"><ele>18.25</ele></trkpt>
   <trkpt lat="-37.909103" lon="145.001742"><ele>17.75</ele></trkpt>
   <trkpt lat="-37.908836" lon="145.001816"><ele>17.25</ele></trkpt>
   <trkpt lat="-37.90864" lon="145.001862"><ele>16.75</ele></trkpt>
   <trkpt lat="-37.907877" lon="145.002015"><ele>15.75</ele></trkpt>
   <trkpt lat="-37.907761" lon="145.002037"><ele>15.75</ele></trkpt>
   <trkpt lat="-37.906116" lon="145.00235"><ele>19.25</ele></trkpt>
   <trkpt lat="-37.905604" lon="145.002449"><ele>19.75</ele></trkpt>
   <trkpt lat="-37.90551" lon="145.002465"><ele>19.75</ele></trkpt>
   <trkpt lat="-37.905424" lon="145.002482"><ele>19.75</ele></trkpt>
   <trkpt lat="-37.903978" lon="145.002761"><ele>22</ele></trkpt>
   <trkpt lat="-37.899558" lon="145.003602"><ele>16.5</ele></trkpt>
   <trkpt lat="-37.899371" lon="145.003638"><ele>16.5</ele></trkpt>
   <trkpt lat="-37.89749" lon="145.003997"><ele>13</ele></trkpt>
   <trkpt lat="-37.89728" lon="145.004037"><ele>12.75</ele></trkpt>
   <trkpt lat="-37.895977" lon="145.004271"><ele>12</ele></trkpt>
   <trkpt lat="-37.895675" lon="145.004328"><ele>12</ele></trkpt>
   <trkpt lat="-37.894701" lon="145.004513"><ele>12.75</ele></trkpt>
   <trkpt lat="-37.894114" lon="145.004624"><ele>13.5</ele></trkpt>
   <trkpt lat="-37.893755" lon="145.004681"><ele>14</ele></trkpt>
   <trkpt lat="-37.893597" lon="145.004699"><ele>14.5</ele></trkpt>
   <trkpt lat="-37.893226" lon="145.004725"><ele>15</ele></trkpt>
   <trkpt lat="-37.892926" lon="145.004732"><ele>15.5</ele></trkpt>
   <trkpt lat="-37.892441" lon="145.004722"><ele>16.25</ele></trkpt>
   <trkpt lat="-37.891947" lon="145.004682"><ele>17</ele></trkpt>
   <trkpt lat="-37.891654" lon="145.004642"><ele>17.25</ele></trkpt>
   <trkpt lat="-37.891218" lon="145.004563"><ele>18</ele></trkpt>
   <trkpt lat="-37.890889" lon="145.004486"><ele>18.5</ele></trkpt>
   <trkpt lat="-37.890297" lon="145.004315"><ele>17.75</ele></trkpt>
   <trkpt lat="-37.889554" lon="145.004071"><ele>17.25</ele></trkpt>
   <trkpt lat="-37.889366" lon="145.004002"><ele>17.5</ele></trkpt>
   <trkpt lat="-37.889098" lon="145.00389"><ele>18</ele></trkpt>
   <trkpt lat="-37.888844" lon="145.003764"><ele>18.5</ele></trkpt>
   <trkpt lat="-37.888558" lon="145.003599"><ele>18.75</ele></trkpt>
   <trkpt lat="-37.88839" lon="145.003492"><ele>19</ele></trkpt>
   <trkpt lat="-37.887722" lon="145.003032"><ele>20.25</ele></trkpt>
   <trkpt lat="-37.886805" lon="145.00237"><ele>21.75</ele></trkpt>
   <trkpt lat="-37.886396" lon="145.002065"><ele>22.75</ele></trkpt>
   <trkpt lat="-37.886005" lon="145.001742"><ele>23</ele></trkpt>
   <trkpt lat="-37.885833" lon="145.001594"><ele>22.75</ele></trkpt>
   <trkpt lat="-37.885602" lon="145.001403"><ele>23.25</ele></trkpt>
   <trkpt lat="-37.885449" lon="145.001286"><ele>23.25</ele></trkpt>
   <trkpt lat="-37.884924" lon="145.000902"><ele>22.25</ele></trkpt>
   <trkpt lat="-37.884693" lon="145.000741"><ele>21.5</ele></trkpt>
   <trkpt lat="-37.884424" lon="145.000567"><ele>20.75</ele></trkpt>
   <trkpt lat="-37.88411" lon="145.000359"><ele>19.75</ele></trkpt>
   <trkpt lat="-37.883709" lon="145.000069"><ele>18.75</ele></trkpt>
   <trkpt lat="-37.88359" lon="144.999981"><ele>18.5</ele></trkpt>
   <trkpt lat="-37.881897" lon="144.998737"><ele>21</ele></trkpt>
   <trkpt lat="-37.880566" lon="144.997758"><ele>20.75</ele></trkpt>
   <trkpt lat="-37.880139" lon="144.997461"><ele>19.75</ele></trkpt>
   <trkpt lat="-37.879963" lon="144.997341"><ele>19.25</ele></trkpt>
   <trkpt lat="-37.879502" lon="144.997042"><ele>17.75</ele></trkpt>
   <trkpt lat="-37.879229" lon="144.996881"><ele>16.5</ele></trkpt>
   <trkpt lat="-37.879022" lon="144.996768"><ele>16</ele></trkpt>
   <trkpt lat="-37.878514" lon="144.996506"><ele>16.25</ele></trkpt>
   <trkpt lat="-37.876698" lon="144.995596"><ele>15.25</ele></trkpt>
   <trkpt lat="-37.876611" lon="144.995552"><ele>15.25</ele></trkpt>
   <trkpt lat="-37.876515" lon="144.995504"><ele>15.25</ele></trkpt>
   <trkpt lat="-37.875207" lon="144.994847"><ele>16.25</ele></trkpt>
   <trkpt lat="-37.87495" lon="144.994718"><ele>16.5</ele></trkpt>
   <trkpt lat="-37.873156" lon="144.993815"><ele>14.5</ele></trkpt>
   <trkpt lat="-37.87291" lon="144.993699"><ele>14</ele></trkpt>
   <trkpt lat="-37.872623" lon="144.993581"><ele>13.25</ele></trkpt>
   <trkpt lat="-37.87236" lon="144.993488"><ele>12.75</ele></trkpt>
   <trkpt lat="-37.87197" lon="144.993381"><ele>12.75</ele></trkpt>
   <trkpt lat="-37.871607" lon="144.993316"><ele>12.75</ele></trkpt>
   <trkpt lat="-37.871346" lon="144.993293"><ele>12.75</ele></trkpt>
   <trkpt lat="-37.871081" lon="144.993288"><ele>12.75</ele></trkpt>
   <trkpt lat="-37.870876" lon="144.993294"><ele>12.75</ele></trkpt>
   <trkpt lat="-37.870664" lon="144.99331"><ele>12.75</ele></trkpt>
   <trkpt lat="-37.870272" lon="144.993362"><ele>12.75</ele></trkpt>
   <trkpt lat="-37.868968" lon="144.993603"><ele>12.25</ele></trkpt>
   <trkpt lat="-37.868879" lon="144.993619"><ele>12.5</ele></trkpt>
   <trkpt lat="-37.868695" lon="144.993652"><ele>12.5</ele></trkpt>
   <trkpt lat="-37.86582" lon="144.99418"><ele>14</ele></trkpt>
   <trkpt lat="-37.865627" lon="144.994216"><ele>14.75</ele></trkpt>
   <trkpt lat="-37.862838" lon="144.994731"><ele>18.25</ele></trkpt>
   <trkpt lat="-37.861975" lon="144.994891"><ele>21.5</ele></trkpt>
   <trkpt lat="-37.861778" lon="144.994925"><ele>22.25</ele></trkpt>
   <trkpt lat="-37.861616" lon="144.99495"><ele>23</ele></trkpt>
   <trkpt lat="-37.861326" lon="144.994979"><ele>23.75</ele></trkpt>
   <trkpt lat="-37.861027" lon="144.994985"><ele>24.5</ele></trkpt>
   <trkpt lat="-37.86079" lon="144.994975"><ele>25</ele></trkpt>
   <trkpt lat="-37.860636" lon="144.994961"><ele>25</ele></trkpt>
   <trkpt lat="-37.860339" lon="144.994917"><ele>25</ele></trkpt>
   <trkpt lat="-37.860185" lon="144.994886"><ele>25</ele></trkpt>
   <trkpt lat="-37.859898" lon="144.994814"><ele>25.75</ele></trkpt>
   <trkpt lat="-37.859626" lon="144.994726"><ele>27</ele></trkpt>
   <trkpt lat="-37.859469" lon="144.994666"><ele>27.75</ele></trkpt>
   <trkpt lat="-37.859093" lon="144.994495"><ele>28.75</ele></trkpt>
   <trkpt lat="-37.858874" lon="144.994376"><ele>28.25</ele></trkpt>
   <trkpt lat="-37.858719" lon="144.994283"><ele>27.75</ele></trkpt>
   <trkpt lat="-37.858236" lon="144.993964"><ele>26.75</ele></trkpt>
   <trkpt lat="-37.857677" lon="144.993583"><ele>26.5</ele></trkpt>
   <trkpt lat="-37.857466" lon="144.993436"><ele>26</ele></trkpt>
   <trkpt lat="-37.857243" lon="144.993267"><ele>26</ele></trkpt>
   <trkpt lat="-37.856978" lon="144.993049"><ele>26.5</ele></trkpt>
   <trkpt lat="-37.856744" lon="144.992833"><ele>26.5</ele></trkpt>
   <trkpt lat="-37.85653" lon="144.992613"><ele>27</ele></trkpt>
   <trkpt lat="-37.856352" lon="144.992403"><ele>27.25</ele></trkpt>
   <trkpt lat="-37.855992" lon="144.991929"><ele>26.75</ele></trkpt>
   <trkpt lat="-37.855564" lon="144.991349"><ele>25</ele></trkpt>
   <trkpt lat="-37.855491" lon="144.991254"><ele>24.5</ele></trkpt>
   <trkpt lat="-37.855328" lon="144.991066"><ele>23.5</ele></trkpt>
   <trkpt lat="-37.855211" lon="144.990945"><ele>22.5</ele></trkpt>
   <trkpt lat="-37.855075" lon="144.990817"><ele>21.25</ele></trkpt>
   <trkpt lat="-37.854929" lon="144.990692"><ele>20.5</ele></trkpt>
   <trkpt lat="-37.854741" lon="144.990548"><ele>20.25</ele></trkpt>
   <trkpt lat="-37.854449" lon="144.990351"><ele>20.25</ele></trkpt>
   <trkpt lat="-37.85435" lon="144.990289"><ele>20.25</ele></trkpt>
   <trkpt lat="-37.854244" lon="144.990224"><ele>20.25</ele></trkpt>
   <trkpt lat="-37.853947" lon="144.990056"><ele>20.75</ele></trkpt>
   <trkpt lat="-37.853642" lon="144.989911"><ele>21.75</ele></trkpt>
   <trkpt lat="-37.853499" lon="144.989851"><ele>22</ele></trkpt>
   <trkpt lat="-37.853276" lon="144.98977"><ele>22.5</ele></trkpt>
   <trkpt lat="-37.852922" lon="144.989669"><ele>22.75</ele></trkpt>
   <trkpt lat="-37.85282" lon="144.989646"><ele>23</ele></trkpt>
   <trkpt lat="-37.852491" lon="144.989588"><ele>23.25</ele></trkpt>
   <trkpt lat="-37.852176" lon="144.989552"><ele>23</ele></trkpt>
   <trkpt lat="-37.851774" lon="144.989536"><ele>22.5</ele></trkpt>
   <trkpt lat="-37.851448" lon="144.989546"><ele>22.25</ele></trkpt>
   <trkpt lat="-37.851257" lon="144.989566"><ele>22</ele></trkpt>
   <trkpt lat="-37.850687" lon="144.989653"><ele>22</ele></trkpt>
   <trkpt lat="-37.84918" lon="144.989902"><ele>22</ele></trkpt>
   <trkpt lat="-37.84916" lon="144.989905"><ele>21.75</ele></trkpt>
   <trkpt lat="-37.849086" lon="144.989919"><ele>21.5</ele></trkpt>
   <trkpt lat="-37.849015" lon="144.98993"><ele>21.25</ele></trkpt>
   <trkpt lat="-37.848874" lon="144.989954"><ele>20.75</ele></trkpt>
   <trkpt lat="-37.847602" lon="144.990206"><ele>20.25</ele></trkpt>
   <trkpt lat="-37.842749" lon="144.991193"><ele>19.5</ele></trkpt>
   <trkpt lat="-37.840279" lon="144.991701"><ele>20</ele></trkpt>
   <trkpt lat="-37.839135" lon="144.991963"><ele>18.25</ele></trkpt>
   <trkpt lat="-37.838839" lon="144.992031"><ele>17.75</ele></trkpt>
   <trkpt lat="-37.838791" lon="144.992042"><ele>17.75</ele></trkpt>
   <trkpt lat="-37.837357" lon="144.992371"><ele>14.5</ele></trkpt>
   <trkpt lat="-37.837142" lon="144.992421"><ele>15.25</ele></trkpt>
   <trkpt lat="-37.835793" lon="144.992724"><ele>18.5</ele></trkpt>
   <trkpt lat="-37.835525" lon="144.992774"><ele>18.5</ele></trkpt>
   <trkpt lat="-37.834471" lon="144.992921"><ele>17.5</ele></trkpt>
   <trkpt lat="-37.834183" lon="144.992978"><ele>16.5</ele></trkpt>
   <trkpt lat="-37.832787" lon="144.993269"><ele>13.75</ele></trkpt>
   <trkpt lat="-37.831309" lon="144.993586"><ele>15.75</ele></trkpt>
   <trkpt lat="-37.83052" lon="144.99374"><ele>15</ele></trkpt>
   <trkpt lat="-37.830267" lon="144.993783"><ele>14.75</ele></trkpt>
   <trkpt lat="-37.830093" lon="144.993811"><ele>14.75</ele></trkpt>
   <trkpt lat="-37.828697" lon="144.994051"><ele>12.5</ele></trkpt>
   <trkpt lat="-37.828339" lon="144.994084"><ele>13</ele></trkpt>
   <trkpt lat="-37.827925" lon="144.994063"><ele>14</ele></trkpt>
   <trkpt lat="-37.827559" lon="144.993994"><ele>14.75</ele></trkpt>
   <trkpt lat="-37.827334" lon="144.99392"><ele>14.75</ele></trkpt>
   <trkpt lat="-37.827218" lon="144.993882"><ele>14.5</ele></trkpt>
   <trkpt lat="-37.827211" lon="144.993879"><ele>14.5</ele></trkpt>
   <trkpt lat="-37.827023" lon="144.993803"><ele>14.25</ele></trkpt>
   <trkpt lat="-37.826635" lon="144.993585"><ele>14</ele></trkpt>
   <trkpt lat="-37.826466" lon="144.993469"><ele>14</ele></trkpt>
   <trkpt lat="-37.826146" lon="144.993194"><ele>14.25</ele></trkpt>
   <trkpt lat="-37.825897" lon="144.992916"><ele>13.75</ele></trkpt>
   <trkpt lat="-37.825577" lon="144.992502"><ele>12.5</ele></trkpt>
   <trkpt lat="-37.825246" lon="144.992004"><ele>11</ele></trkpt>
   <trkpt lat="-37.825095" lon="144.991756"><ele>10.25</ele></trkpt>
   <trkpt lat="-37.824838" lon="144.991339"><ele>10.5</ele></trkpt>
   <trkpt lat="-37.824716" lon="144.991125"><ele>11</ele></trkpt>
   <trkpt lat="-37.824627" lon="144.990946"><ele>11.25</ele></trkpt>
   <trkpt lat="-37.824564" lon="144.990799"><ele>11.25</ele></trkpt>
   <trkpt lat="-37.824489" lon="144.990604"><ele>11</ele></trkpt>
   <trkpt lat="-37.824319" lon="144.99001"><ele>11.25</ele></trkpt>
   <trkpt lat="-37.82409" lon="144.98916"><ele>11.75</ele></trkpt>
   <trkpt lat="-37.823964" lon="144.988705"><ele>12</ele></trkpt>
   <trkpt lat="-37.823849" lon="144.98829"><ele>12</ele></trkpt>
   <trkpt lat="-37.823728" lon="144.98787"><ele>11.5</ele></trkpt>
   <trkpt lat="-37.823712" lon="144.987795"><ele>11.5</ele></trkpt>
   <trkpt lat="-37.823556" lon="144.987226"><ele>11</ele></trkpt>
   <trkpt lat="-37.823447" lon="144.98686"><ele>11</ele></trkpt>
   <trkpt lat="-37.823363" lon="144.986599"><ele>11</ele></trkpt>
   <trkpt lat="-37.823225" lon="144.986204"><ele>11.5</ele></trkpt>
   <trkpt lat="-37.823064" lon="144.985862"><ele>11.5</ele></trkpt>
   <trkpt lat="-37.822905" lon="144.985527"><ele>11.25</ele></trkpt>
   <trkpt lat="-37.822811" lon="144.985338"><ele>11</ele></trkpt>
   <trkpt lat="-37.822738" lon="144.985162"><ele>10.5</ele></trkpt>
   <trkpt lat="-37.822612" lon="144.984806"><ele>10.25</ele></trkpt>
   <trkpt lat="-37.822464" lon="144.984439"><ele>10.75</ele></trkpt>
   <trkpt lat="-37.822057" lon="144.98351"><ele>13.25</ele></trkpt>
   <trkpt lat="-37.821905" lon="144.983203"><ele>14</ele></trkpt>
   <trkpt lat="-37.821649" lon="144.982748"><ele>13.25</ele></trkpt>
   <trkpt lat="-37.821399" lon="144.982318"><ele>13</ele></trkpt>
   <trkpt lat="-37.821207" lon="144.982015"><ele>12.75</ele></trkpt>
   <trkpt lat="-37.821013" lon="144.981753"><ele>12</ele></trkpt>
   <trkpt lat="-37.820677" lon="144.981346"><ele>10.25</ele></trkpt>
   <trkpt lat="-37.820579" lon="144.981215"><ele>9.5</ele></trkpt>
   <trkpt lat="-37.820442" lon="144.981014"><ele>8.75</ele></trkpt>
   <trkpt lat="-37.82018" lon="144.980577"><ele>7.75</ele></trkpt>
   <trkpt lat="-37.820035" lon="144.980254"><ele>7.25</ele></trkpt>
   <trkpt lat="-37.819848" lon="144.979846"><ele>7</ele></trkpt>
   <trkpt lat="-37.819692" lon="144.979505"><ele>7.5</ele></trkpt>
   <trkpt lat="-37.819118" lon="144.978286"><ele>8.25</ele></trkpt>
   <trkpt lat="-37.818859" lon="144.977786"><ele>8.75</ele></trkpt>
   <trkpt lat="-37.818553" lon="144.97725"><ele>8.25</ele></trkpt>
   <trkpt lat="-37.817819" lon="144.976015"><ele>8.25</ele></trkpt>
   <trkpt lat="-37.817679" lon="144.97574"><ele>9.75</ele></trkpt>
   <trkpt lat="-37.817566" lon="144.975494"><ele>11.5</ele></trkpt>
   <trkpt lat="-37.817417" lon="144.975079"><ele>14.25</ele></trkpt>
   <trkpt lat="-37.817342" lon="144.97483"><ele>14.75</ele></trkpt>
   <trkpt lat="-37.817283" lon="144.974604"><ele>14.5</ele></trkpt>
   <trkpt lat="-37.817229" lon="144.974359"><ele>14.25</ele></trkpt>
   <trkpt lat="-37.817197" lon="144.974067"><ele>13.5</ele></trkpt>
   <trkpt lat="-37.817175" lon="144.973802"><ele>12.25</ele></trkpt>
   <trkpt lat="-37.817161" lon="144.973505"><ele>10.75</ele></trkpt>
   <trkpt lat="-37.817155" lon="144.973125"><ele>11.5</ele></trkpt>
   <trkpt lat="-37.817158" lon="144.972945"><ele>12.75</ele></trkpt>
   <trkpt lat="-37.817175" lon="144.97272"><ele>14.5</ele></trkpt>
   <trkpt lat="-37.817207" lon="144.972453"><ele>16.25</ele></trkpt>
   <trkpt lat="-37.817263" lon="144.972136"><ele>14.75</ele></trkpt>
   <trkpt lat="-37.817343" lon="144.97179"><ele>12.75</ele></trkpt>
   <trkpt lat="-37.817426" lon="144.971464"><ele>11.25</ele></trkpt>
   <trkpt lat="-37.817622" lon="144.970771"><ele>10.5</ele></trkpt>
   <trkpt lat="-37.817666" lon="144.970606"><ele>12</ele></trkpt>
   <trkpt lat="-37.817687" lon="144.970556"><ele>12</ele></trkpt>
   <trkpt lat="-37.81815" lon="144.969403"><ele>12</ele></trkpt>
   <trkpt lat="-37.818218" lon="144.969207"><ele>12</ele></trkpt>
   <trkpt lat="-37.81844" lon="144.968399"><ele>12</ele></trkpt>
   <trkpt lat="-37.818609" lon="144.967785"><ele>12</ele></trkpt>
   <trkpt lat="-37.818685" lon="144.967515"><ele>12</ele></trkpt>
  </trkseg>
 </trk>
</gpx>