<?xml version="1.0" encoding="UTF-8"?>
<!-- track-length = 30715 filtered ascend = 123 plain-ascend = 3 cost=30715 energy=0.4kwh time=40m 57s -->
<gpx 
 xmlns="http://www.topografix.com/GPX/1/1" 
 xmlns:xsi="http://www.w3.org/2001/XMLSchema-instance" 
 xsi:schemaLocation="http://www.topografix.com/GPX/1/1 http://www.topografix.com/GPX/1/1/gpx.xsd" 
 version="1.1" 
 creator="BRouter-Web 0.18.1">
 <trk>
  <name>STY</name>
  <trkseg>
   <trkpt lat="-38.373994" lon="145.22179"><ele>9.25</ele></trkpt>
   <trkpt lat="-38.37401" lon="145.221642"><ele>9.75</ele></trkpt>
   <trkpt lat="-38.37402" lon="145.221506"><ele>9.25</ele></trkpt>
   <trkpt lat="-38.374022" lon="145.221278"><ele>8.75</ele></trkpt>
   <trkpt lat="-38.374002" lon="145.221094"><ele>8.25</ele></trkpt>
   <trkpt lat="-38.373958" lon="145.220855"><ele>7.75</ele></trkpt>
   <trkpt lat="-38.373922" lon="145.220627"><ele>8.75</ele></trkpt>
   <trkpt lat="-38.373862" lon="145.220339"><ele>10.25</ele></trkpt>
   <trkpt lat="-38.373792" lon="145.220099"><ele>11.25</ele></trkpt>
   <trkpt lat="-38.373732" lon="145.21993"><ele>11.75</ele></trkpt>
   <trkpt lat="-38.373677" lon="145.219791"><ele>12.25</ele></trkpt>
   <trkpt lat="-38.373614" lon="145.219655"><ele>12.5</ele></trkpt>
   <trkpt lat="-38.373429" lon="145.219284"><ele>13</ele></trkpt>
   <trkpt lat="-38.373298" lon="145.218996"><ele>13.25</ele></trkpt>
   <trkpt lat="-38.373159" lon="145.218751"><ele>13</ele></trkpt>
   <trkpt lat="-38.372846" lon="145.218215"><ele>13</ele></trkpt>
   <trkpt lat="-38.372739" lon="145.218049"><ele>13.25</ele></trkpt>
   <trkpt lat="-38.370512" lon="145.214858"><ele>11.5</ele></trkpt>
   <trkpt lat="-38.37027" lon="145.214481"><ele>11.25</ele></trkpt>
   <trkpt lat="-38.369977" lon="145.213995"><ele>11.5</ele></trkpt>
   <trkpt lat="-38.369803" lon="145.213684"><ele>12.25</ele></trkpt>
   <trkpt lat="-38.369635" lon="145.213344"><ele>13</ele></trkpt>
   <trkpt lat="-38.369455" lon="145.212943"><ele>13.75</ele></trkpt>
   <trkpt lat="-38.369289" lon="145.212527"><ele>15</ele></trkpt>
   <trkpt lat="-38.369137" lon="145.212091"><ele>15.75</ele></trkpt>
   <trkpt lat="-38.368083" lon="145.208893"><ele>16</ele></trkpt>
   <trkpt lat="-38.36771" lon="145.207688"><ele>12.5</ele></trkpt>
   <trkpt lat="-38.367547" lon="145.207232"><ele>13.75</ele></trkpt>
   <trkpt lat="-38.367367" lon="145.206816"><ele>15.5</ele></trkpt>
   <trkpt lat="-38.366992" lon="145.206031"><ele>15.25</ele></trkpt>
   <trkpt lat="-38.366742" lon="145.205542"><ele>15.75</ele></trkpt>
   <trkpt lat="-38.365259" lon="145.202621"><ele>14</ele></trkpt>
   <trkpt lat="-38.364883" lon="145.201888"><ele>14.75</ele></trkpt>
   <trkpt lat="-38.364842" lon="145.20181"><ele>15</ele></trkpt>
   <trkpt lat="-38.36466" lon="145.201475"><ele>15</ele></trkpt>
   <trkpt lat="-38.364503" lon="145.201201"><ele>14.5</ele></trkpt>
   <trkpt lat="-38.364284" lon="145.200871"><ele>14.75</ele></trkpt>
   <trkpt lat="-38.363976" lon="145.200458"><ele>14.75</ele></trkpt>
   <trkpt lat="-38.363766" lon="145.200206"><ele>15</ele></trkpt>
   <trkpt lat="-38.36285" lon="145.199186"><ele>18</ele></trkpt>
   <trkpt lat="-38.359848" lon="145.195943"><ele>15.75</ele></trkpt>
   <trkpt lat="-38.353835" lon="145.189403"><ele>26.5</ele></trkpt>
   <trkpt lat="-38.353626" lon="145.189179"><ele>27.5</ele></trkpt>
   <trkpt lat="-38.353516" lon="145.189051"><ele>27.75</ele></trkpt>
   <trkpt lat="-38.351371" lon="145.186722"><ele>27.5</ele></trkpt>
   <trkpt lat="-38.344646" lon="145.179436"><ele>27.5</ele></trkpt>
   <trkpt lat="-38.34398" lon="145.178697"><ele>24.5</ele></trkpt>
   <trkpt lat="-38.342858" lon="145.177504"><ele>23.25</ele></trkpt>
   <trkpt lat="-38.342709" lon="145.177354"><ele>23.75</ele></trkpt>
   <trkpt lat="-38.342548" lon="145.177205"><ele>24.25</ele></trkpt>
   <trkpt lat="-38.342353" lon="145.177045"><ele>25</ele></trkpt>
   <trkpt lat="-38.342161" lon="145.176906"><ele>26</ele></trkpt>
   <trkpt lat="-38.341951" lon="145.176778"><ele>27.25</ele></trkpt>
   <trkpt lat="-38.341729" lon="145.176665"><ele>28.5</ele></trkpt>
   <trkpt lat="-38.341561" lon="145.176594"><ele>29</ele></trkpt>
   <trkpt lat="-38.341297" lon="145.176503"><ele>29.25</ele></trkpt>
   <trkpt lat="-38.341083" lon="145.176451"><ele>29.5</ele></trkpt>
   <trkpt lat="-38.340877" lon="145.176415"><ele>30</ele></trkpt>
   <trkpt lat="-38.340672" lon="145.176397"><ele>29.5</ele></trkpt>
   <trkpt lat="-38.340367" lon="145.176393"><ele>28.75</ele></trkpt>
   <trkpt lat="-38.340048" lon="145.17642"><ele>28</ele></trkpt>
   <trkpt lat="-38.33986" lon="145.176458"><ele>27.5</ele></trkpt>
   <trkpt lat="-38.339613" lon="145.176527"><ele>26.75</ele></trkpt>
   <trkpt lat="-38.339362" lon="145.17662"><ele>26.25</ele></trkpt>
   <trkpt lat="-38.339112" lon="145.17674"><ele>25.75</ele></trkpt>
   <trkpt lat="-38.338766" lon="145.17694"><ele>25.5</ele></trkpt>
   <trkpt lat="-38.338333" lon="145.177252"><ele>24.5</ele></trkpt>
   <trkpt lat="-38.337837" lon="145.17761"><ele>26.25</ele></trkpt>
   <trkpt lat="-38.337375" lon="145.177938"><ele>27.25</ele></trkpt>
   <trkpt lat="-38.336459" lon="145.1786"><ele>28</ele></trkpt>
   <trkpt lat="-38.331111" lon="145.18242"><ele>20</ele></trkpt>
   <trkpt lat="-38.330873" lon="145.182576"><ele>19.75</ele></trkpt>
   <trkpt lat="-38.33057" lon="145.182756"><ele>20</ele></trkpt>
   <trkpt lat="-38.330319" lon="145.182881"><ele>19.75</ele></trkpt>
   <trkpt lat="-38.33009" lon="145.18298"><ele>19.5</ele></trkpt>
   <trkpt lat="-38.329836" lon="145.183074"><ele>19.25</ele></trkpt>
   <trkpt lat="-38.329577" lon="145.183153"><ele>19.5</ele></trkpt>
   <trkpt lat="-38.329307" lon="145.183223"><ele>19.75</ele></trkpt>
   <trkpt lat="-38.328987" lon="145.183274"><ele>19.75</ele></trkpt>
   <trkpt lat="-38.32814" lon="145.18331"><ele>18.25</ele></trkpt>
   <trkpt lat="-38.322988" lon="145.183293"><ele>9.25</ele></trkpt>
   <trkpt lat="-38.321609" lon="145.183293"><ele>10.25</ele></trkpt>
   <trkpt lat="-38.321157" lon="145.1833"><ele>11.75</ele></trkpt>
   <trkpt lat="-38.320786" lon="145.183328"><ele>13</ele></trkpt>
   <trkpt lat="-38.32048" lon="145.183366"><ele>12.75</ele></trkpt>
   <trkpt lat="-38.320199" lon="145.183423"><ele>12.5</ele></trkpt>
   <trkpt lat="-38.319892" lon="145.183496"><ele>12.5</ele></trkpt>
   <trkpt lat="-38.319605" lon="145.183583"><ele>12.5</ele></trkpt>
   <trkpt lat="-38.319305" lon="145.18369"><ele>12.5</ele></trkpt>
   <trkpt lat="-38.318973" lon="145.183832"><ele>12.25</ele></trkpt>
   <trkpt lat="-38.318291" lon="145.184174"><ele>13</ele></trkpt>
   <trkpt lat="-38.316655" lon="145.185026"><ele>10</ele></trkpt>
   <trkpt lat="-38.316467" lon="145.185115"><ele>10.25</ele></trkpt>
   <trkpt lat="-38.316298" lon="145.185214"><ele>10.75</ele></trkpt>
   <trkpt lat="-38.316163" lon="145.185282"><ele>11.25</ele></trkpt>
   <trkpt lat="-38.316034" lon="145.185346"><ele>11.75</ele></trkpt>
   <trkpt lat="-38.315732" lon="145.1855"><ele>12.5</ele></trkpt>
   <trkpt lat="-38.315468" lon="145.185618"><ele>12.75</ele></trkpt>
   <trkpt lat="-38.315214" lon="145.185716"><ele>12.75</ele></trkpt>
   <trkpt lat="-38.314804" lon="145.185838"><ele>13</ele></trkpt>
   <trkpt lat="-38.314605" lon="145.185881"><ele>13</ele></trkpt>
   <trkpt lat="-38.314388" lon="145.185918"><ele>13</ele></trkpt>
   <trkpt lat="-38.314163" lon="145.185944"><ele>13</ele></trkpt>
   <trkpt lat="-38.313925" lon="145.185959"><ele>13.75</ele></trkpt>
   <trkpt lat="-38.31362" lon="145.185967"><ele>14.75</ele></trkpt>
   <trkpt lat="-38.312503" lon="145.185966"><ele>16.75</ele></trkpt>
   <trkpt lat="-38.307816" lon="145.185952"><ele>15.25</ele></trkpt>
   <trkpt lat="-38.307723" lon="145.185952"><ele>15.5</ele></trkpt>
   <trkpt lat="-38.307641" lon="145.185951"><ele>15.75</ele></trkpt>
   <trkpt lat="-38.307032" lon="145.185942"><ele>16</ele></trkpt>
   <trkpt lat="-38.305604" lon="145.185947"><ele>16</ele></trkpt>
   <trkpt lat="-38.304944" lon="145.185943"><ele>14</ele></trkpt>
   <trkpt lat="-38.303116" lon="145.185942"><ele>14.75</ele></trkpt>
   <trkpt lat="-38.30304" lon="145.185943"><ele>14.75</ele></trkpt>
   <trkpt lat="-38.302954" lon="145.185942"><ele>14.75</ele></trkpt>
   <trkpt lat="-38.299906" lon="145.185935"><ele>10.75</ele></trkpt>
   <trkpt lat="-38.299821" lon="145.185935"><ele>10.5</ele></trkpt>
   <trkpt lat="-38.295921" lon="145.185927"><ele>10.75</ele></trkpt>
   <trkpt lat="-38.295726" lon="145.185932"><ele>10.5</ele></trkpt>
   <trkpt lat="-38.295361" lon="145.185957"><ele>9.75</ele></trkpt>
   <trkpt lat="-38.294998" lon="145.186003"><ele>9</ele></trkpt>
   <trkpt lat="-38.294541" lon="145.186089"><ele>10.75</ele></trkpt>
   <trkpt lat="-38.291144" lon="145.186821"><ele>14.75</ele></trkpt>
   <trkpt lat="-38.286857" lon="145.187758"><ele>11.5</ele></trkpt>
   <trkpt lat="-38.285954" lon="145.187911"><ele>9.75</ele></trkpt>
   <trkpt lat="-38.28536" lon="145.18798"><ele>9</ele></trkpt>
   <trkpt lat="-38.285334" lon="145.187982"><ele>9</ele></trkpt>
   <trkpt lat="-38.285196" lon="145.187998"><ele>8.75</ele></trkpt>
   <trkpt lat="-38.285132" lon="145.188005"><ele>8.75</ele></trkpt>
   <trkpt lat="-38.282538" lon="145.188281"><ele>9</ele></trkpt>
   <trkpt lat="-38.281267" lon="145.188415"><ele>9.25</ele></trkpt>
   <trkpt lat="-38.277477" lon="145.188824"><ele>12.25</ele></trkpt>
   <trkpt lat="-38.275534" lon="145.18903"><ele>13.25</ele></trkpt>
   <trkpt lat="-38.275349" lon="145.18905"><ele>13.5</ele></trkpt>
   <trkpt lat="-38.273286" lon="145.18927"><ele>14.75</ele></trkpt>
   <trkpt lat="-38.272712" lon="145.189325"><ele>14.25</ele></trkpt>
   <trkpt lat="-38.272083" lon="145.189364"><ele>13.75</ele></trkpt>
   <trkpt lat="-38.2711" lon="145.189375"><ele>14.75</ele></trkpt>
   <trkpt lat="-38.265653" lon="145.18937"><ele>18.75</ele></trkpt>
   <trkpt lat="-38.265378" lon="145.189361"><ele>19.5</ele></trkpt>
   <trkpt lat="-38.265047" lon="145.189332"><ele>20.5</ele></trkpt>
   <trkpt lat="-38.264647" lon="145.189262"><ele>22</ele></trkpt>
   <trkpt lat="-38.264454" lon="145.189214"><ele>22.75</ele></trkpt>
   <trkpt lat="-38.264056" lon="145.189086"><ele>24.5</ele></trkpt>
   <trkpt lat="-38.263814" lon="145.188987"><ele>25.75</ele></trkpt>
   <trkpt lat="-38.263553" lon="145.188861"><ele>27</ele></trkpt>
   <trkpt lat="-38.263383" lon="145.188768"><ele>27.75</ele></trkpt>
   <trkpt lat="-38.263161" lon="145.188633"><ele>27.5</ele></trkpt>
   <trkpt lat="-38.262731" lon="145.18834"><ele>27</ele></trkpt>
   <trkpt lat="-38.261382" lon="145.187372"><ele>29.75</ele></trkpt>
   <trkpt lat="-38.261292" lon="145.187306"><ele>30</ele></trkpt>
   <trkpt lat="-38.259786" lon="145.186229"><ele>29.75</ele></trkpt>
   <trkpt lat="-38.253901" lon="145.182003"><ele>31.5</ele></trkpt>
   <trkpt lat="-38.253412" lon="145.181673"><ele>33.75</ele></trkpt>
   <trkpt lat="-38.253066" lon="145.181469"><ele>34</ele></trkpt>
   <trkpt lat="-38.252698" lon="145.181283"><ele>34.5</ele></trkpt>
   <trkpt lat="-38.252352" lon="145.181135"><ele>35.75</ele></trkpt>
   <trkpt lat="-38.251987" lon="145.181005"><ele>38.25</ele></trkpt>
   <trkpt lat="-38.251568" lon="145.180887"><ele>40.75</ele></trkpt>
   <trkpt lat="-38.251404" lon="145.180849"><ele>41.5</ele></trkpt>
   <trkpt lat="-38.251168" lon="145.180803"><ele>42</ele></trkpt>
   <trkpt lat="-38.250743" lon="145.180748"><ele>43</ele></trkpt>
   <trkpt lat="-38.250393" lon="145.180726"><ele>43.5</ele></trkpt>
   <trkpt lat="-38.249807" lon="145.180719"><ele>44.25</ele></trkpt>
   <trkpt lat="-38.238535" lon="145.180705"><ele>60.75</ele></trkpt>
   <trkpt lat="-38.233818" lon="145.180702"><ele>62.75</ele></trkpt>
   <trkpt lat="-38.233334" lon="145.180688"><ele>62.5</ele></trkpt>
   <trkpt lat="-38.232945" lon="145.180654"><ele>63</ele></trkpt>
   <trkpt lat="-38.232736" lon="145.180626"><ele>63.25</ele></trkpt>
   <trkpt lat="-38.232347" lon="145.18055"><ele>63.5</ele></trkpt>
   <trkpt lat="-38.231926" lon="145.180437"><ele>63.75</ele></trkpt>
   <trkpt lat="-38.231591" lon="145.180327"><ele>64</ele></trkpt>
   <trkpt lat="-38.231417" lon="145.18026"><ele>63.5</ele></trkpt>
   <trkpt lat="-38.231276" lon="145.180198"><ele>63.25</ele></trkpt>
   <trkpt lat="-38.230994" lon="145.180064"><ele>62.5</ele></trkpt>
   <trkpt lat="-38.230804" lon="145.179962"><ele>62</ele></trkpt>
   <trkpt lat="-38.230478" lon="145.179774"><ele>63</ele></trkpt>
   <trkpt lat="-38.230241" lon="145.179622"><ele>63.75</ele></trkpt>
   <trkpt lat="-38.229603" lon="145.179186"><ele>66.75</ele></trkpt>
   <trkpt lat="-38.227983" lon="145.178059"><ele>73.25</ele></trkpt>
   <trkpt lat="-38.225428" lon="145.176279"><ele>73.5</ele></trkpt>
   <trkpt lat="-38.225087" lon="145.176042"><ele>72.5</ele></trkpt>
   <trkpt lat="-38.224163" lon="145.175397"><ele>71.5</ele></trkpt>
   <trkpt lat="-38.223804" lon="145.175147"><ele>72.25</ele></trkpt>
   <trkpt lat="-38.223723" lon="145.175092"><ele>72.25</ele></trkpt>
   <trkpt lat="-38.223661" lon="145.175048"><ele>72.25</ele></trkpt>
   <trkpt lat="-38.223543" lon="145.174965"><ele>72.25</ele></trkpt>
   <trkpt lat="-38.20727" lon="145.163636"><ele>51.25</ele></trkpt>
   <trkpt lat="-38.206163" lon="145.162867"><ele>50.5</ele></trkpt>
   <trkpt lat="-38.20586" lon="145.162673"><ele>50.75</ele></trkpt>
   <trkpt lat="-38.205655" lon="145.162552"><ele>50.5</ele></trkpt>
   <trkpt lat="-38.205456" lon="145.162446"><ele>50.5</ele></trkpt>
   <trkpt lat="-38.201429" lon="145.160429"><ele>52.5</ele></trkpt>
   <trkpt lat="-38.200901" lon="145.160176"><ele>52.75</ele></trkpt>
   <trkpt lat="-38.200654" lon="145.160073"><ele>52.75</ele></trkpt>
   <trkpt lat="-38.200359" lon="145.159963"><ele>52.25</ele></trkpt>
   <trkpt lat="-38.19997" lon="145.159845"><ele>52</ele></trkpt>
   <trkpt lat="-38.19978" lon="145.159799"><ele>52.25</ele></trkpt>
   <trkpt lat="-38.199617" lon="145.159764"><ele>52.25</ele></trkpt>
   <trkpt lat="-38.199277" lon="145.159707"><ele>52.5</ele></trkpt>
   <trkpt lat="-38.198954" lon="145.159672"><ele>52.5</ele></trkpt>
   <trkpt lat="-38.198538" lon="145.159653"><ele>52</ele></trkpt>
   <trkpt lat="-38.198373" lon="145.159654"><ele>51.75</ele></trkpt>
   <trkpt lat="-38.19802" lon="145.159672"><ele>52</ele></trkpt>
   <trkpt lat="-38.197688" lon="145.159709"><ele>52.25</ele></trkpt>
   <trkpt lat="-38.197317" lon="145.159777"><ele>53</ele></trkpt>
   <trkpt lat="-38.197055" lon="145.159833"><ele>53.25</ele></trkpt>
   <trkpt lat="-38.195765" lon="145.160151"><ele>55.75</ele></trkpt>
   <trkpt lat="-38.195705" lon="145.160168"><ele>55.5</ele></trkpt>
   <trkpt lat="-38.195615" lon="145.16019"><ele>55.5</ele></trkpt>
   <trkpt lat="-38.195091" lon="145.160316"><ele>55.5</ele></trkpt>
   <trkpt lat="-38.194819" lon="145.16039"><ele>55.75</ele></trkpt>
   <trkpt lat="-38.194068" lon="145.160568"><ele>56</ele></trkpt>
   <trkpt lat="-38.193051" lon="145.160828"><ele>56.5</ele></trkpt>
   <trkpt lat="-38.192769" lon="145.160892"><ele>56.25</ele></trkpt>
   <trkpt lat="-38.187313" lon="145.162242"><ele>67.25</ele></trkpt>
   <trkpt lat="-38.184662" lon="145.1629"><ele>75</ele></trkpt>
   <trkpt lat="-38.17745" lon="145.164685"><ele>90.5</ele></trkpt>
   <trkpt lat="-38.167321" lon="145.167195"><ele>108</ele></trkpt>
   <trkpt lat="-38.166889" lon="145.1673"><ele>107.5</ele></trkpt>
   <trkpt lat="-38.166588" lon="145.167361"><ele>107</ele></trkpt>
   <trkpt lat="-38.166395" lon="145.167388"><ele>106.5</ele></trkpt>
   <trkpt lat="-38.166237" lon="145.1674"><ele>106</ele></trkpt>
   <trkpt lat="-38.165897" lon="145.167405"><ele>105.25</ele></trkpt>
   <trkpt lat="-38.165535" lon="145.167369"><ele>103.75</ele></trkpt>
   <trkpt lat="-38.165243" lon="145.167309"><ele>102.75</ele></trkpt>
   <trkpt lat="-38.16507" lon="145.167262"><ele>102</ele></trkpt>
   <trkpt lat="-38.164775" lon="145.167159"><ele>101.25</ele></trkpt>
   <trkpt lat="-38.16463" lon="145.167095"><ele>101</ele></trkpt>
   <trkpt lat="-38.164507" lon="145.167038"><ele>100.75</ele></trkpt>
   <trkpt lat="-38.164319" lon="145.166937"><ele>100.25</ele></trkpt>
   <trkpt lat="-38.163989" lon="145.166726"><ele>99.5</ele></trkpt>
   <trkpt lat="-38.163857" lon="145.166626"><ele>99.25</ele></trkpt>
   <trkpt lat="-38.163708" lon="145.166505"><ele>99.25</ele></trkpt>
   <trkpt lat="-38.163544" lon="145.166359"><ele>99.25</ele></trkpt>
   <trkpt lat="-38.163271" lon="145.166078"><ele>100</ele></trkpt>
   <trkpt lat="-38.163087" lon="145.165857"><ele>98.75</ele></trkpt>
   <trkpt lat="-38.162863" lon="145.165549"><ele>97.25</ele></trkpt>
   <trkpt lat="-38.16269" lon="145.165274"><ele>95.75</ele></trkpt>
   <trkpt lat="-38.162608" lon="145.165128"><ele>96</ele></trkpt>
   <trkpt lat="-38.16247" lon="145.164857"><ele>94.25</ele></trkpt>
   <trkpt lat="-38.162286" lon="145.164428"><ele>92.25</ele></trkpt>
   <trkpt lat="-38.162169" lon="145.164094"><ele>91</ele></trkpt>
   <trkpt lat="-38.162069" lon="145.16374"><ele>90.5</ele></trkpt>
   <trkpt lat="-38.162011" lon="145.1635"><ele>90.25</ele></trkpt>
   <trkpt lat="-38.161882" lon="145.162901"><ele>90.25</ele></trkpt>
   <trkpt lat="-38.160407" lon="145.155731"><ele>72.75</ele></trkpt>
   <trkpt lat="-38.160293" lon="145.155202"><ele>72.25</ele></trkpt>
   <trkpt lat="-38.160235" lon="145.154973"><ele>72.25</ele></trkpt>
   <trkpt lat="-38.160103" lon="145.154517"><ele>72.5</ele></trkpt>
   <trkpt lat="-38.159943" lon="145.154077"><ele>72.75</ele></trkpt>
   <trkpt lat="-38.159866" lon="145.153888"><ele>72.75</ele></trkpt>
   <trkpt lat="-38.159694" lon="145.153508"><ele>72.5</ele></trkpt>
   <trkpt lat="-38.159499" lon="145.153142"><ele>71.75</ele></trkpt>
   <trkpt lat="-38.159281" lon="145.152781"><ele>71</ele></trkpt>
   <trkpt lat="-38.158869" lon="145.152179"><ele>70</ele></trkpt>
   <trkpt lat="-38.157754" lon="145.150604"><ele>66.25</ele></trkpt>
   <trkpt lat="-38.156026" lon="145.148162"><ele>63.5</ele></trkpt>
   <trkpt lat="-38.154445" lon="145.145929"><ele>59.5</ele></trkpt>
   <trkpt lat="-38.154037" lon="145.145333"><ele>58</ele></trkpt>
   <trkpt lat="-38.15393" lon="145.145164"><ele>57.5</ele></trkpt>
   <trkpt lat="-38.153746" lon="145.14485"><ele>57</ele></trkpt>
   <trkpt lat="-38.153534" lon="145.144449"><ele>56</ele></trkpt>
   <trkpt lat="-38.153346" lon="145.14405"><ele>54.75</ele></trkpt>
   <trkpt lat="-38.153248" lon="145.143831"><ele>54</ele></trkpt>
   <trkpt lat="-38.153057" lon="145.143332"><ele>52.25</ele></trkpt>
   <trkpt lat="-38.152916" lon="145.142913"><ele>51.75</ele></trkpt>
   <trkpt lat="-38.152821" lon="145.142596"><ele>51.5</ele></trkpt>
   <trkpt lat="-38.151977" lon="145.139418"><ele>45</ele></trkpt>
   <trkpt lat="-38.151655" lon="145.138201"><ele>43.75</ele></trkpt>
   <trkpt lat="-38.150585" lon="145.134151"><ele>34.25</ele></trkpt>
   <trkpt lat="-38.150547" lon="145.134012"><ele>33.75</ele></trkpt>
   <trkpt lat="-38.149999" lon="145.131939"><ele>30.25</ele></trkpt>
   <trkpt lat="-38.149973" lon="145.131843"><ele>30</ele></trkpt>
   <trkpt lat="-38.149948" lon="145.131748"><ele>29.75</ele></trkpt>
   <trkpt lat="-38.149225" lon="145.128998"><ele>28.75</ele></trkpt>
   <trkpt lat="-38.148945" lon="145.12798"><ele>28.25</ele></trkpt>
   <trkpt lat="-38.148771" lon="145.12752"><ele>27.5</ele></trkpt>
   <trkpt lat="-38.148593" lon="145.127174"><ele>27</ele></trkpt>
   <trkpt lat="-38.148389" lon="145.126824"><ele>26.75</ele></trkpt>
   <trkpt lat="-38.148056" lon="145.126392"><ele>26</ele></trkpt>
   <trkpt lat="-38.14765" lon="145.125999"><ele>24.5</ele></trkpt>
   <trkpt lat="-38.147346" lon="145.125765"><ele>23.5</ele></trkpt>
   <trkpt lat="-38.14706" lon="145.125589"><ele>23</ele></trkpt>
   <trkpt lat="-38.146857" lon="145.12548"><ele>22.5</ele></trkpt>
   <trkpt lat="-38.146674" lon="145.125405"><ele>22</ele></trkpt>
   <trkpt lat="-38.146372" lon="145.125321"><ele>20</ele></trkpt>
   <trkpt lat="-38.146282" lon="145.125299"><ele>19.5</ele></trkpt>
   <trkpt lat="-38.146253" lon="145.125294"><ele>19.25</ele></trkpt>
   <trkpt lat="-38.146187" lon="145.125281"><ele>18.75</ele></trkpt>
   <trkpt lat="-38.146165" lon="145.125277"><ele>18.5</ele></trkpt>
   <trkpt lat="-38.146069" lon="145.125259"><ele>18</ele></trkpt>
   <trkpt lat="-38.145834" lon="145.125218"><ele>16.25</ele></trkpt>
   <trkpt lat="-38.145595" lon="145.12521"><ele>15.25</ele></trkpt>
   <trkpt lat="-38.145425" lon="145.125217"><ele>14.75</ele></trkpt>
   <trkpt lat="-38.145102" lon="145.125272"><ele>13.75</ele></trkpt>
   <trkpt lat="-38.144781" lon="145.125362"><ele>13.5</ele></trkpt>
   <trkpt lat="-38.144228" lon="145.125594"><ele>13</ele></trkpt>
   <trkpt lat="-38.143959" lon="145.125674"><ele>13</ele></trkpt>
   <trkpt lat="-38.143782" lon="145.125743"><ele>13</ele></trkpt>
   <trkpt lat="-38.143557" lon="145.125846"><ele>13</ele></trkpt>
   <trkpt lat="-38.142882" lon="145.12614"><ele>11.75</ele></trkpt>
  </trkseg>
 </trk>
</gpx>