<?xml version="1.0" encoding="UTF-8"?>
<!-- track-length = 33073 filtered ascend = 25 plain-ascend = 12 cost=33073 energy=0.4kwh time=44m 6s -->
<gpx 
 xmlns="http://www.topografix.com/GPX/1/1" 
 xmlns:xsi="http://www.w3.org/2001/XMLSchema-instance" 
 xsi:schemaLocation="http://www.topografix.com/GPX/1/1 http://www.topografix.com/GPX/1/1/gpx.xsd" 
 version="1.1" 
 creator="BRouter-Web 0.18.1">
 <trk>
  <name>WER</name>
  <trkseg>
   <trkpt lat="-37.818772" lon="144.966627"><ele>14</ele></trkpt>
   <trkpt lat="-37.818887" lon="144.966027"><ele>12.5</ele></trkpt>
   <trkpt lat="-37.818954" lon="144.965656"><ele>11.5</ele></trkpt>
   <trkpt lat="-37.819071" lon="144.965014"><ele>9</ele></trkpt>
   <trkpt lat="-37.819092" lon="144.964892"><ele>9.25</ele></trkpt>
   <trkpt lat="-37.819144" lon="144.964429"><ele>10.25</ele></trkpt>
   <trkpt lat="-37.819192" lon="144.964023"><ele>10.75</ele></trkpt>
   <trkpt lat="-37.819218" lon="144.963863"><ele>10.75</ele></trkpt>
   <trkpt lat="-37.819407" lon="144.963117"><ele>11.5</ele></trkpt>
   <trkpt lat="-37.819455" lon="144.962923"><ele>12</ele></trkpt>
   <trkpt lat="-37.819482" lon="144.962793"><ele>12.5</ele></trkpt>
   <trkpt lat="-37.819546" lon="144.962355"><ele>13.25</ele></trkpt>
   <trkpt lat="-37.819649" lon="144.961654"><ele>13.25</ele></trkpt>
   <trkpt lat="-37.819725" lon="144.96125"><ele>13.25</ele></trkpt>
   <trkpt lat="-37.819785" lon="144.961005"><ele>13.25</ele></trkpt>
   <trkpt lat="-37.81986" lon="144.960756"><ele>13.25</ele></trkpt>
   <trkpt lat="-37.81996" lon="144.960479"><ele>13.25</ele></trkpt>
   <trkpt lat="-37.821176" lon="144.95738"><ele>13.75</ele></trkpt>
   <trkpt lat="-37.821295" lon="144.95706"><ele>13.75</ele></trkpt>
   <trkpt lat="-37.821379" lon="144.956752"><ele>13.75</ele></trkpt>
   <trkpt lat="-37.821414" lon="144.956585"><ele>13.75</ele></trkpt>
   <trkpt lat="-37.821439" lon="144.956411"><ele>13.75</ele></trkpt>
   <trkpt lat="-37.82147" lon="144.956086"><ele>14</ele></trkpt>
   <trkpt lat="-37.821472" lon="144.955787"><ele>14</ele></trkpt>
   <trkpt lat="-37.821435" lon="144.955455"><ele>14</ele></trkpt>
   <trkpt lat="-37.821384" lon="144.955153"><ele>14</ele></trkpt>
   <trkpt lat="-37.821307" lon="144.954876"><ele>14</ele></trkpt>
   <trkpt lat="-37.8212" lon="144.954581"><ele>14</ele></trkpt>
   <trkpt lat="-37.821042" lon="144.954252"><ele>14</ele></trkpt>
   <trkpt lat="-37.820953" lon="144.954116"><ele>14</ele></trkpt>
   <trkpt lat="-37.820684" lon="144.953731"><ele>14.25</ele></trkpt>
   <trkpt lat="-37.820512" lon="144.953515"><ele>12.5</ele></trkpt>
   <trkpt lat="-37.820411" lon="144.953374"><ele>11.25</ele></trkpt>
   <trkpt lat="-37.820288" lon="144.953139"><ele>10.75</ele></trkpt>
   <trkpt lat="-37.820177" lon="144.952981"><ele>10.5</ele></trkpt>
   <trkpt lat="-37.82005" lon="144.952828"><ele>10.25</ele></trkpt>
   <trkpt lat="-37.819979" lon="144.952758"><ele>10</ele></trkpt>
   <trkpt lat="-37.819883" lon="144.952658"><ele>9.25</ele></trkpt>
   <trkpt lat="-37.81971" lon="144.952429"><ele>7.75</ele></trkpt>
   <trkpt lat="-37.819604" lon="144.95231"><ele>7</ele></trkpt>
   <trkpt lat="-37.819451" lon="144.952166"><ele>6.25</ele></trkpt>
   <trkpt lat="-37.81925" lon="144.952018"><ele>5.5</ele></trkpt>
   <trkpt lat="-37.81903" lon="144.951861"><ele>6.25</ele></trkpt>
   <trkpt lat="-37.818521" lon="144.951465"><ele>9.75</ele></trkpt>
   <trkpt lat="-37.818009" lon="144.951058"><ele>11.25</ele></trkpt>
   <trkpt lat="-37.817695" lon="144.950817"><ele>12</ele></trkpt>
   <trkpt lat="-37.817529" lon="144.950692"><ele>11.75</ele></trkpt>
   <trkpt lat="-37.817195" lon="144.950473"><ele>10.25</ele></trkpt>
   <trkpt lat="-37.816682" lon="144.950136"><ele>10.75</ele></trkpt>
   <trkpt lat="-37.816328" lon="144.949857"><ele>11.75</ele></trkpt>
   <trkpt lat="-37.815855" lon="144.949429"><ele>12.5</ele></trkpt>
   <trkpt lat="-37.815537" lon="144.949183"><ele>12.5</ele></trkpt>
   <trkpt lat="-37.815093" lon="144.948838"><ele>11.75</ele></trkpt>
   <trkpt lat="-37.81476" lon="144.948503"><ele>10.5</ele></trkpt>
   <trkpt lat="-37.814315" lon="144.948143"><ele>10</ele></trkpt>
   <trkpt lat="-37.813916" lon="144.947766"><ele>9</ele></trkpt>
   <trkpt lat="-37.813268" lon="144.947172"><ele>10.25</ele></trkpt>
   <trkpt lat="-37.813056" lon="144.946949"><ele>11</ele></trkpt>
   <trkpt lat="-37.812713" lon="144.946568"><ele>12.5</ele></trkpt>
   <trkpt lat="-37.812475" lon="144.946274"><ele>13.25</ele></trkpt>
   <trkpt lat="-37.812236" lon="144.945975"><ele>11.5</ele></trkpt>
   <trkpt lat="-37.811957" lon="144.945645"><ele>9.5</ele></trkpt>
   <trkpt lat="-37.81173" lon="144.945381"><ele>8.5</ele></trkpt>
   <trkpt lat="-37.811331" lon="144.944935"><ele>9.25</ele></trkpt>
   <trkpt lat="-37.81118" lon="144.944779"><ele>9.25</ele></trkpt>
   <trkpt lat="-37.810529" lon="144.944162"><ele>7.75</ele></trkpt>
   <trkpt lat="-37.810473" lon="144.94411"><ele>7.75</ele></trkpt>
   <trkpt lat="-37.810413" lon="144.944053"><ele>7.75</ele></trkpt>
   <trkpt lat="-37.81014" lon="144.943802"><ele>7.5</ele></trkpt>
   <trkpt lat="-37.80997" lon="144.94367"><ele>7.5</ele></trkpt>
   <trkpt lat="-37.80936" lon="144.943224"><ele>11</ele></trkpt>
   <trkpt lat="-37.808951" lon="144.942849"><ele>10.25</ele></trkpt>
   <trkpt lat="-37.808782" lon="144.942715"><ele>9.5</ele></trkpt>
   <trkpt lat="-37.808582" lon="144.942578"><ele>9</ele></trkpt>
   <trkpt lat="-37.808394" lon="144.942418"><ele>8.75</ele></trkpt>
   <trkpt lat="-37.808142" lon="144.942186"><ele>8.75</ele></trkpt>
   <trkpt lat="-37.807929" lon="144.942012"><ele>8.25</ele></trkpt>
   <trkpt lat="-37.80778" lon="144.941872"><ele>7.5</ele></trkpt>
   <trkpt lat="-37.807593" lon="144.941676"><ele>6.25</ele></trkpt>
   <trkpt lat="-37.807566" lon="144.941648"><ele>6.25</ele></trkpt>
   <trkpt lat="-37.807317" lon="144.941386"><ele>7.25</ele></trkpt>
   <trkpt lat="-37.807054" lon="144.941116"><ele>8.75</ele></trkpt>
   <trkpt lat="-37.806737" lon="144.940831"><ele>9.5</ele></trkpt>
   <trkpt lat="-37.806574" lon="144.940698"><ele>9.75</ele></trkpt>
   <trkpt lat="-37.806469" lon="144.940602"><ele>9.5</ele></trkpt>
   <trkpt lat="-37.806319" lon="144.940449"><ele>9.5</ele></trkpt>
   <trkpt lat="-37.806189" lon="144.94033"><ele>9.25</ele></trkpt>
   <trkpt lat="-37.806075" lon="144.940238"><ele>9.25</ele></trkpt>
   <trkpt lat="-37.805883" lon="144.94007"><ele>9</ele></trkpt>
   <trkpt lat="-37.805743" lon="144.939913"><ele>9</ele></trkpt>
   <trkpt lat="-37.805648" lon="144.939799"><ele>9</ele></trkpt>
   <trkpt lat="-37.80547" lon="144.93954"><ele>9.25</ele></trkpt>
   <trkpt lat="-37.805388" lon="144.939402"><ele>9.5</ele></trkpt>
   <trkpt lat="-37.804744" lon="144.938242"><ele>10.5</ele></trkpt>
   <trkpt lat="-37.804399" lon="144.937611"><ele>10.5</ele></trkpt>
   <trkpt lat="-37.804244" lon="144.937333"><ele>10.5</ele></trkpt>
   <trkpt lat="-37.804189" lon="144.937238"><ele>10.5</ele></trkpt>
   <trkpt lat="-37.804089" lon="144.937093"><ele>10.5</ele></trkpt>
   <trkpt lat="-37.803736" lon="144.936672"><ele>10.25</ele></trkpt>
   <trkpt lat="-37.803561" lon="144.936463"><ele>9.75</ele></trkpt>
   <trkpt lat="-37.803358" lon="144.936218"><ele>9.5</ele></trkpt>
   <trkpt lat="-37.803196" lon="144.936017"><ele>9.5</ele></trkpt>
   <trkpt lat="-37.803063" lon="144.935831"><ele>9.75</ele></trkpt>
   <trkpt lat="-37.802887" lon="144.935568"><ele>10</ele></trkpt>
   <trkpt lat="-37.80272" lon="144.935369"><ele>10.5</ele></trkpt>
   <trkpt lat="-37.802634" lon="144.935269"><ele>10.5</ele></trkpt>
   <trkpt lat="-37.802335" lon="144.93489"><ele>10.25</ele></trkpt>
   <trkpt lat="-37.802235" lon="144.934739"><ele>10</ele></trkpt>
   <trkpt lat="-37.801882" lon="144.934216"><ele>11</ele></trkpt>
   <trkpt lat="-37.801499" lon="144.933631"><ele>9.75</ele></trkpt>
   <trkpt lat="-37.801306" lon="144.933289"><ele>9.25</ele></trkpt>
   <trkpt lat="-37.801202" lon="144.933082"><ele>9.25</ele></trkpt>
   <trkpt lat="-37.801081" lon="144.932816"><ele>9.5</ele></trkpt>
   <trkpt lat="-37.800964" lon="144.932518"><ele>9.5</ele></trkpt>
   <trkpt lat="-37.800879" lon="144.932277"><ele>9.75</ele></trkpt>
   <trkpt lat="-37.800799" lon="144.932021"><ele>10</ele></trkpt>
   <trkpt lat="-37.800612" lon="144.931331"><ele>11.25</ele></trkpt>
   <trkpt lat="-37.80055" lon="144.931067"><ele>12</ele></trkpt>
   <trkpt lat="-37.80043" lon="144.93047"><ele>12.25</ele></trkpt>
   <trkpt lat="-37.800294" lon="144.929588"><ele>10.75</ele></trkpt>
   <trkpt lat="-37.800186" lon="144.929088"><ele>10.25</ele></trkpt>
   <trkpt lat="-37.800114" lon="144.9288"><ele>10</ele></trkpt>
   <trkpt lat="-37.800055" lon="144.928556"><ele>10</ele></trkpt>
   <trkpt lat="-37.800005" lon="144.928297"><ele>9.75</ele></trkpt>
   <trkpt lat="-37.799988" lon="144.928184"><ele>9.75</ele></trkpt>
   <trkpt lat="-37.799618" lon="144.925678"><ele>9.25</ele></trkpt>
   <trkpt lat="-37.799605" lon="144.925585"><ele>9</ele></trkpt>
   <trkpt lat="-37.799356" lon="144.923909"><ele>8.75</ele></trkpt>
   <trkpt lat="-37.799347" lon="144.923847"><ele>8.75</ele></trkpt>
   <trkpt lat="-37.799257" lon="144.923257"><ele>8.5</ele></trkpt>
   <trkpt lat="-37.798757" lon="144.919852"><ele>8</ele></trkpt>
   <trkpt lat="-37.798707" lon="144.91952"><ele>8</ele></trkpt>
   <trkpt lat="-37.798701" lon="144.919477"><ele>8</ele></trkpt>
   <trkpt lat="-37.79832" lon="144.91691"><ele>5</ele></trkpt>
   <trkpt lat="-37.798207" lon="144.91615"><ele>6</ele></trkpt>
   <trkpt lat="-37.798144" lon="144.915755"><ele>7.5</ele></trkpt>
   <trkpt lat="-37.798001" lon="144.914774"><ele>8.75</ele></trkpt>
   <trkpt lat="-37.79796" lon="144.914411"><ele>6.25</ele></trkpt>
   <trkpt lat="-37.797931" lon="144.913982"><ele>4.25</ele></trkpt>
   <trkpt lat="-37.797927" lon="144.913605"><ele>4.5</ele></trkpt>
   <trkpt lat="-37.797945" lon="144.913218"><ele>4.75</ele></trkpt>
   <trkpt lat="-37.797975" lon="144.912891"><ele>6</ele></trkpt>
   <trkpt lat="-37.798038" lon="144.912428"><ele>7</ele></trkpt>
   <trkpt lat="-37.79826" lon="144.911016"><ele>8.5</ele></trkpt>
   <trkpt lat="-37.798644" lon="144.908747"><ele>13</ele></trkpt>
   <trkpt lat="-37.79874" lon="144.908258"><ele>15.75</ele></trkpt>
   <trkpt lat="-37.79878" lon="144.908082"><ele>16.5</ele></trkpt>
   <trkpt lat="-37.798915" lon="144.907571"><ele>19</ele></trkpt>
   <trkpt lat="-37.79905" lon="144.907117"><ele>21.5</ele></trkpt>
   <trkpt lat="-37.799129" lon="144.90689"><ele>22.75</ele></trkpt>
   <trkpt lat="-37.799253" lon="144.906576"><ele>23.5</ele></trkpt>
   <trkpt lat="-37.799765" lon="144.905396"><ele>24</ele></trkpt>
   <trkpt lat="-37.799913" lon="144.905099"><ele>24.75</ele></trkpt>
   <trkpt lat="-37.800043" lon="144.90486"><ele>25</ele></trkpt>
   <trkpt lat="-37.800606" lon="144.903961"><ele>23.75</ele></trkpt>
   <trkpt lat="-37.80111" lon="144.903221"><ele>21.5</ele></trkpt>
   <trkpt lat="-37.801307" lon="144.902958"><ele>21.75</ele></trkpt>
   <trkpt lat="-37.801423" lon="144.902811"><ele>21.75</ele></trkpt>
   <trkpt lat="-37.80192" lon="144.902262"><ele>21.5</ele></trkpt>
   <trkpt lat="-37.802177" lon="144.902003"><ele>22.5</ele></trkpt>
   <trkpt lat="-37.802386" lon="144.901808"><ele>23.25</ele></trkpt>
   <trkpt lat="-37.8026" lon="144.90162"><ele>23.25</ele></trkpt>
   <trkpt lat="-37.803885" lon="144.900424"><ele>20.25</ele></trkpt>
   <trkpt lat="-37.804074" lon="144.90025"><ele>20.5</ele></trkpt>
   <trkpt lat="-37.804457" lon="144.899913"><ele>21</ele></trkpt>
   <trkpt lat="-37.805961" lon="144.898502"><ele>17.25</ele></trkpt>
   <trkpt lat="-37.806161" lon="144.89832"><ele>16.25</ele></trkpt>
   <trkpt lat="-37.807202" lon="144.89734"><ele>15.5</ele></trkpt>
   <trkpt lat="-37.807811" lon="144.896753"><ele>17.5</ele></trkpt>
   <trkpt lat="-37.808474" lon="144.896146"><ele>20.5</ele></trkpt>
   <trkpt lat="-37.809027" lon="144.895628"><ele>21.5</ele></trkpt>
   <trkpt lat="-37.809631" lon="144.895066"><ele>24.25</ele></trkpt>
   <trkpt lat="-37.810353" lon="144.894378"><ele>24.25</ele></trkpt>
   <trkpt lat="-37.810903" lon="144.893871"><ele>24.75</ele></trkpt>
   <trkpt lat="-37.811168" lon="144.893617"><ele>24.25</ele></trkpt>
   <trkpt lat="-37.811498" lon="144.893318"><ele>23.25</ele></trkpt>
   <trkpt lat="-37.811638" lon="144.893181"><ele>23.25</ele></trkpt>
   <trkpt lat="-37.811955" lon="144.892897"><ele>23.5</ele></trkpt>
   <trkpt lat="-37.812169" lon="144.89269"><ele>23.25</ele></trkpt>
   <trkpt lat="-37.812567" lon="144.892316"><ele>22.25</ele></trkpt>
   <trkpt lat="-37.813312" lon="144.891633"><ele>23</ele></trkpt>
   <trkpt lat="-37.813525" lon="144.891442"><ele>22.75</ele></trkpt>
   <trkpt lat="-37.813753" lon="144.891264"><ele>22.5</ele></trkpt>
   <trkpt lat="-37.813847" lon="144.891172"><ele>22.25</ele></trkpt>
   <trkpt lat="-37.814257" lon="144.890859"><ele>20.75</ele></trkpt>
   <trkpt lat="-37.814709" lon="144.890544"><ele>20.5</ele></trkpt>
   <trkpt lat="-37.815078" lon="144.890312"><ele>20.5</ele></trkpt>
   <trkpt lat="-37.815532" lon="144.890056"><ele>19.75</ele></trkpt>
   <trkpt lat="-37.815901" lon="144.889873"><ele>19</ele></trkpt>
   <trkpt lat="-37.816451" lon="144.889625"><ele>18.75</ele></trkpt>
   <trkpt lat="-37.816459" lon="144.889622"><ele>18.75</ele></trkpt>
   <trkpt lat="-37.816531" lon="144.889591"><ele>18.5</ele></trkpt>
   <trkpt lat="-37.816588" lon="144.889571"><ele>18.5</ele></trkpt>
   <trkpt lat="-37.81688" lon="144.889465"><ele>18</ele></trkpt>
   <trkpt lat="-37.817113" lon="144.889389"><ele>17.75</ele></trkpt>
   <trkpt lat="-37.817533" lon="144.889268"><ele>17</ele></trkpt>
   <trkpt lat="-37.819873" lon="144.888668"><ele>14</ele></trkpt>
   <trkpt lat="-37.82087" lon="144.888414"><ele>10.25</ele></trkpt>
   <trkpt lat="-37.821039" lon="144.888368"><ele>10.25</ele></trkpt>
   <trkpt lat="-37.822749" lon="144.887927"><ele>11</ele></trkpt>
   <trkpt lat="-37.823023" lon="144.887855"><ele>10.75</ele></trkpt>
   <trkpt lat="-37.824794" lon="144.887411"><ele>12.5</ele></trkpt>
   <trkpt lat="-37.828655" lon="144.886407"><ele>17.25</ele></trkpt>
   <trkpt lat="-37.82977" lon="144.886128"><ele>18.25</ele></trkpt>
   <trkpt lat="-37.829867" lon="144.886102"><ele>18.5</ele></trkpt>
   <trkpt lat="-37.830034" lon="144.88606"><ele>18.5</ele></trkpt>
   <trkpt lat="-37.83064" lon="144.885902"><ele>17.5</ele></trkpt>
   <trkpt lat="-37.831429" lon="144.885699"><ele>17.75</ele></trkpt>
   <trkpt lat="-37.832761" lon="144.885356"><ele>17.75</ele></trkpt>
   <trkpt lat="-37.837593" lon="144.884117"><ele>15.5</ele></trkpt>
   <trkpt lat="-37.838136" lon="144.883982"><ele>18.5</ele></trkpt>
   <trkpt lat="-37.838575" lon="144.883885"><ele>19</ele></trkpt>
   <trkpt lat="-37.83913" lon="144.883778"><ele>18</ele></trkpt>
   <trkpt lat="-37.839897" lon="144.883667"><ele>18.25</ele></trkpt>
   <trkpt lat="-37.840752" lon="144.883577"><ele>17.25</ele></trkpt>
   <trkpt lat="-37.841396" lon="144.883547"><ele>18.5</ele></trkpt>
   <trkpt lat="-37.841754" lon="144.88354"><ele>19</ele></trkpt>
   <trkpt lat="-37.84209" lon="144.883535"><ele>18.75</ele></trkpt>
   <trkpt lat="-37.842724" lon="144.883555"><ele>18.5</ele></trkpt>
   <trkpt lat="-37.843176" lon="144.883582"><ele>18.5</ele></trkpt>
   <trkpt lat="-37.843367" lon="144.883591"><ele>18.5</ele></trkpt>
   <trkpt lat="-37.843478" lon="144.883589"><ele>18.5</ele></trkpt>
   <trkpt lat="-37.843714" lon="144.883568"><ele>18.75</ele></trkpt>
   <trkpt lat="-37.844048" lon="144.883543"><ele>18.75</ele></trkpt>
   <trkpt lat="-37.844337" lon="144.88351"><ele>18</ele></trkpt>
   <trkpt lat="-37.84459" lon="144.88347"><ele>16.75</ele></trkpt>
   <trkpt lat="-37.844837" lon="144.883389"><ele>15.5</ele></trkpt>
   <trkpt lat="-37.844962" lon="144.883333"><ele>15</ele></trkpt>
   <trkpt lat="-37.84511" lon="144.883255"><ele>15.25</ele></trkpt>
   <trkpt lat="-37.845383" lon="144.883093"><ele>15.5</ele></trkpt>
   <trkpt lat="-37.845667" lon="144.882873"><ele>16</ele></trkpt>
   <trkpt lat="-37.845898" lon="144.882656"><ele>16.25</ele></trkpt>
   <trkpt lat="-37.846203" lon="144.882307"><ele>16</ele></trkpt>
   <trkpt lat="-37.84641" lon="144.882027"><ele>15.5</ele></trkpt>
   <trkpt lat="-37.84662" lon="144.881685"><ele>15</ele></trkpt>
   <trkpt lat="-37.846776" lon="144.881363"><ele>14.75</ele></trkpt>
   <trkpt lat="-37.846928" lon="144.881001"><ele>14.75</ele></trkpt>
   <trkpt lat="-37.847155" lon="144.880343"><ele>14.25</ele></trkpt>
   <trkpt lat="-37.848398" lon="144.876659"><ele>13</ele></trkpt>
   <trkpt lat="-37.848466" lon="144.876446"><ele>13</ele></trkpt>
   <trkpt lat="-37.848573" lon="144.876116"><ele>12.75</ele></trkpt>
   <trkpt lat="-37.848754" lon="144.875598"><ele>12.25</ele></trkpt>
   <trkpt lat="-37.848907" lon="144.875209"><ele>12</ele></trkpt>
   <trkpt lat="-37.849011" lon="144.874929"><ele>11.75</ele></trkpt>
   <trkpt lat="-37.849083" lon="144.874707"><ele>11.5</ele></trkpt>
   <trkpt lat="-37.849111" lon="144.874616"><ele>11.5</ele></trkpt>
   <trkpt lat="-37.849134" lon="144.874544"><ele>11.25</ele></trkpt>
   <trkpt lat="-37.84923" lon="144.87419"><ele>11</ele></trkpt>
   <trkpt lat="-37.849339" lon="144.873704"><ele>10.25</ele></trkpt>
   <trkpt lat="-37.849388" lon="144.873441"><ele>9.75</ele></trkpt>
   <trkpt lat="-37.849422" lon="144.873221"><ele>9.5</ele></trkpt>
   <trkpt lat="-37.849472" lon="144.872763"><ele>9.75</ele></trkpt>
   <trkpt lat="-37.849498" lon="144.87208"><ele>9.5</ele></trkpt>
   <trkpt lat="-37.84949" lon="144.871836"><ele>9.5</ele></trkpt>
   <trkpt lat="-37.849484" lon="144.871622"><ele>9.5</ele></trkpt>
   <trkpt lat="-37.849459" lon="144.871231"><ele>9.75</ele></trkpt>
   <trkpt lat="-37.849133" lon="144.868305"><ele>8</ele></trkpt>
   <trkpt lat="-37.848685" lon="144.864443"><ele>5.25</ele></trkpt>
   <trkpt lat="-37.848294" lon="144.86138"><ele>4.75</ele></trkpt>
   <trkpt lat="-37.848271" lon="144.861203"><ele>5</ele></trkpt>
   <trkpt lat="-37.848253" lon="144.861047"><ele>5</ele></trkpt>
   <trkpt lat="-37.848208" lon="144.860663"><ele>5.25</ele></trkpt>
   <trkpt lat="-37.847857" lon="144.857662"><ele>6</ele></trkpt>
   <trkpt lat="-37.847842" lon="144.857232"><ele>6.25</ele></trkpt>
   <trkpt lat="-37.847587" lon="144.854964"><ele>5.75</ele></trkpt>
   <trkpt lat="-37.847454" lon="144.853813"><ele>7.25</ele></trkpt>
   <trkpt lat="-37.847302" lon="144.852363"><ele>6.25</ele></trkpt>
   <trkpt lat="-37.847226" lon="144.851506"><ele>7.5</ele></trkpt>
   <trkpt lat="-37.847026" lon="144.849527"><ele>8</ele></trkpt>
   <trkpt lat="-37.846796" lon="144.847232"><ele>10</ele></trkpt>
   <trkpt lat="-37.846715" lon="144.84648"><ele>9.5</ele></trkpt>
   <trkpt lat="-37.846546" lon="144.845186"><ele>12.5</ele></trkpt>
   <trkpt lat="-37.846493" lon="144.844635"><ele>11.75</ele></trkpt>
   <trkpt lat="-37.846463" lon="144.844066"><ele>10.25</ele></trkpt>
   <trkpt lat="-37.846463" lon="144.843499"><ele>9</ele></trkpt>
   <trkpt lat="-37.846482" lon="144.842737"><ele>9</ele></trkpt>
   <trkpt lat="-37.846526" lon="144.841877"><ele>9.25</ele></trkpt>
   <trkpt lat="-37.846578" lon="144.841144"><ele>9</ele></trkpt>
   <trkpt lat="-37.846702" lon="144.8402"><ele>8.75</ele></trkpt>
   <trkpt lat="-37.846804" lon="144.839583"><ele>7.25</ele></trkpt>
   <trkpt lat="-37.846919" lon="144.838995"><ele>6.25</ele></trkpt>
   <trkpt lat="-37.847125" lon="144.83813"><ele>6.75</ele></trkpt>
   <trkpt lat="-37.847849" lon="144.835255"><ele>4.25</ele></trkpt>
   <trkpt lat="-37.847963" lon="144.83479"><ele>4.75</ele></trkpt>
   <trkpt lat="-37.849838" lon="144.82734"><ele>8</ele></trkpt>
   <trkpt lat="-37.851023" lon="144.822668"><ele>7.25</ele></trkpt>
   <trkpt lat="-37.85109" lon="144.822409"><ele>7.25</ele></trkpt>
   <trkpt lat="-37.851572" lon="144.820473"><ele>9.5</ele></trkpt>
   <trkpt lat="-37.85192" lon="144.819124"><ele>8.5</ele></trkpt>
   <trkpt lat="-37.85257" lon="144.816551"><ele>10</ele></trkpt>
   <trkpt lat="-37.853671" lon="144.812186"><ele>13.25</ele></trkpt>
   <trkpt lat="-37.854141" lon="144.810321"><ele>13.5</ele></trkpt>
   <trkpt lat="-37.854372" lon="144.809441"><ele>11.5</ele></trkpt>
   <trkpt lat="-37.854567" lon="144.808747"><ele>12</ele></trkpt>
   <trkpt lat="-37.85459" lon="144.80866"><ele>11.75</ele></trkpt>
   <trkpt lat="-37.854827" lon="144.807784"><ele>12.25</ele></trkpt>
   <trkpt lat="-37.855288" lon="144.80578"><ele>9.5</ele></trkpt>
   <trkpt lat="-37.856968" lon="144.799091"><ele>9.25</ele></trkpt>
   <trkpt lat="-37.858047" lon="144.794849"><ele>9.75</ele></trkpt>
   <trkpt lat="-37.858509" lon="144.792994"><ele>6.75</ele></trkpt>
   <trkpt lat="-37.859168" lon="144.790397"><ele>7.5</ele></trkpt>
   <trkpt lat="-37.85919" lon="144.790309"><ele>7.5</ele></trkpt>
   <trkpt lat="-37.860783" lon="144.784006"><ele>6.75</ele></trkpt>
   <trkpt lat="-37.861644" lon="144.780614"><ele>7.25</ele></trkpt>
   <trkpt lat="-37.861804" lon="144.779984"><ele>7.75</ele></trkpt>
   <trkpt lat="-37.861917" lon="144.77953"><ele>7.75</ele></trkpt>
   <trkpt lat="-37.861967" lon="144.779325"><ele>7.75</ele></trkpt>
   <trkpt lat="-37.862289" lon="144.778066"><ele>10</ele></trkpt>
   <trkpt lat="-37.862414" lon="144.777425"><ele>11.25</ele></trkpt>
   <trkpt lat="-37.86274" lon="144.776105"><ele>12</ele></trkpt>
   <trkpt lat="-37.863038" lon="144.774951"><ele>12.75</ele></trkpt>
   <trkpt lat="-37.863506" lon="144.773097"><ele>12.25</ele></trkpt>
   <trkpt lat="-37.863727" lon="144.772251"><ele>12.75</ele></trkpt>
   <trkpt lat="-37.86396" lon="144.771307"><ele>12.75</ele></trkpt>
   <trkpt lat="-37.865084" lon="144.766841"><ele>14</ele></trkpt>
   <trkpt lat="-37.865337" lon="144.765857"><ele>12.5</ele></trkpt>
   <trkpt lat="-37.865478" lon="144.765301"><ele>12.5</ele></trkpt>
   <trkpt lat="-37.865626" lon="144.764859"><ele>12.5</ele></trkpt>
   <trkpt lat="-37.865904" lon="144.763776"><ele>13.25</ele></trkpt>
   <trkpt lat="-37.866416" lon="144.761736"><ele>13.25</ele></trkpt>
   <trkpt lat="-37.866472" lon="144.761494"><ele>13.5</ele></trkpt>
   <trkpt lat="-37.866621" lon="144.760915"><ele>14</ele></trkpt>
   <trkpt lat="-37.867347" lon="144.758017"><ele>13.75</ele></trkpt>
   <trkpt lat="-37.867694" lon="144.75668"><ele>15.5</ele></trkpt>
   <trkpt lat="-37.8689" lon="144.751895"><ele>16.75</ele></trkpt>
   <trkpt lat="-37.869344" lon="144.750168"><ele>16.5</ele></trkpt>
   <trkpt lat="-37.869427" lon="144.74987"><ele>16.5</ele></trkpt>
   <trkpt lat="-37.869802" lon="144.74855"><ele>15.25</ele></trkpt>
   <trkpt lat="-37.870047" lon="144.747663"><ele>15.75</ele></trkpt>
   <trkpt lat="-37.870381" lon="144.746365"><ele>18</ele></trkpt>
   <trkpt lat="-37.870822" lon="144.744615"><ele>16</ele></trkpt>
   <trkpt lat="-37.871166" lon="144.742939"><ele>16.5</ele></trkpt>
   <trkpt lat="-37.872244" lon="144.738656"><ele>18.5</ele></trkpt>
   <trkpt lat="-37.873043" lon="144.735519"><ele>18</ele></trkpt>
   <trkpt lat="-37.875062" lon="144.727515"><ele>16.75</ele></trkpt>
   <trkpt lat="-37.875532" lon="144.725678"><ele>13</ele></trkpt>
   <trkpt lat="-37.876343" lon="144.722445"><ele>10.5</ele></trkpt>
   <trkpt lat="-37.876499" lon="144.721837"><ele>10.25</ele></trkpt>
   <trkpt lat="-37.87842" lon="144.714188"><ele>16</ele></trkpt>
   <trkpt lat="-37.878926" lon="144.712227"><ele>15.5</ele></trkpt>
   <trkpt lat="-37.879141" lon="144.711524"><ele>16.75</ele></trkpt>
   <trkpt lat="-37.87943" lon="144.710706"><ele>17</ele></trkpt>
   <trkpt lat="-37.879688" lon="144.710049"><ele>17.75</ele></trkpt>
   <trkpt lat="-37.88072" lon="144.70751"><ele>20.25</ele></trkpt>
   <trkpt lat="-37.88224" lon="144.703739"><ele>25.75</ele></trkpt>
   <trkpt lat="-37.883205" lon="144.70138"><ele>27</ele></trkpt>
   <trkpt lat="-37.883921" lon="144.69958"><ele>27</ele></trkpt>
   <trkpt lat="-37.884873" lon="144.697263"><ele>28.25</ele></trkpt>
   <trkpt lat="-37.885188" lon="144.696457"><ele>28.5</ele></trkpt>
   <trkpt lat="-37.885427" lon="144.695869"><ele>27.5</ele></trkpt>
   <trkpt lat="-37.886463" lon="144.693367"><ele>26.5</ele></trkpt>
   <trkpt lat="-37.887145" lon="144.691758"><ele>27</ele></trkpt>
   <trkpt lat="-37.887377" lon="144.691173"><ele>26.75</ele></trkpt>
   <trkpt lat="-37.888215" lon="144.689118"><ele>24.75</ele></trkpt>
   <trkpt lat="-37.888754" lon="144.687839"><ele>23.25</ele></trkpt>
   <trkpt lat="-37.889016" lon="144.687202"><ele>23.5</ele></trkpt>
   <trkpt lat="-37.889504" lon="144.686043"><ele>24.25</ele></trkpt>
   <trkpt lat="-37.890526" lon="144.683575"><ele>24</ele></trkpt>
   <trkpt lat="-37.891622" lon="144.680627"><ele>24.5</ele></trkpt>
   <trkpt lat="-37.891755" lon="144.680298"><ele>23.75</ele></trkpt>
   <trkpt lat="-37.891879" lon="144.679993"><ele>23.5</ele></trkpt>
   <trkpt lat="-37.896185" lon="144.669375"><ele>26.5</ele></trkpt>
   <trkpt lat="-37.896725" lon="144.668024"><ele>26.75</ele></trkpt>
   <trkpt lat="-37.897529" lon="144.666038"><ele>28</ele></trkpt>
   <trkpt lat="-37.897904" lon="144.665123"><ele>28</ele></trkpt>
   <trkpt lat="-37.898021" lon="144.664754"><ele>28</ele></trkpt>
   <trkpt lat="-37.898123" lon="144.664476"><ele>28</ele></trkpt>
   <trkpt lat="-37.898158" lon="144.664391"><ele>28</ele></trkpt>
   <trkpt lat="-37.898488" lon="144.663581"><ele>27</ele></trkpt>
   <trkpt lat="-37.898531" lon="144.663474"><ele>27</ele></trkpt>
   <trkpt lat="-37.898693" lon="144.66308"><ele>26.75</ele></trkpt>
   <trkpt lat="-37.898964" lon="144.662419"><ele>26</ele></trkpt>
   <trkpt lat="-37.899264" lon="144.661689"><ele>26</ele></trkpt>
   <trkpt lat="-37.899906" lon="144.660109"><ele>25.75</ele></trkpt>
   <trkpt lat="-37.899922" lon="144.660071"><ele>25.75</ele></trkpt>
  </trkseg>
 </trk>
</gpx>