<?xml version="1.0" encoding="UTF-8"?>
<!-- track-length = 15575 filtered ascend = 11 plain-ascend = -5 cost=15575 energy=0.2kwh time=20m 46s -->
<gpx 
 xmlns="http://www.topografix.com/GPX/1/1" 
 xmlns:xsi="http://www.w3.org/2001/XMLSchema-instance" 
 xsi:schemaLocation="http://www.topografix.com/GPX/1/1 http://www.topografix.com/GPX/1/1/gpx.xsd" 
 version="1.1" 
 creator="BRouter-Web 0.18.1">
 <trk>
  <name>WIL</name>
  <trkseg>
   <trkpt lat="-37.818772" lon="144.966627"><ele>14</ele></trkpt>
   <trkpt lat="-37.818887" lon="144.966027"><ele>12.5</ele></trkpt>
   <trkpt lat="-37.818954" lon="144.965656"><ele>11.5</ele></trkpt>
   <trkpt lat="-37.819071" lon="144.965014"><ele>9</ele></trkpt>
   <trkpt lat="-37.819092" lon="144.964892"><ele>9.25</ele></trkpt>
   <trkpt lat="-37.819144" lon="144.964429"><ele>10.25</ele></trkpt>
   <trkpt lat="-37.819192" lon="144.964023"><ele>10.75</ele></trkpt>
   <trkpt lat="-37.819218" lon="144.963863"><ele>10.75</ele></trkpt>
   <trkpt lat="-37.819407" lon="144.963117"><ele>11.5</ele></trkpt>
   <trkpt lat="-37.819455" lon="144.962923"><ele>12</ele></trkpt>
   <trkpt lat="-37.819482" lon="144.962793"><ele>12.5</ele></trkpt>
   <trkpt lat="-37.819546" lon="144.962355"><ele>13.25</ele></trkpt>
   <trkpt lat="-37.819649" lon="144.961654"><ele>13.25</ele></trkpt>
   <trkpt lat="-37.819725" lon="144.96125"><ele>13.25</ele></trkpt>
   <trkpt lat="-37.819785" lon="144.961005"><ele>13.25</ele></trkpt>
   <trkpt lat="-37.81986" lon="144.960756"><ele>13.25</ele></trkpt>
   <trkpt lat="-37.81996" lon="144.960479"><ele>13.25</ele></trkpt>
   <trkpt lat="-37.821176" lon="144.95738"><ele>13.75</ele></trkpt>
   <trkpt lat="-37.821295" lon="144.95706"><ele>13.75</ele></trkpt>
   <trkpt lat="-37.821379" lon="144.956752"><ele>13.75</ele></trkpt>
   <trkpt lat="-37.821414" lon="144.956585"><ele>13.75</ele></trkpt>
   <trkpt lat="-37.821439" lon="144.956411"><ele>13.75</ele></trkpt>
   <trkpt lat="-37.82147" lon="144.956086"><ele>14</ele></trkpt>
   <trkpt lat="-37.821472" lon="144.955787"><ele>14</ele></trkpt>
   <trkpt lat="-37.821435" lon="144.955455"><ele>14</ele></trkpt>
   <trkpt lat="-37.821384" lon="144.955153"><ele>14</ele></trkpt>
   <trkpt lat="-37.821307" lon="144.954876"><ele>14</ele></trkpt>
   <trkpt lat="-37.8212" lon="144.954581"><ele>14</ele></trkpt>
   <trkpt lat="-37.821042" lon="144.954252"><ele>14</ele></trkpt>
   <trkpt lat="-37.820953" lon="144.954116"><ele>14</ele></trkpt>
   <trkpt lat="-37.820684" lon="144.953731"><ele>14.25</ele></trkpt>
   <trkpt lat="-37.820512" lon="144.953515"><ele>12.5</ele></trkpt>
   <trkpt lat="-37.820411" lon="144.953374"><ele>11.25</ele></trkpt>
   <trkpt lat="-37.820288" lon="144.953139"><ele>10.75</ele></trkpt>
   <trkpt lat="-37.820177" lon="144.952981"><ele>10.5</ele></trkpt>
   <trkpt lat="-37.82005" lon="144.952828"><ele>10.25</ele></trkpt>
   <trkpt lat="-37.819979" lon="144.952758"><ele>10</ele></trkpt>
   <trkpt lat="-37.819883" lon="144.952658"><ele>9.25</ele></trkpt>
   <trkpt lat="-37.81971" lon="144.952429"><ele>7.75</ele></trkpt>
   <trkpt lat="-37.819604" lon="144.95231"><ele>7</ele></trkpt>
   <trkpt lat="-37.819451" lon="144.952166"><ele>6.25</ele></trkpt>
   <trkpt lat="-37.81925" lon="144.952018"><ele>5.5</ele></trkpt>
   <trkpt lat="-37.81903" lon="144.951861"><ele>6.25</ele></trkpt>
   <trkpt lat="-37.818521" lon="144.951465"><ele>9.75</ele></trkpt>
   <trkpt lat="-37.818009" lon="144.951058"><ele>11.25</ele></trkpt>
   <trkpt lat="-37.817695" lon="144.950817"><ele>12</ele></trkpt>
   <trkpt lat="-37.817529" lon="144.950692"><ele>11.75</ele></trkpt>
   <trkpt lat="-37.817195" lon="144.950473"><ele>10.25</ele></trkpt>
   <trkpt lat="-37.816682" lon="144.950136"><ele>10.75</ele></trkpt>
   <trkpt lat="-37.816328" lon="144.949857"><ele>11.75</ele></trkpt>
   <trkpt lat="-37.815855" lon="144.949429"><ele>12.5</ele></trkpt>
   <trkpt lat="-37.815537" lon="144.949183"><ele>12.5</ele></trkpt>
   <trkpt lat="-37.815093" lon="144.948838"><ele>11.75</ele></trkpt>
   <trkpt lat="-37.81476" lon="144.948503"><ele>10.5</ele></trkpt>
   <trkpt lat="-37.814315" lon="144.948143"><ele>10</ele></trkpt>
   <trkpt lat="-37.813916" lon="144.947766"><ele>9</ele></trkpt>
   <trkpt lat="-37.813268" lon="144.947172"><ele>10.25</ele></trkpt>
   <trkpt lat="-37.813056" lon="144.946949"><ele>11</ele></trkpt>
   <trkpt lat="-37.812713" lon="144.946568"><ele>12.5</ele></trkpt>
   <trkpt lat="-37.812475" lon="144.946274"><ele>13.25</ele></trkpt>
   <trkpt lat="-37.812236" lon="144.945975"><ele>11.5</ele></trkpt>
   <trkpt lat="-37.811957" lon="144.945645"><ele>9.5</ele></trkpt>
   <trkpt lat="-37.81173" lon="144.945381"><ele>8.5</ele></trkpt>
   <trkpt lat="-37.811331" lon="144.944935"><ele>9.25</ele></trkpt>
   <trkpt lat="-37.81118" lon="144.944779"><ele>9.25</ele></trkpt>
   <trkpt lat="-37.810529" lon="144.944162"><ele>7.75</ele></trkpt>
   <trkpt lat="-37.810473" lon="144.94411"><ele>7.75</ele></trkpt>
   <trkpt lat="-37.810413" lon="144.944053"><ele>7.75</ele></trkpt>
   <trkpt lat="-37.81014" lon="144.943802"><ele>7.5</ele></trkpt>
   <trkpt lat="-37.80997" lon="144.94367"><ele>7.5</ele></trkpt>
   <trkpt lat="-37.80936" lon="144.943224"><ele>11</ele></trkpt>
   <trkpt lat="-37.808951" lon="144.942849"><ele>10.25</ele></trkpt>
   <trkpt lat="-37.808782" lon="144.942715"><ele>9.5</ele></trkpt>
   <trkpt lat="-37.808582" lon="144.942578"><ele>9</ele></trkpt>
   <trkpt lat="-37.808394" lon="144.942418"><ele>8.75</ele></trkpt>
   <trkpt lat="-37.808142" lon="144.942186"><ele>8.75</ele></trkpt>
   <trkpt lat="-37.807929" lon="144.942012"><ele>8.25</ele></trkpt>
   <trkpt lat="-37.80778" lon="144.941872"><ele>7.5</ele></trkpt>
   <trkpt lat="-37.807593" lon="144.941676"><ele>6.25</ele></trkpt>
   <trkpt lat="-37.807566" lon="144.941648"><ele>6.25</ele></trkpt>
   <trkpt lat="-37.807317" lon="144.941386"><ele>7.25</ele></trkpt>
   <trkpt lat="-37.807054" lon="144.941116"><ele>8.75</ele></trkpt>
   <trkpt lat="-37.806737" lon="144.940831"><ele>9.5</ele></trkpt>
   <trkpt lat="-37.806574" lon="144.940698"><ele>9.75</ele></trkpt>
   <trkpt lat="-37.806469" lon="144.940602"><ele>9.5</ele></trkpt>
   <trkpt lat="-37.806319" lon="144.940449"><ele>9.5</ele></trkpt>
   <trkpt lat="-37.806189" lon="144.94033"><ele>9.25</ele></trkpt>
   <trkpt lat="-37.806075" lon="144.940238"><ele>9.25</ele></trkpt>
   <trkpt lat="-37.805883" lon="144.94007"><ele>9</ele></trkpt>
   <trkpt lat="-37.805743" lon="144.939913"><ele>9</ele></trkpt>
   <trkpt lat="-37.805648" lon="144.939799"><ele>9</ele></trkpt>
   <trkpt lat="-37.80547" lon="144.93954"><ele>9.25</ele></trkpt>
   <trkpt lat="-37.805388" lon="144.939402"><ele>9.5</ele></trkpt>
   <trkpt lat="-37.804744" lon="144.938242"><ele>10.5</ele></trkpt>
   <trkpt lat="-37.804399" lon="144.937611"><ele>10.5</ele></trkpt>
   <trkpt lat="-37.804244" lon="144.937333"><ele>10.5</ele></trkpt>
   <trkpt lat="-37.804189" lon="144.937238"><ele>10.5</ele></trkpt>
   <trkpt lat="-37.804089" lon="144.937093"><ele>10.5</ele></trkpt>
   <trkpt lat="-37.803736" lon="144.936672"><ele>10.25</ele></trkpt>
   <trkpt lat="-37.803561" lon="144.936463"><ele>9.75</ele></trkpt>
   <trkpt lat="-37.803358" lon="144.936218"><ele>9.5</ele></trkpt>
   <trkpt lat="-37.803196" lon="144.936017"><ele>9.5</ele></trkpt>
   <trkpt lat="-37.803063" lon="144.935831"><ele>9.75</ele></trkpt>
   <trkpt lat="-37.802887" lon="144.935568"><ele>10</ele></trkpt>
   <trkpt lat="-37.802692" lon="144.935279"><ele>10.5</ele></trkpt>
   <trkpt lat="-37.80262" lon="144.935174"><ele>10.5</ele></trkpt>
   <trkpt lat="-37.802473" lon="144.934999"><ele>10.75</ele></trkpt>
   <trkpt lat="-37.802308" lon="144.934778"><ele>10.25</ele></trkpt>
   <trkpt lat="-37.801589" lon="144.933699"><ele>10</ele></trkpt>
   <trkpt lat="-37.801369" lon="144.933328"><ele>9.25</ele></trkpt>
   <trkpt lat="-37.801196" lon="144.932979"><ele>9.25</ele></trkpt>
   <trkpt lat="-37.801112" lon="144.932791"><ele>9.25</ele></trkpt>
   <trkpt lat="-37.800997" lon="144.932498"><ele>9.5</ele></trkpt>
   <trkpt lat="-37.800919" lon="144.932277"><ele>9.75</ele></trkpt>
   <trkpt lat="-37.800831" lon="144.932001"><ele>10</ele></trkpt>
   <trkpt lat="-37.800758" lon="144.931743"><ele>10</ele></trkpt>
   <trkpt lat="-37.800622" lon="144.931221"><ele>11.5</ele></trkpt>
   <trkpt lat="-37.800529" lon="144.930795"><ele>12.5</ele></trkpt>
   <trkpt lat="-37.800451" lon="144.930373"><ele>12</ele></trkpt>
   <trkpt lat="-37.800309" lon="144.929434"><ele>10.5</ele></trkpt>
   <trkpt lat="-37.800278" lon="144.929264"><ele>10</ele></trkpt>
   <trkpt lat="-37.800198" lon="144.928922"><ele>10</ele></trkpt>
   <trkpt lat="-37.800066" lon="144.928394"><ele>9.75</ele></trkpt>
   <trkpt lat="-37.800015" lon="144.928129"><ele>9.5</ele></trkpt>
   <trkpt lat="-37.799924" lon="144.927509"><ele>9.5</ele></trkpt>
   <trkpt lat="-37.799899" lon="144.92734"><ele>9.5</ele></trkpt>
   <trkpt lat="-37.799658" lon="144.925734"><ele>9</ele></trkpt>
   <trkpt lat="-37.799408" lon="144.924047"><ele>8.75</ele></trkpt>
   <trkpt lat="-37.799395" lon="144.92396"><ele>8.75</ele></trkpt>
   <trkpt lat="-37.799349" lon="144.923641"><ele>8.75</ele></trkpt>
   <trkpt lat="-37.798786" lon="144.919807"><ele>8</ele></trkpt>
   <trkpt lat="-37.798737" lon="144.91948"><ele>8.25</ele></trkpt>
   <trkpt lat="-37.798735" lon="144.919468"><ele>8.25</ele></trkpt>
   <trkpt lat="-37.798355" lon="144.916901"><ele>5</ele></trkpt>
   <trkpt lat="-37.798241" lon="144.916138"><ele>6</ele></trkpt>
   <trkpt lat="-37.798181" lon="144.915745"><ele>6</ele></trkpt>
   <trkpt lat="-37.798116" lon="144.915304"><ele>6</ele></trkpt>
   <trkpt lat="-37.798046" lon="144.914751"><ele>6.25</ele></trkpt>
   <trkpt lat="-37.798015" lon="144.914434"><ele>6.25</ele></trkpt>
   <trkpt lat="-37.797997" lon="144.914019"><ele>4.25</ele></trkpt>
   <trkpt lat="-37.797997" lon="144.913569"><ele>4.5</ele></trkpt>
   <trkpt lat="-37.798017" lon="144.913216"><ele>5</ele></trkpt>
   <trkpt lat="-37.79805" lon="144.912841"><ele>6</ele></trkpt>
   <trkpt lat="-37.798104" lon="144.912445"><ele>6.75</ele></trkpt>
   <trkpt lat="-37.798692" lon="144.908752"><ele>12.75</ele></trkpt>
   <trkpt lat="-37.798785" lon="144.908266"><ele>15.5</ele></trkpt>
   <trkpt lat="-37.798854" lon="144.907965"><ele>16.75</ele></trkpt>
   <trkpt lat="-37.798954" lon="144.907589"><ele>18.75</ele></trkpt>
   <trkpt lat="-37.799015" lon="144.907367"><ele>20.25</ele></trkpt>
   <trkpt lat="-37.799169" lon="144.906922"><ele>22.75</ele></trkpt>
   <trkpt lat="-37.799289" lon="144.906603"><ele>23.5</ele></trkpt>
   <trkpt lat="-37.799614" lon="144.905835"><ele>23.5</ele></trkpt>
   <trkpt lat="-37.799753" lon="144.905517"><ele>24</ele></trkpt>
   <trkpt lat="-37.799893" lon="144.905221"><ele>24.5</ele></trkpt>
   <trkpt lat="-37.800039" lon="144.904946"><ele>25</ele></trkpt>
   <trkpt lat="-37.80021" lon="144.904658"><ele>25</ele></trkpt>
   <trkpt lat="-37.801229" lon="144.903125"><ele>21.75</ele></trkpt>
   <trkpt lat="-37.80144" lon="144.90286"><ele>21.75</ele></trkpt>
   <trkpt lat="-37.801676" lon="144.902594"><ele>21</ele></trkpt>
   <trkpt lat="-37.801944" lon="144.902293"><ele>21.5</ele></trkpt>
   <trkpt lat="-37.802203" lon="144.902031"><ele>21</ele></trkpt>
   <trkpt lat="-37.802296" lon="144.901946"><ele>20.75</ele></trkpt>
   <trkpt lat="-37.802401" lon="144.90185"><ele>20.75</ele></trkpt>
   <trkpt lat="-37.802946" lon="144.901349"><ele>20.75</ele></trkpt>
   <trkpt lat="-37.80391" lon="144.90047"><ele>20.25</ele></trkpt>
   <trkpt lat="-37.804098" lon="144.900294"><ele>20.5</ele></trkpt>
   <trkpt lat="-37.804482" lon="144.899963"><ele>21</ele></trkpt>
   <trkpt lat="-37.806014" lon="144.898516"><ele>17</ele></trkpt>
   <trkpt lat="-37.806183" lon="144.898358"><ele>16.25</ele></trkpt>
   <trkpt lat="-37.808449" lon="144.896222"><ele>20.25</ele></trkpt>
   <trkpt lat="-37.809044" lon="144.895659"><ele>21.5</ele></trkpt>
   <trkpt lat="-37.809603" lon="144.895138"><ele>24</ele></trkpt>
   <trkpt lat="-37.810045" lon="144.894728"><ele>24.5</ele></trkpt>
   <trkpt lat="-37.810364" lon="144.894418"><ele>24.25</ele></trkpt>
   <trkpt lat="-37.811663" lon="144.893221"><ele>23.25</ele></trkpt>
   <trkpt lat="-37.812676" lon="144.892273"><ele>22.25</ele></trkpt>
   <trkpt lat="-37.813204" lon="144.891784"><ele>22.75</ele></trkpt>
   <trkpt lat="-37.813377" lon="144.891626"><ele>22.75</ele></trkpt>
   <trkpt lat="-37.813723" lon="144.891325"><ele>22.5</ele></trkpt>
   <trkpt lat="-37.813977" lon="144.891119"><ele>21.75</ele></trkpt>
   <trkpt lat="-37.814163" lon="144.890978"><ele>21.25</ele></trkpt>
   <trkpt lat="-37.814365" lon="144.890829"><ele>20.75</ele></trkpt>
   <trkpt lat="-37.81475" lon="144.890564"><ele>20.5</ele></trkpt>
   <trkpt lat="-37.815084" lon="144.890355"><ele>20.5</ele></trkpt>
   <trkpt lat="-37.815294" lon="144.89023"><ele>20.25</ele></trkpt>
   <trkpt lat="-37.8158" lon="144.889961"><ele>19</ele></trkpt>
   <trkpt lat="-37.815909" lon="144.889911"><ele>19</ele></trkpt>
   <trkpt lat="-37.816455" lon="144.889668"><ele>18.75</ele></trkpt>
   <trkpt lat="-37.816462" lon="144.889665"><ele>18.75</ele></trkpt>
   <trkpt lat="-37.816536" lon="144.889634"><ele>18.5</ele></trkpt>
   <trkpt lat="-37.816598" lon="144.889612"><ele>18.5</ele></trkpt>
   <trkpt lat="-37.816902" lon="144.889501"><ele>18</ele></trkpt>
   <trkpt lat="-37.817541" lon="144.88931"><ele>17.25</ele></trkpt>
   <trkpt lat="-37.81988" lon="144.888713"><ele>14.25</ele></trkpt>
   <trkpt lat="-37.820876" lon="144.888461"><ele>10.5</ele></trkpt>
   <trkpt lat="-37.821045" lon="144.888415"><ele>10.5</ele></trkpt>
   <trkpt lat="-37.822757" lon="144.887972"><ele>11</ele></trkpt>
   <trkpt lat="-37.822937" lon="144.887923"><ele>11</ele></trkpt>
   <trkpt lat="-37.823035" lon="144.887897"><ele>10.75</ele></trkpt>
   <trkpt lat="-37.823973" lon="144.887665"><ele>11.25</ele></trkpt>
   <trkpt lat="-37.826424" lon="144.887041"><ele>16.5</ele></trkpt>
   <trkpt lat="-37.828662" lon="144.886451"><ele>17.25</ele></trkpt>
   <trkpt lat="-37.829774" lon="144.886168"><ele>18.25</ele></trkpt>
   <trkpt lat="-37.829876" lon="144.886145"><ele>18.25</ele></trkpt>
   <trkpt lat="-37.830044" lon="144.886104"><ele>18.5</ele></trkpt>
   <trkpt lat="-37.830646" lon="144.885947"><ele>17.5</ele></trkpt>
   <trkpt lat="-37.831434" lon="144.885745"><ele>17.75</ele></trkpt>
   <trkpt lat="-37.831911" lon="144.885618"><ele>18</ele></trkpt>
   <trkpt lat="-37.832003" lon="144.8856"><ele>17.75</ele></trkpt>
   <trkpt lat="-37.837601" lon="144.88416"><ele>15.5</ele></trkpt>
   <trkpt lat="-37.838046" lon="144.884046"><ele>18</ele></trkpt>
   <trkpt lat="-37.838472" lon="144.883949"><ele>19.25</ele></trkpt>
   <trkpt lat="-37.839132" lon="144.883822"><ele>18</ele></trkpt>
   <trkpt lat="-37.839886" lon="144.883715"><ele>18.25</ele></trkpt>
   <trkpt lat="-37.840742" lon="144.883622"><ele>17.25</ele></trkpt>
   <trkpt lat="-37.841029" lon="144.883601"><ele>17.75</ele></trkpt>
   <trkpt lat="-37.841773" lon="144.883584"><ele>19</ele></trkpt>
   <trkpt lat="-37.842219" lon="144.88358"><ele>18.5</ele></trkpt>
   <trkpt lat="-37.842724" lon="144.883598"><ele>18.25</ele></trkpt>
   <trkpt lat="-37.843176" lon="144.883627"><ele>18.5</ele></trkpt>
   <trkpt lat="-37.843433" lon="144.883639"><ele>18.5</ele></trkpt>
   <trkpt lat="-37.843733" lon="144.883661"><ele>18.75</ele></trkpt>
   <trkpt lat="-37.843858" lon="144.883667"><ele>18.75</ele></trkpt>
   <trkpt lat="-37.844013" lon="144.883677"><ele>18.75</ele></trkpt>
   <trkpt lat="-37.844286" lon="144.883709"><ele>18.25</ele></trkpt>
   <trkpt lat="-37.844726" lon="144.883786"><ele>15.75</ele></trkpt>
   <trkpt lat="-37.845252" lon="144.883889"><ele>14</ele></trkpt>
   <trkpt lat="-37.846026" lon="144.884049"><ele>14.25</ele></trkpt>
   <trkpt lat="-37.846375" lon="144.884136"><ele>15.25</ele></trkpt>
   <trkpt lat="-37.846987" lon="144.884309"><ele>15.25</ele></trkpt>
   <trkpt lat="-37.847563" lon="144.884491"><ele>14.75</ele></trkpt>
   <trkpt lat="-37.848036" lon="144.884662"><ele>15</ele></trkpt>
   <trkpt lat="-37.848951" lon="144.885016"><ele>16.25</ele></trkpt>
   <trkpt lat="-37.849489" lon="144.885243"><ele>15.25</ele></trkpt>
   <trkpt lat="-37.85017" lon="144.885555"><ele>14.25</ele></trkpt>
   <trkpt lat="-37.853959" lon="144.887415"><ele>15.75</ele></trkpt>
   <trkpt lat="-37.854817" lon="144.887851"><ele>15.5</ele></trkpt>
   <trkpt lat="-37.856334" lon="144.888594"><ele>12.75</ele></trkpt>
   <trkpt lat="-37.857355" lon="144.889094"><ele>11.25</ele></trkpt>
   <trkpt lat="-37.857661" lon="144.889252"><ele>11.25</ele></trkpt>
   <trkpt lat="-37.858129" lon="144.889483"><ele>12.25</ele></trkpt>
   <trkpt lat="-37.859518" lon="144.890162"><ele>12.5</ele></trkpt>
   <trkpt lat="-37.860184" lon="144.890506"><ele>12.75</ele></trkpt>
   <trkpt lat="-37.860301" lon="144.890573"><ele>12.5</ele></trkpt>
   <trkpt lat="-37.860415" lon="144.890638"><ele>12.5</ele></trkpt>
   <trkpt lat="-37.860914" lon="144.890958"><ele>12</ele></trkpt>
   <trkpt lat="-37.861255" lon="144.891213"><ele>11.75</ele></trkpt>
   <trkpt lat="-37.861469" lon="144.891382"><ele>11.75</ele></trkpt>
   <trkpt lat="-37.861706" lon="144.891581"><ele>11.75</ele></trkpt>
   <trkpt lat="-37.862076" lon="144.891912"><ele>11.5</ele></trkpt>
   <trkpt lat="-37.862333" lon="144.892183"><ele>11.25</ele></trkpt>
   <trkpt lat="-37.862771" lon="144.892682"><ele>11.25</ele></trkpt>
   <trkpt lat="-37.86309" lon="144.893083"><ele>11.75</ele></trkpt>
   <trkpt lat="-37.86331" lon="144.893392"><ele>12</ele></trkpt>
   <trkpt lat="-37.863525" lon="144.893723"><ele>11.75</ele></trkpt>
   <trkpt lat="-37.863764" lon="144.894102"><ele>11.25</ele></trkpt>
   <trkpt lat="-37.864092" lon="144.894691"><ele>11</ele></trkpt>
   <trkpt lat="-37.86434" lon="144.895202"><ele>10.25</ele></trkpt>
   <trkpt lat="-37.864612" lon="144.895856"><ele>9.75</ele></trkpt>
   <trkpt lat="-37.864785" lon="144.89634"><ele>9.75</ele></trkpt>
   <trkpt lat="-37.865626" lon="144.898858"><ele>11.75</ele></trkpt>
   <trkpt lat="-37.865669" lon="144.898985"><ele>11.75</ele></trkpt>
   <trkpt lat="-37.866461" lon="144.901371"><ele>12.25</ele></trkpt>
   <trkpt lat="-37.867127" lon="144.903354"><ele>13</ele></trkpt>
   <trkpt lat="-37.867271" lon="144.90384"><ele>16.5</ele></trkpt>
   <trkpt lat="-37.867318" lon="144.904017"><ele>17.75</ele></trkpt>
   <trkpt lat="-37.867384" lon="144.904215"><ele>18.5</ele></trkpt>
   <trkpt lat="-37.867946" lon="144.905904"><ele>8.5</ele></trkpt>
   <trkpt lat="-37.867962" lon="144.90595"><ele>7.75</ele></trkpt>
  </trkseg>
 </trk>
</gpx>